{"type":"FeatureCollection","attribution":"Contains data from the Toilet Map © 2025 – CC BY 4.0 (https://www.toiletmap.org.uk/dataset)","generated_at":"2026-08-21T08:59:23.637Z","features":[{"type":"Feature","geometry":{"type":"Point","coordinates":[-2.581473291,51.42974593]},"properties":{"id":"toiletmap/0304ff28163d340219cd48c2","source":"toiletmap-uk","name":"The Park, Daventry Road, Knowle, Bristol, BS4 1DQ ","fee":"no","charge":null,"access":null,"wheelchair":"yes","opening_hours":"Mo-Fr 07:00-22:00; Sa-Su 09:00-16:00","operator":null,"description":null,"password":null}},{"type":"Feature","geometry":{"type":"Point","coordinates":[-2.610435784,51.446947197]},"properties":{"id":"toiletmap/0330730d0904a07efde500d0","source":"toiletmap-uk","name":"Spike Island,133 Cumberland Road, BS1 6UX","fee":"no","charge":null,"access":null,"wheelchair":"yes","opening_hours":"Mo-Fr 10:00-17:00; Sa-Su 10:00-16:00","operator":null,"description":null,"password":null}},{"type":"Feature","geometry":{"type":"Point","coordinates":[-2.593438625,51.42513607]},"properties":{"id":"toiletmap/03e64083dcad204534878dcb","source":"toiletmap-uk","name":"Knowle West Media Centre","fee":"no","charge":null,"access":null,"wheelchair":"no","opening_hours":null,"operator":null,"description":"Part of Bristol Community Toilet Scheme","password":null}},{"type":"Feature","geometry":{"type":"Point","coordinates":[-2.600849526,51.442017239]},"properties":{"id":"toiletmap/04431b86ccab968f6cdd56ec","source":"toiletmap-uk","name":"Bristol South Swimming Pool, Dean Lane, Bedminster, BS3 1BS","fee":"no","charge":null,"access":null,"wheelchair":"yes","opening_hours":"Mo 07:30-20:00; Tu 07:30-19:00; We 07:30-20:00; Th 07:30-20:15; Fr 07:30-18:00; Sa-Su 08:00-15:45","operator":null,"description":null,"password":null}},{"type":"Feature","geometry":{"type":"Point","coordinates":[-2.560342848,51.446936646]},"properties":{"id":"toiletmap/05084d800154f86b4d623c7a","source":"toiletmap-uk","name":"McDonald's, Avonmeads Retail park, St Philips Causeway, BS2 0SP","fee":"no","charge":null,"access":null,"wheelchair":"no","opening_hours":null,"operator":null,"description":null,"password":null}},{"type":"Feature","geometry":{"type":"Point","coordinates":[-2.619447752,51.509670796]},"properties":{"id":"toiletmap/06a6c3c4b85a119a2b93bf53","source":"toiletmap-uk","name":"Henbury Library","fee":"no","charge":null,"access":null,"wheelchair":"yes","opening_hours":null,"operator":null,"description":null,"password":null}},{"type":"Feature","geometry":{"type":"Point","coordinates":[-2.568126619,51.4344201]},"properties":{"id":"toiletmap/06ffff7199a22ee3fa83a226","source":"toiletmap-uk","name":"Broadwalk Shopping Centre, Broadwalk, Knowle, BS4 2QU","fee":"no","charge":null,"access":null,"wheelchair":"yes","opening_hours":"Mo-Th 08:00-18:30; Fr 08:00-19:30; Sa 08:00-18:00; Su 10:00-16:00","operator":null,"description":null,"password":null}},{"type":"Feature","geometry":{"type":"Point","coordinates":[-2.594809234,51.443623]},"properties":{"id":"toiletmap/074e441ae9df41e542fc29a2","source":"toiletmap-uk","name":"ASDA Bedminster","fee":"no","charge":null,"access":null,"wheelchair":"no","opening_hours":"Mo-Fr 07:00-22:00; Sa 07:00-21:00; Su 10:00-16:00","operator":null,"description":"Source: https://storelocator.asda.com/south-west/bristol/east-street","password":null}},{"type":"Feature","geometry":{"type":"Point","coordinates":[-2.648910522,51.409629822]},"properties":{"id":"toiletmap/084bd19f26864d3cb521e6bf","source":"toiletmap-uk","name":"Nisa Local","fee":"no","charge":null,"access":null,"wheelchair":null,"opening_hours":null,"operator":null,"description":"Inside the Nisa Local, on the left","password":null}},{"type":"Feature","geometry":{"type":"Point","coordinates":[-2.611433705,51.480493451]},"properties":{"id":"toiletmap/08fc80bf8b0dedcaca5beb9b","source":"toiletmap-uk","name":"The Westbury Park Pub and Kitchen, Northumbria Drive, BS9 4HP ","fee":"no","charge":null,"access":null,"wheelchair":"yes","opening_hours":null,"operator":null,"description":null,"password":null}},{"type":"Feature","geometry":{"type":"Point","coordinates":[-2.608673573,51.49953983]},"properties":{"id":"toiletmap/0a739740bb488adec9217c4a","source":"toiletmap-uk","name":"The Greenway Centre","fee":"yes","charge":null,"access":null,"wheelchair":"no","opening_hours":null,"operator":null,"description":"Community Toilet Scheme","password":null}},{"type":"Feature","geometry":{"type":"Point","coordinates":[-2.57127285,51.413889094]},"properties":{"id":"toiletmap/0d86b2c71da3edee81f23af6","source":"toiletmap-uk","name":"ASDA Bristol Whitchurch","fee":"no","charge":null,"access":null,"wheelchair":"no","opening_hours":"Mo-Sa 07:00-22:00; Su 10:00-16:00","operator":null,"description":"Accessible cubicle narrow\nSource: https://storelocator.asda.com/south-west/bristol/oatlands-avenue","password":null}},{"type":"Feature","geometry":{"type":"Point","coordinates":[-2.598526776,51.462302602]},"properties":{"id":"toiletmap/0f852bd0751b8c41b6b7da9b","source":"toiletmap-uk","name":"Kingsdown Sports Centre, Portland Street, BS2 8HL ","fee":"no","charge":null,"access":null,"wheelchair":"yes","opening_hours":"Mo-Fr 07:00-22:00; Sa 08:00-18:00; Su 09:00-22:00","operator":null,"description":null,"password":null}},{"type":"Feature","geometry":{"type":"Point","coordinates":[-2.518188,51.4494792]},"properties":{"id":"toiletmap/0fd08d375f934158fd0daa03","source":"toiletmap-uk","name":null,"fee":"no","charge":null,"access":null,"wheelchair":"no","opening_hours":null,"operator":null,"description":null,"password":null}},{"type":"Feature","geometry":{"type":"Point","coordinates":[-2.591499388,51.47514688]},"properties":{"id":"toiletmap/113ece1c642053c57bb22d54","source":"toiletmap-uk","name":"Bishopston Library","fee":"no","charge":null,"access":null,"wheelchair":"yes","opening_hours":"Mo-Su 09:00-18:00","operator":null,"description":null,"password":null}},{"type":"Feature","geometry":{"type":"Point","coordinates":[-2.598097622,51.451756385]},"properties":{"id":"toiletmap/12fe32ed9ebbd8b795946efc","source":"toiletmap-uk","name":"Watershed,1 Cannons Road, Harbourside, Bristol, BS1 5TX ","fee":"no","charge":null,"access":null,"wheelchair":"yes","opening_hours":"Mo-Fr 09:00-23:00; Sa-Su 10:00-23:00","operator":null,"description":null,"password":null}},{"type":"Feature","geometry":{"type":"Point","coordinates":[-2.599173188,51.405152547]},"properties":{"id":"toiletmap/15ee771314ab23e548600822","source":"toiletmap-uk","name":"Morrisons","fee":"yes","charge":null,"access":null,"wheelchair":"yes","opening_hours":"Mo-Su 09:00-17:00","operator":null,"description":null,"password":null}},{"type":"Feature","geometry":{"type":"Point","coordinates":[-2.60065645,51.451666734]},"properties":{"id":"toiletmap/17509e237fd9f05919526af3","source":"toiletmap-uk","name":"Bristol Cathedral Toilets","fee":"no","charge":null,"access":null,"wheelchair":"yes","opening_hours":"Mo-Sa 09:00-16:00; Su 10:00-15:00","operator":null,"description":null,"password":null}},{"type":"Feature","geometry":{"type":"Point","coordinates":[-2.566653787,51.49649176]},"properties":{"id":"toiletmap/17f9b27975173abf27a1c971","source":"toiletmap-uk","name":"Lockleaze Sports Centre","fee":"no","charge":null,"access":null,"wheelchair":null,"opening_hours":null,"operator":null,"description":null,"password":null}},{"type":"Feature","geometry":{"type":"Point","coordinates":[-2.591317329,51.474335223]},"properties":{"id":"toiletmap/1a942fbe4052330a2b71257e","source":"toiletmap-uk","name":"La Fiorentina","fee":"no","charge":null,"access":null,"wheelchair":null,"opening_hours":null,"operator":null,"description":null,"password":null}},{"type":"Feature","geometry":{"type":"Point","coordinates":[-2.590431869,51.460450977]},"properties":{"id":"toiletmap/1d7d57b3f1258808af81e720","source":"toiletmap-uk","name":"The Full Moon Backpacker Hotel And Attic Bar North Street, BS1 3PR ","fee":"no","charge":null,"access":null,"wheelchair":"yes","opening_hours":"Mo-Th 12:00-00:00; Fr 12:00-02:00; Sa 12:00-00:00; Su 12:00-22:30","operator":null,"description":null,"password":null}},{"type":"Feature","geometry":{"type":"Point","coordinates":[-2.58659631,51.483429938]},"properties":{"id":"toiletmap/1e869d8a21103c140dabf031","source":"toiletmap-uk","name":"The Royal Oak","fee":"no","charge":null,"access":null,"wheelchair":"yes","opening_hours":null,"operator":null,"description":null,"password":null}},{"type":"Feature","geometry":{"type":"Point","coordinates":[-2.502291799,51.462114146]},"properties":{"id":"toiletmap/215434b506554f5becb28ee9","source":"toiletmap-uk","name":null,"fee":"no","charge":null,"access":null,"wheelchair":"no","opening_hours":null,"operator":null,"description":null,"password":null}},{"type":"Feature","geometry":{"type":"Point","coordinates":[-2.528649751,51.480422769]},"properties":{"id":"toiletmap/218d1d97f1f182e3158a1014","source":"toiletmap-uk","name":"Coffee#1","fee":"no","charge":null,"access":null,"wheelchair":"yes","opening_hours":null,"operator":null,"description":null,"password":null}},{"type":"Feature","geometry":{"type":"Point","coordinates":[-2.602609098,51.451489714]},"properties":{"id":"toiletmap/23d9c4e69843b9e2f2661c19","source":"toiletmap-uk","name":"Bristol Central Library","fee":"no","charge":null,"access":null,"wheelchair":"yes","opening_hours":"Mo 09:30-17:00; Tu 09:30-19:00; We 09:30-17:00; Th 09:30-19:00; Fr 09:30-17:00; Sa 10:00-17:00; Su 13:00-17:00","operator":null,"description":"Also CHANGING PLACES toilet. Part of Bristol City Council Community Toilet Scheme.","password":null}},{"type":"Feature","geometry":{"type":"Point","coordinates":[-2.61967627,51.43355036]},"properties":{"id":"toiletmap/247b6200162d07e644aff712","source":"toiletmap-uk","name":"Sainsbury's, Winterstoke Road, BS3 2NS ","fee":"no","charge":null,"access":null,"wheelchair":"yes","opening_hours":"Mo-Sa 07:00-22:00; Su 10:00-16:00","operator":null,"description":null,"password":null}},{"type":"Feature","geometry":{"type":"Point","coordinates":[-2.593768386,51.469758219]},"properties":{"id":"toiletmap/24ad4b5a586bd23804f34744","source":"toiletmap-uk","name":"Bishops Tavern","fee":"no","charge":null,"access":null,"wheelchair":"yes","opening_hours":"Mo-Th 15:00-23:00; Fr-Sa 12:00-00:00; Su 12:00-22:00","operator":null,"description":null,"password":null}},{"type":"Feature","geometry":{"type":"Point","coordinates":[-2.559355552,51.426317338]},"properties":{"id":"toiletmap/268a62bd6fdcd0bb9361ef77","source":"toiletmap-uk","name":"Imperial Sports Ground","fee":"no","charge":null,"access":null,"wheelchair":"yes","opening_hours":null,"operator":null,"description":null,"password":null}},{"type":"Feature","geometry":{"type":"Point","coordinates":[-2.567088604,51.434420601]},"properties":{"id":"toiletmap/270a3a6e784b92b9ec9ce533","source":"toiletmap-uk","name":"Broadwalk Shopping Centre","fee":"no","charge":null,"access":null,"wheelchair":"yes","opening_hours":"Mo-Su 09:00-17:00","operator":null,"description":"Monday-Thursday 08:00-18:30, Friday 08:00-19:30, Saturday 08:00-18:00, Sunday 10:00-16:00. Use doorbell if no RADAR key.","password":null}},{"type":"Feature","geometry":{"type":"Point","coordinates":[-2.600133419,51.449346812]},"properties":{"id":"toiletmap/283dd9e9e53739bd9e253120","source":"toiletmap-uk","name":"Millennium Square Car Park Public Toilets","fee":"no","charge":null,"access":null,"wheelchair":"yes","opening_hours":null,"operator":null,"description":"Monday-Friday 11:00 - 17:00. Saturday - Sunday 11:00- 17:00.","password":null}},{"type":"Feature","geometry":{"type":"Point","coordinates":[-2.611819804,51.441315886]},"properties":{"id":"toiletmap/29312a83ef84a827cce4b162","source":"toiletmap-uk","name":"The Burger Joint, 240 North Street Bedminster Bristol, BS3 1JD","fee":"no","charge":null,"access":null,"wheelchair":"yes","opening_hours":"Mo-Th 12:00-22:00; Fr-Sa 12:00-22:30; Su 10:00-22:00","operator":null,"description":null,"password":null}},{"type":"Feature","geometry":{"type":"Point","coordinates":[-2.597011328,51.457964611]},"properties":{"id":"toiletmap/2c6836f4e38bbece16b0416b","source":"toiletmap-uk","name":"Bristol Royal Hospital for Children (Reception)","fee":"yes","charge":null,"access":null,"wheelchair":"yes","opening_hours":"Mo-Su 09:00-18:00","operator":null,"description":"Baby changing, accessible toilet and baby feeding room available at reception. Single sex toilets and more unisex disabled toilets available in the stairwell on every level. \nThe main reception doors are locked from 10pm till 6am for patient safety overnight.","password":null}},{"type":"Feature","geometry":{"type":"Point","coordinates":[-2.602665424,51.503353336]},"properties":{"id":"toiletmap/2dfded07cf48b9bffbd14334","source":"toiletmap-uk","name":"The Lounge Coffee Shop and Bar LTD","fee":"yes","charge":null,"access":null,"wheelchair":"no","opening_hours":null,"operator":null,"description":"Community Toilet Scheme","password":null}},{"type":"Feature","geometry":{"type":"Point","coordinates":[-2.583823014,51.493631387]},"properties":{"id":"toiletmap/2ec16c8fde6eae5ec984d760","source":"toiletmap-uk","name":"Horfield Leisure Centre","fee":"no","charge":null,"access":null,"wheelchair":null,"opening_hours":null,"operator":null,"description":null,"password":null}},{"type":"Feature","geometry":{"type":"Point","coordinates":[-2.573905932,51.4597419]},"properties":{"id":"toiletmap/2feaf7461ab6c896fc27ac2b","source":"toiletmap-uk","name":"Easton Leisure Centre, Thrissell Street, BS5 0SW","fee":"no","charge":null,"access":null,"wheelchair":"yes","opening_hours":"Mo-Fr 06:30-22:30; Sa 07:30-20:00; Su 07:00-21:00","operator":null,"description":null,"password":null}},{"type":"Feature","geometry":{"type":"Point","coordinates":[-2.592784081,51.442146062]},"properties":{"id":"toiletmap/33adb1ad7d934f605e52597f","source":"toiletmap-uk","name":"Windmill Hill City Farm, Phillips Street, BS3 4EA ","fee":"no","charge":null,"access":null,"wheelchair":"yes","opening_hours":"Mo-Su 09:00-17:00","operator":null,"description":null,"password":null}},{"type":"Feature","geometry":{"type":"Point","coordinates":[-2.588618672,51.480304031]},"properties":{"id":"toiletmap/33c4be03355812eee83dd114","source":"toiletmap-uk","name":"Boston Tea Party, 293 Gloucester Road, BS7 8PE","fee":"no","charge":null,"access":null,"wheelchair":"yes","opening_hours":"Mo-Sa 08:00-17:00; Su 09:00-17:00","operator":null,"description":null,"password":null}},{"type":"Feature","geometry":{"type":"Point","coordinates":[-2.560208738,51.44880998]},"properties":{"id":"toiletmap/33ee27ce0655752029278d47","source":"toiletmap-uk","name":"Tenpin, Avonmeads, St Philips Causeway  BS2 0SP ","fee":"no","charge":null,"access":null,"wheelchair":null,"opening_hours":null,"operator":null,"description":null,"password":null}},{"type":"Feature","geometry":{"type":"Point","coordinates":[-2.57193536,51.43401844]},"properties":{"id":"toiletmap/341cb8acb6c7135b9cb22ca3","source":"toiletmap-uk","name":"Redcatch Park, Broadwalk, Knowle, BS4 2RA ","fee":"no","charge":null,"access":null,"wheelchair":"yes","opening_hours":null,"operator":null,"description":"7.30am - between 5.30/6.30pm.","password":null}},{"type":"Feature","geometry":{"type":"Point","coordinates":[-2.688442469,51.489724093]},"properties":{"id":"toiletmap/342aabc81f62ffc1551e2d75","source":"toiletmap-uk","name":"A4 Portway Park & Ride","fee":"no","charge":null,"access":null,"wheelchair":"yes","opening_hours":"Mo-Sa 06:00-21:40; Su 09:00-18:40","operator":null,"description":"Community Toilet Scheme","password":null}},{"type":"Feature","geometry":{"type":"Point","coordinates":[-2.608295414,51.458110933]},"properties":{"id":"toiletmap/34bac952ab836538139d3141","source":"toiletmap-uk","name":"Royal West of England Academy Of Art","fee":"no","charge":null,"access":null,"wheelchair":"yes","opening_hours":null,"operator":null,"description":null,"password":null}},{"type":"Feature","geometry":{"type":"Point","coordinates":[-2.650097609,51.484853848]},"properties":{"id":"toiletmap/38c5f736d1a87f9e83fe4262","source":"toiletmap-uk","name":"Sea Mills Surgery","fee":"no","charge":null,"access":null,"wheelchair":"yes","opening_hours":null,"operator":null,"description":"Mon-Fri 8am-8.30pm. Part of Bristol Community Toilet Scheme","password":null}},{"type":"Feature","geometry":{"type":"Point","coordinates":[-2.622258961,51.447166645]},"properties":{"id":"toiletmap/3959c23e1ad499d4fe6c505a","source":"toiletmap-uk","name":"Create Centre, Smeaton Road, Spike Island, BS1 6XN","fee":"no","charge":null,"access":null,"wheelchair":null,"opening_hours":"Mo-Th 08:30-17:00; Fr 08:30-17:59; Sa-Su 10:00-16:00","operator":null,"description":"10am-4pm first two Saturdays of the month.","password":null}},{"type":"Feature","geometry":{"type":"Point","coordinates":[-2.578227818,51.457075495]},"properties":{"id":"toiletmap/39ba9b409eb97c0e9cecdac7","source":"toiletmap-uk","name":"Old Market Cafe 39 West Street BS2 0BZ","fee":"no","charge":null,"access":null,"wheelchair":"yes","opening_hours":"Mo-Sa 08:00-15:00","operator":null,"description":null,"password":null}},{"type":"Feature","geometry":{"type":"Point","coordinates":[-2.549289465,51.461327137]},"properties":{"id":"toiletmap/3ab26f6991cfea13ccd68727","source":"toiletmap-uk","name":"St George's Park","fee":"no","charge":null,"access":null,"wheelchair":"yes","opening_hours":null,"operator":null,"description":"Newly installed public toilets, with automatic timer locks.","password":null}},{"type":"Feature","geometry":{"type":"Point","coordinates":[-2.584547102,51.458699622]},"properties":{"id":"toiletmap/3daef733aed9afb939aae84e","source":"toiletmap-uk","name":"City Hall Bristol City Council, College Green, BS1 5TL ","fee":"no","charge":null,"access":null,"wheelchair":"yes","opening_hours":"Mo-Fr 08:00-19:00","operator":null,"description":null,"password":null}},{"type":"Feature","geometry":{"type":"Point","coordinates":[-2.532311082,51.458902175]},"properties":{"id":"toiletmap/3e8ae2f598a8369977b02164","source":"toiletmap-uk","name":"Air Balloon Surgery","fee":"no","charge":null,"access":null,"wheelchair":"yes","opening_hours":"Mo-Fr 09:00-17:00","operator":null,"description":"Participant in Use Our Loos Community Toilet Scheme. Open 8am to 8pm Mon to Thurs 8am to 7pm Friday, irregular Saturdays.","password":null}},{"type":"Feature","geometry":{"type":"Point","coordinates":[-2.647619247,51.487945411]},"properties":{"id":"toiletmap/4041a4348388695fe82a0b2b","source":"toiletmap-uk","name":"Cafe on the Square","fee":"no","charge":null,"access":null,"wheelchair":"yes","opening_hours":null,"operator":null,"description":"Mon-Fri 9am-5pm, Sat 10am-2pm. Part of Bristol Community Toilet Scheme.","password":null}},{"type":"Feature","geometry":{"type":"Point","coordinates":[-2.603901923,51.45507321]},"properties":{"id":"toiletmap/420653786e532813b1b25dbd","source":"toiletmap-uk","name":"Pinkmans Bakery 85 Park St, Bristol BS1 5LA","fee":"no","charge":null,"access":null,"wheelchair":"no","opening_hours":"Mo-Sa 08:00-17:00; Su 09:00-17:00","operator":null,"description":null,"password":null}},{"type":"Feature","geometry":{"type":"Point","coordinates":[-2.592686799,51.471673451]},"properties":{"id":"toiletmap/422d42b4b5ccaa483a9fea42","source":"toiletmap-uk","name":"The Gallimaurfry ","fee":"no","charge":null,"access":null,"wheelchair":null,"opening_hours":"Mo-Th 12:00-00:00; Fr-Sa 12:00-01:00; Su 12:00-00:00","operator":null,"description":null,"password":null}},{"type":"Feature","geometry":{"type":"Point","coordinates":[-2.653740048,51.504916047]},"properties":{"id":"toiletmap/43148ab8ab61d56b555ca6f9","source":"toiletmap-uk","name":"Lawrence Weston Youth Centre","fee":"no","charge":null,"access":null,"wheelchair":"yes","opening_hours":"Mo-Fr 09:00-17:00","operator":null,"description":"Use Our Loos and Community Toilet Scheme. 9-5 M-F and other times ad hoc.","password":null}},{"type":"Feature","geometry":{"type":"Point","coordinates":[-2.610438466,51.446917957]},"properties":{"id":"toiletmap/43c189b1032e4b50f8de2352","source":"toiletmap-uk","name":"Spike Island","fee":"no","charge":null,"access":null,"wheelchair":"yes","opening_hours":"Mo-Su 09:00-17:00","operator":null,"description":"Mon-Fri: 8am-17.30. Sat-Sun: 10am-17.30. Part of Bristol City Council Community Toilet Scheme.","password":null}},{"type":"Feature","geometry":{"type":"Point","coordinates":[-2.584233284,51.41539465]},"properties":{"id":"toiletmap/43d2f4a2c4c054b06380367b","source":"toiletmap-uk","name":"Hengrove Play Park","fee":"no","charge":null,"access":null,"wheelchair":"no","opening_hours":null,"operator":null,"description":"Part of Bristol Community Toilet Scheme","password":null}},{"type":"Feature","geometry":{"type":"Point","coordinates":[-2.598102987,51.451753809]},"properties":{"id":"toiletmap/4403f4311e9fe82e81b04427","source":"toiletmap-uk","name":"Watershed","fee":"no","charge":null,"access":null,"wheelchair":"yes","opening_hours":"Mo 12:00-21:00; Tu-Su 09:30-22:00","operator":null,"description":"Award winning inclusive toilets, refurbished in 2022 and free for everyone to use. The toilets are upstairs in a public venue with step free access via lift. Facilities include a number of Ambulant toilets, a family room, multiple accessible toilets, multiple units with baby changing, multiple fully enclosed lockable toilets - some with internal mirrors and sinks. Trans+ inclusive.","password":null}},{"type":"Feature","geometry":{"type":"Point","coordinates":[-2.590013146,51.465565087]},"properties":{"id":"toiletmap/4471baf132f2a7150cab21b4","source":"toiletmap-uk","name":"Boston Tea Party, 156 Cheltenham Road, Cotham, BS6 5RL ","fee":"no","charge":null,"access":null,"wheelchair":"yes","opening_hours":"Mo-Sa 08:00-17:00; Su 09:00-17:00","operator":null,"description":null,"password":null}},{"type":"Feature","geometry":{"type":"Point","coordinates":[-2.588565027,51.480853335]},"properties":{"id":"toiletmap/4510edd543911f0bf58bd073","source":"toiletmap-uk","name":"Better Food Company","fee":"no","charge":null,"access":null,"wheelchair":"yes","opening_hours":"Mo-Sa 08:00-20:00; Su 10:00-18:00","operator":null,"description":null,"password":null}},{"type":"Feature","geometry":{"type":"Point","coordinates":[-2.617684894,51.471796894]},"properties":{"id":"toiletmap/46a16e55e101e5b2da1a619e","source":"toiletmap-uk","name":"Stoke Road Toilets","fee":"no","charge":null,"access":null,"wheelchair":"yes","opening_hours":"Mo-Su 08:00-20:00","operator":null,"description":"Open 8am-8pm daily.","password":null}},{"type":"Feature","geometry":{"type":"Point","coordinates":[-2.588795722,51.480698028]},"properties":{"id":"toiletmap/46b5ac36905aec6eb10fb8a3","source":"toiletmap-uk","name":"Lazz Lounge","fee":"no","charge":null,"access":null,"wheelchair":null,"opening_hours":null,"operator":null,"description":null,"password":null}},{"type":"Feature","geometry":{"type":"Point","coordinates":[-2.565085061,51.473973596]},"properties":{"id":"toiletmap/49c3bad984115a0d6ce4acb7","source":"toiletmap-uk","name":"Burger King, 4 Eastgate Road, Eastgate Centre, BS5 6XX ","fee":"no","charge":null,"access":null,"wheelchair":"yes","opening_hours":null,"operator":null,"description":null,"password":null}},{"type":"Feature","geometry":{"type":"Point","coordinates":[-2.592931617,51.471385969]},"properties":{"id":"toiletmap/49e72065b7b23791806c469c","source":"toiletmap-uk","name":"The Blue Lagoon","fee":"no","charge":null,"access":null,"wheelchair":"no","opening_hours":"Mo-Th 08:30-00:00; Fr-Sa 08:00-01:30; Su 09:00-00:00","operator":null,"description":null,"password":null}},{"type":"Feature","geometry":{"type":"Point","coordinates":[-2.61397649,51.46945077]},"properties":{"id":"toiletmap/501906f67d4e7bf950f7f4c9","source":"toiletmap-uk","name":"Jersey Liley","fee":"no","charge":null,"access":null,"wheelchair":"no","opening_hours":null,"operator":null,"description":null,"password":null}},{"type":"Feature","geometry":{"type":"Point","coordinates":[-2.611572932,51.464544257]},"properties":{"id":"toiletmap/51ba45fb515e45bac7ef7c3d","source":"toiletmap-uk","name":"Steam","fee":"no","charge":null,"access":null,"wheelchair":"no","opening_hours":null,"operator":null,"description":null,"password":null}},{"type":"Feature","geometry":{"type":"Point","coordinates":[-2.508525252,51.462755845]},"properties":{"id":"toiletmap/529c3bd493a2447c52e852e8","source":"toiletmap-uk","name":"Kings Chase Shopping Centre","fee":"no","charge":null,"access":null,"wheelchair":"no","opening_hours":null,"operator":null,"description":"Mon-Sat Business Hours","password":null}},{"type":"Feature","geometry":{"type":"Point","coordinates":[-2.635482252,51.470091106]},"properties":{"id":"toiletmap/54e9b9a847965e7d5099e411","source":"toiletmap-uk","name":"Circular Road Public Toilet","fee":"no","charge":null,"access":null,"wheelchair":"no","opening_hours":"Mo-Su 09:00-17:00","operator":null,"description":"Source: https://www.bristol.gov.uk/museums-parks-sports-culture/the-downs","password":null}},{"type":"Feature","geometry":{"type":"Point","coordinates":[-2.603832185,51.4551802]},"properties":{"id":"toiletmap/566375e5e833372f0cb9d336","source":"toiletmap-uk","name":"75 Park Street, BS1 5PF","fee":"no","charge":null,"access":null,"wheelchair":"no","opening_hours":"Mo-Sa 08:00-17:00; Su 09:00-17:00","operator":null,"description":null,"password":null}},{"type":"Feature","geometry":{"type":"Point","coordinates":[-2.593403757,51.449476546]},"properties":{"id":"toiletmap/5753162c41cc847797a55c0d","source":"toiletmap-uk","name":"The Hole In The Wall, 2 The Grove Bristol, BS1 4QZ ","fee":"no","charge":null,"access":null,"wheelchair":"yes","opening_hours":"Mo-Sa 12:00-23:00; Su 12:00-22:00","operator":null,"description":null,"password":null}},{"type":"Feature","geometry":{"type":"Point","coordinates":[-2.566198111,51.441456323]},"properties":{"id":"toiletmap/57c713ba01839116dfbeae49","source":"toiletmap-uk","name":"Spielman Centre, Arnos Vale Cemetery","fee":"no","charge":null,"access":null,"wheelchair":"yes","opening_hours":"Mo-Su 10:00-16:00","operator":null,"description":"It is downstairs but there is an accessible lift in the Spielman.","password":null}},{"type":"Feature","geometry":{"type":"Point","coordinates":[-2.605516822,51.443820062]},"properties":{"id":"toiletmap/58d4c41da6d6ac762db82947","source":"toiletmap-uk","name":"Southville Centre, Beauley Rd,BS3 1QG ","fee":"no","charge":null,"access":null,"wheelchair":"yes","opening_hours":"Mo-Th 08:30-20:15; Fr 08:30-18:00","operator":null,"description":null,"password":null}},{"type":"Feature","geometry":{"type":"Point","coordinates":[-2.591204345,51.49507941]},"properties":{"id":"toiletmap/59a2e9f04dd5e0a0be460313","source":"toiletmap-uk","name":"Southmead Hospital","fee":"no","charge":null,"access":null,"wheelchair":"yes","opening_hours":"Mo-Su 11:00-19:00","operator":null,"description":"At least 4-6 toilets are available throughout the ground floor atrium. Toilets located further from crowds tend to be cleaner.\nSources:\nhttps://www.nbt.nhs.uk/our-hospitals/southmead-hospital-bristol\nhttps://www.nbt.nhs.uk/patients-carers/visitors/visiting-times","password":null}},{"type":"Feature","geometry":{"type":"Point","coordinates":[-2.589814,51.44006]},"properties":{"id":"toiletmap/59d262aa248af0f707b99aa5","source":"toiletmap-uk","name":"Victoria Park WC","fee":"no","charge":null,"access":null,"wheelchair":"no","opening_hours":null,"operator":null,"description":"7am-5.30/6pm.","password":null}},{"type":"Feature","geometry":{"type":"Point","coordinates":[-2.63619372,51.435606191]},"properties":{"id":"toiletmap/5a6f2f61d16984a89e4d4c0e","source":"toiletmap-uk","name":"Long Ashton Park and Ride, Ashton Road, Ashton, BS3 2HB","fee":null,"charge":null,"access":null,"wheelchair":"yes","opening_hours":"Mo-Sa 05:30-22:45","operator":null,"description":null,"password":null}},{"type":"Feature","geometry":{"type":"Point","coordinates":[-2.622261643,51.447198795]},"properties":{"id":"toiletmap/5b5961957af65eac75621b2c","source":"toiletmap-uk","name":"Create Centre","fee":"no","charge":null,"access":null,"wheelchair":"yes","opening_hours":null,"operator":null,"description":"Mon-Thurs 8:30am-5pm Fri 8:30am-4:30pm Sat 10am-4pm (first two Saturdays of the month). Accessible toilets in mens and women as well as unisex facility. Part of Bristol City Council Community Toilet Scheme.","password":null}},{"type":"Feature","geometry":{"type":"Point","coordinates":[-2.602059245,51.452567813]},"properties":{"id":"toiletmap/5c9a1c955392b0a2bf3c0c39","source":"toiletmap-uk","name":"Bristol City Hall Customer Service Point","fee":"no","charge":null,"access":null,"wheelchair":"yes","opening_hours":"Mo-Fr 08:00-19:00","operator":null,"description":"Changing Places toilet included. Part of Bristol City Council Community Toilet Scheme.","password":null}},{"type":"Feature","geometry":{"type":"Point","coordinates":[-2.595511973,51.485830631]},"properties":{"id":"toiletmap/5cd4129a49cdfe40534aa729","source":"toiletmap-uk","name":"Tesco Lime Trees Superstore","fee":"no","charge":null,"access":null,"wheelchair":"yes","opening_hours":"Mo-Sa 08:00-22:00; Su 10:00-16:00","operator":null,"description":"Just inside the store, near the Costa coffee shop\nSource: https://www.tesco.com/store-locator/bristol/lime-trees-rd","password":null}},{"type":"Feature","geometry":{"type":"Point","coordinates":[-2.560356259,51.446925149]},"properties":{"id":"toiletmap/600ddb9c9e9b5d8e8f97b662","source":"toiletmap-uk","name":"Mcdonalds","fee":"no","charge":null,"access":null,"wheelchair":null,"opening_hours":"Mo-Su 00:00-23:59","operator":null,"description":"Open 24hrs\nPart of Community Toilet Scheme https://www.bristol.gov.uk/residents/streets-travel/public-toilets","password":null}},{"type":"Feature","geometry":{"type":"Point","coordinates":[-2.607549916,51.457752821]},"properties":{"id":"toiletmap/6103097878c850e033730a4b","source":"toiletmap-uk","name":"Two Ways Caffe Bar","fee":"no","charge":null,"access":null,"wheelchair":"no","opening_hours":null,"operator":null,"description":null,"password":null}},{"type":"Feature","geometry":{"type":"Point","coordinates":[-2.592784081,51.442146062]},"properties":{"id":"toiletmap/623bfea513cbc0a60bfc69a0","source":"toiletmap-uk","name":"Windmill Hill City Farm, Phillips Street, BS3 4EA ","fee":"no","charge":null,"access":null,"wheelchair":"yes","opening_hours":"Mo-Su 09:00-17:00","operator":null,"description":null,"password":null}},{"type":"Feature","geometry":{"type":"Point","coordinates":[-2.580496967,51.462379097]},"properties":{"id":"toiletmap/63f9bb27f9ab9bbfc4a3f9e9","source":"toiletmap-uk","name":"St Pauls Community Sports Academy, St Pauls Community Sports Academy, Newfoundland Road, Bristol, BS2 9NH ","fee":"no","charge":null,"access":null,"wheelchair":null,"opening_hours":null,"operator":null,"description":null,"password":null}},{"type":"Feature","geometry":{"type":"Point","coordinates":[-2.63619372,51.435606191]},"properties":{"id":"toiletmap/646626787ecb46dd3aaafb7f","source":"toiletmap-uk","name":"Long Ashton Park and Ride, Ashton Road, Ashton, BS3 2HB","fee":null,"charge":null,"access":null,"wheelchair":"yes","opening_hours":"Mo-Sa 05:30-22:45","operator":null,"description":null,"password":null}},{"type":"Feature","geometry":{"type":"Point","coordinates":[-2.507983446,51.463603074]},"properties":{"id":"toiletmap/6662032a857a6af2dbb7f615","source":"toiletmap-uk","name":"Sainsburys Kings Chase Shopping Centre","fee":"no","charge":null,"access":null,"wheelchair":"no","opening_hours":"Mo-Su 09:00-17:00","operator":null,"description":null,"password":null}},{"type":"Feature","geometry":{"type":"Point","coordinates":[-2.598280013,51.447618377]},"properties":{"id":"toiletmap/668d08e3614616464949e070","source":"toiletmap-uk","name":"M Shed","fee":"yes","charge":"0","access":null,"wheelchair":"yes","opening_hours":"Tu-Su 10:00-17:00","operator":null,"description":null,"password":null}},{"type":"Feature","geometry":{"type":"Point","coordinates":[-2.591660316,51.474682281]},"properties":{"id":"toiletmap/6a3514dad33bafe6fc8c643c","source":"toiletmap-uk","name":"Bristol Flyer","fee":"no","charge":null,"access":null,"wheelchair":"yes","opening_hours":null,"operator":null,"description":null,"password":null}},{"type":"Feature","geometry":{"type":"Point","coordinates":[-2.630753517,51.475455945]},"properties":{"id":"toiletmap/6ad940ea05658bfcb430f2e1","source":"toiletmap-uk","name":"Helios Medical Centre","fee":"no","charge":null,"access":null,"wheelchair":"yes","opening_hours":null,"operator":null,"description":"Mon8am-7pm, Tues 8am-8pm, Weds7.30am-6.30pm, Thurs CLOSED, Fri 8am-6.30pm. Part of Bristol Community Toilet Scheme.","password":null}},{"type":"Feature","geometry":{"type":"Point","coordinates":[-2.571393549,51.433958851]},"properties":{"id":"toiletmap/6b7aeec0d87e3e4844ea04b9","source":"toiletmap-uk","name":"Redcatch Park Pavillion, Broadwalk, Knowle, BS4 2RA","fee":"no","charge":null,"access":null,"wheelchair":"yes","opening_hours":null,"operator":null,"description":null,"password":null}},{"type":"Feature","geometry":{"type":"Point","coordinates":[-2.545679212,51.429557829]},"properties":{"id":"toiletmap/6e699159fb51d9c3dafe3d49","source":"toiletmap-uk","name":"Matalan","fee":"no","charge":null,"access":null,"wheelchair":"yes","opening_hours":"Mo-Su 09:00-17:00","operator":null,"description":"Toilets are on the first floor.","password":null}},{"type":"Feature","geometry":{"type":"Point","coordinates":[-2.596445382,51.428040041]},"properties":{"id":"toiletmap/6effc6ade22e73aab51141c6","source":"toiletmap-uk","name":"William Budd Health Centre, Knowle Health Park, Downton Road, BS4 1WH ","fee":"no","charge":null,"access":null,"wheelchair":"yes","opening_hours":"Mo-Fr 08:30-18:00","operator":null,"description":null,"password":null}},{"type":"Feature","geometry":{"type":"Point","coordinates":[-2.592773438,51.457441506]},"properties":{"id":"toiletmap/72197564b552e47e47b201f8","source":"toiletmap-uk","name":"The Station Pub/The Old Fire Station Creative Youth Network","fee":null,"charge":null,"access":null,"wheelchair":"no","opening_hours":null,"operator":null,"description":"Mon-Sat 9.00-15.00. Sun: CLOSED. Part of Bristol City Council Community Toilet Scheme.\nI called in here on a Thursday morning in April 2024 and the receptionist told me it was not open to non-members. ","password":null}},{"type":"Feature","geometry":{"type":"Point","coordinates":[-2.587482137,51.483015]},"properties":{"id":"toiletmap/72214dbbcd2ba311d7e578e0","source":"toiletmap-uk","name":"Tinto Lounge","fee":"no","charge":null,"access":null,"wheelchair":null,"opening_hours":null,"operator":null,"description":null,"password":null}},{"type":"Feature","geometry":{"type":"Point","coordinates":[-2.561415732,51.442358908]},"properties":{"id":"toiletmap/736387f114e29aacfdfcc605","source":"toiletmap-uk","name":"Burger King, St Philips Causeway, BS4 3BD","fee":"no","charge":null,"access":null,"wheelchair":"no","opening_hours":"Mo-Th 10:00-22:00; Fr 10:00-00:00; Sa 09:00-00:00; Su 10:00-22:00","operator":null,"description":null,"password":null}},{"type":"Feature","geometry":{"type":"Point","coordinates":[-2.624037266,51.424440323]},"properties":{"id":"toiletmap/73aaec5ee438abe840532d0a","source":"toiletmap-uk","name":"South Bristol Cemetery and Crematorium","fee":"no","charge":null,"access":null,"wheelchair":"yes","opening_hours":null,"operator":null,"description":"Mon-Fri 9am-4pm; Sat, Sun, BH: 11am-4pm. Part of Bristol City Council Community Toilet Scheme.","password":null}},{"type":"Feature","geometry":{"type":"Point","coordinates":[-2.576006949,51.458028382]},"properties":{"id":"toiletmap/75314defebf305273af7383e","source":"toiletmap-uk","name":" The Trinity Centre Trinity Road Bristol,  BS2 0NW","fee":"no","charge":null,"access":null,"wheelchair":"yes","opening_hours":null,"operator":null,"description":null,"password":null}},{"type":"Feature","geometry":{"type":"Point","coordinates":[-2.520115132,51.470235859]},"properties":{"id":"toiletmap/7654a7839d4be614fcb55da7","source":"toiletmap-uk","name":"Pizzeria Milano","fee":"no","charge":null,"access":null,"wheelchair":null,"opening_hours":null,"operator":null,"description":null,"password":null}},{"type":"Feature","geometry":{"type":"Point","coordinates":[-2.626352012,51.493136083]},"properties":{"id":"toiletmap/770ddcbaa8d5c2c377b126a8","source":"toiletmap-uk","name":"Canford Park","fee":"no","charge":null,"access":null,"wheelchair":"yes","opening_hours":"Mo-Su 08:00-20:00","operator":null,"description":"Source: https://www.bristol.gov.uk/museums-parks-sports-culture/canford-park","password":null}},{"type":"Feature","geometry":{"type":"Point","coordinates":[-2.5280458,51.4877472]},"properties":{"id":"toiletmap/771003590580f177e81d09b9","source":"toiletmap-uk","name":"Oldbury Court Estate","fee":"no","charge":null,"access":null,"wheelchair":"yes","opening_hours":"Mo-Su 09:00-17:00","operator":null,"description":null,"password":null}},{"type":"Feature","geometry":{"type":"Point","coordinates":[-2.582143755,51.441409248]},"properties":{"id":"toiletmap/77c901ca0ffaff1734e19d91","source":"toiletmap-uk","name":"The Star & Dove, 75-78 St Luke's Road, BS3 4RY","fee":"no","charge":null,"access":null,"wheelchair":"yes","opening_hours":"We-Sa 12:00-23:00; Su 12:00-17:00","operator":null,"description":null,"password":null}},{"type":"Feature","geometry":{"type":"Point","coordinates":[-2.659748197,51.500411421]},"properties":{"id":"toiletmap/784715b6bc6db243aa1f9d3d","source":"toiletmap-uk","name":"Ridingleaze Medical Centre","fee":"yes","charge":null,"access":null,"wheelchair":"no","opening_hours":"Mo-Fr 09:00-17:00","operator":null,"description":"Community Toilet Scheme","password":null}},{"type":"Feature","geometry":{"type":"Point","coordinates":[-2.6323843,51.507034637]},"properties":{"id":"toiletmap/78c89c0eaf08f3f1a3d94a88","source":"toiletmap-uk","name":"The Blaise Inn","fee":"no","charge":null,"access":null,"wheelchair":"no","opening_hours":null,"operator":null,"description":"Mon-Sun 11am-11pm. Part of Community Toilet Scheme","password":null}},{"type":"Feature","geometry":{"type":"Point","coordinates":[-2.694450617,51.498798463]},"properties":{"id":"toiletmap/793ef7fa9298caf01ee1ff16","source":"toiletmap-uk","name":"Avonmouth Medical Centre","fee":"no","charge":null,"access":null,"wheelchair":"yes","opening_hours":"Mo-Th 08:00-18:30; Fr 08:00-17:00","operator":null,"description":"Use Our Loos Community Toilet Scheme","password":null}},{"type":"Feature","geometry":{"type":"Point","coordinates":[-2.562475204,51.470520686]},"properties":{"id":"toiletmap/7a64338e392d8769c1411ac8","source":"toiletmap-uk","name":"East Trees Health Centre","fee":"no","charge":null,"access":null,"wheelchair":"yes","opening_hours":null,"operator":null,"description":"Mon 8am-7.30pm, Tues-Fri 8am-6.30pm. Part of Bristol Community Toilet Scheme.","password":null}},{"type":"Feature","geometry":{"type":"Point","coordinates":[-2.617232362,51.495024489]},"properties":{"id":"toiletmap/7a663559d7abf131c9ae9aa4","source":"toiletmap-uk","name":"White Lion","fee":"no","charge":null,"access":null,"wheelchair":"yes","opening_hours":null,"operator":null,"description":null,"password":null}},{"type":"Feature","geometry":{"type":"Point","coordinates":[-2.528612405,51.480637642]},"properties":{"id":"toiletmap/7b49e4286c27ce7de327c5ea","source":"toiletmap-uk","name":"The Old Post Office","fee":"no","charge":null,"access":null,"wheelchair":"yes","opening_hours":null,"operator":null,"description":null,"password":null}},{"type":"Feature","geometry":{"type":"Point","coordinates":[-2.591322486,51.474489698]},"properties":{"id":"toiletmap/7c0b081bfc20810429c2be2d","source":"toiletmap-uk","name":"Nectar House","fee":"no","charge":null,"access":null,"wheelchair":"yes","opening_hours":null,"operator":null,"description":null,"password":null}},{"type":"Feature","geometry":{"type":"Point","coordinates":[-2.559302385,51.41328325]},"properties":{"id":"toiletmap/7d2d507c64fc6976412860fb","source":"toiletmap-uk","name":"The Yeoman","fee":"no","charge":null,"access":null,"wheelchair":"yes","opening_hours":null,"operator":null,"description":null,"password":null}},{"type":"Feature","geometry":{"type":"Point","coordinates":[-2.603845596,51.455166958]},"properties":{"id":"toiletmap/7fb25ee2e9814feff35c8a27","source":"toiletmap-uk","name":"Boston Tea Party","fee":"no","charge":null,"access":null,"wheelchair":"no","opening_hours":null,"operator":null,"description":"Part of Community Toilet Scheme https://www.bristol.gov.uk/residents/streets-travel/public-toilets","password":null}},{"type":"Feature","geometry":{"type":"Point","coordinates":[-2.55523324,51.43207289]},"properties":{"id":"toiletmap/802bd5d11904ae32735c7676","source":"toiletmap-uk","name":"Tesco Extra Brislington","fee":"no","charge":null,"access":null,"wheelchair":"yes","opening_hours":"Mo-Sa 06:00-00:00; Su 10:00-16:00","operator":null,"description":"On left immediately after store entrance. Store open 24/7 except Sundays & some Bank Holidays\n\nSource: https://www.tesco.com/store-locator/bristol/callington-rd","password":null}},{"type":"Feature","geometry":{"type":"Point","coordinates":[-2.610435784,51.446947197]},"properties":{"id":"toiletmap/8092951804bac245770cd368","source":"toiletmap-uk","name":"SS Great Britain, Great Western Dockyard, Gas Ferry Road, BS1 6TY ","fee":null,"charge":null,"access":null,"wheelchair":"yes","opening_hours":"Mo-Fr 10:00-16:30; Sa 10:00-16:00; Su 10:00-16:30","operator":null,"description":null,"password":null}},{"type":"Feature","geometry":{"type":"Point","coordinates":[-2.612417936,51.480363943]},"properties":{"id":"toiletmap/80dca23b2193c78da95e39ea","source":"toiletmap-uk","name":"Waitrose","fee":"no","charge":null,"access":null,"wheelchair":"yes","opening_hours":"Mo-Su 09:00-17:00","operator":null,"description":"7.30am-9pm, Sun:10am-4pm. Part of Community Toilet Scheme","password":null}},{"type":"Feature","geometry":{"type":"Point","coordinates":[-2.573035061,51.465956142]},"properties":{"id":"toiletmap/80f75850154072015f00e60e","source":"toiletmap-uk","name":"Junction 3 Library, BS5 0FJ ","fee":"no","charge":null,"access":null,"wheelchair":"yes","opening_hours":null,"operator":null,"description":null,"password":null}},{"type":"Feature","geometry":{"type":"Point","coordinates":[-2.608547432,51.462420928]},"properties":{"id":"toiletmap/81527a009a3a65e352f86751","source":"toiletmap-uk","name":"Bakesmiths, 65 Whiteladies Road, Redland, BS8 2LY","fee":"no","charge":null,"access":null,"wheelchair":"no","opening_hours":null,"operator":null,"description":null,"password":null}},{"type":"Feature","geometry":{"type":"Point","coordinates":[-2.563051879,51.473304144]},"properties":{"id":"toiletmap/818cffd36853dd902dbc1ba7","source":"toiletmap-uk","name":"Tesco Eastgate Extra","fee":"no","charge":null,"access":null,"wheelchair":null,"opening_hours":"Mo-Sa 06:00-00:00; Su 10:00-16:00","operator":null,"description":"Source: https://www.tesco.com/store-locator/bristol/eastgate-rd","password":null}},{"type":"Feature","geometry":{"type":"Point","coordinates":[-2.592784081,51.442146062]},"properties":{"id":"toiletmap/83c794d3b36ed79a75096f2c","source":"toiletmap-uk","name":"Windmill Hill City Farm, Phillips Street, BS3 4EA ","fee":"no","charge":null,"access":null,"wheelchair":"yes","opening_hours":"Mo-Su 09:00-17:00","operator":null,"description":null,"password":null}},{"type":"Feature","geometry":{"type":"Point","coordinates":[-2.538675964,51.430072054]},"properties":{"id":"toiletmap/843eb87cd0ebd56ff2266db6","source":"toiletmap-uk","name":"McDonald's, Bath Road/Emery Road, Bristol, BS4 5PF ","fee":"no","charge":null,"access":null,"wheelchair":"yes","opening_hours":null,"operator":null,"description":null,"password":null}},{"type":"Feature","geometry":{"type":"Point","coordinates":[-2.644017041,51.451140362]},"properties":{"id":"toiletmap/846870aed6a0250b9bb64f4d","source":"toiletmap-uk","name":"Ashton Court Golf Course","fee":"no","charge":null,"access":null,"wheelchair":"yes","opening_hours":"Mo-Su 08:00-18:00","operator":null,"description":"Source: https://www.bristol.gov.uk/museums-parks-sports-culture/ashton-court-golf-course","password":null}},{"type":"Feature","geometry":{"type":"Point","coordinates":[-2.61780113,51.447033271]},"properties":{"id":"toiletmap/84c361d80d615cfec14527b5","source":"toiletmap-uk","name":"JD Wetherspoons: V-shed, BS1 5UH","fee":"no","charge":null,"access":null,"wheelchair":"yes","opening_hours":"Mo 08:00-00:00; Tu 08:00-01:00; We-Fr 08:00-02:00; Sa 08:00-03:00; Su 08:00-00:00","operator":null,"description":null,"password":null}},{"type":"Feature","geometry":{"type":"Point","coordinates":[-2.62130205,51.439845475]},"properties":{"id":"toiletmap/863dc8d393720a7c47f6ac7c","source":"toiletmap-uk","name":"Ashton Gate Limited, Coffee shop, Ashton Gate Stadium, BS3 2EL","fee":"no","charge":null,"access":null,"wheelchair":"yes","opening_hours":"Mo-Fr 08:00-16:00","operator":null,"description":null,"password":null}},{"type":"Feature","geometry":{"type":"Point","coordinates":[-2.593677507,51.438693641]},"properties":{"id":"toiletmap/8acd9cc9d70122b58122885e","source":"toiletmap-uk","name":"Tobacco Factory, Raleigh Road, BS3 1TF  ","fee":"no","charge":null,"access":null,"wheelchair":"yes","opening_hours":"Mo-Th 10:00-23:00; Fr-Sa 10:00-00:00; Su 10:00-23:00","operator":null,"description":null,"password":null}},{"type":"Feature","geometry":{"type":"Point","coordinates":[-2.589785579,51.440044979]},"properties":{"id":"toiletmap/8c6aa83e003fb2d7f9809318","source":"toiletmap-uk","name":"Victoria Park, Somerset Terrace, Bedminster, BS3 4LL ","fee":"no","charge":null,"access":null,"wheelchair":"yes","opening_hours":null,"operator":null,"description":null,"password":null}},{"type":"Feature","geometry":{"type":"Point","coordinates":[-2.564755082,51.47293424]},"properties":{"id":"toiletmap/8e3e2acbb9529c7a4d0e413e","source":"toiletmap-uk","name":"IKEA Bristol","fee":"no","charge":null,"access":null,"wheelchair":"yes","opening_hours":"Mo-Sa 10:00-21:00; Su 11:00-17:00","operator":null,"description":"Source: https://www.ikea.com/gb/en/stores/bristol/","password":null}},{"type":"Feature","geometry":{"type":"Point","coordinates":[-2.619217454,51.492839699]},"properties":{"id":"toiletmap/919cb048d533d5bff147fa9e","source":"toiletmap-uk","name":"Grupo Lounge","fee":"no","charge":null,"access":null,"wheelchair":"yes","opening_hours":null,"operator":null,"description":null,"password":null}},{"type":"Feature","geometry":{"type":"Point","coordinates":[-2.595949173,51.42857451]},"properties":{"id":"toiletmap/92e35d12a572853a7a08161d","source":"toiletmap-uk","name":"Merrywood Practice","fee":"no","charge":null,"access":null,"wheelchair":"no","opening_hours":null,"operator":null,"description":"Part of Bristol Community Toilet Scheme","password":null}},{"type":"Feature","geometry":{"type":"Point","coordinates":[-2.592979968,51.449778683]},"properties":{"id":"toiletmap/939ceafdccf72c19f705c0bd","source":"toiletmap-uk","name":"Coffee no. 1, 51 Welsh Back, BS1 4AN","fee":"no","charge":null,"access":null,"wheelchair":"yes","opening_hours":null,"operator":null,"description":null,"password":null}},{"type":"Feature","geometry":{"type":"Point","coordinates":[-2.584547102,51.458699622]},"properties":{"id":"toiletmap/940ae7f161526a91fbbf196a","source":"toiletmap-uk","name":"City Hall Bristol City Council, College Green, BS1 5TL ","fee":"no","charge":null,"access":null,"wheelchair":"yes","opening_hours":"Mo-Fr 08:00-19:00","operator":null,"description":null,"password":null}},{"type":"Feature","geometry":{"type":"Point","coordinates":[-2.582782209,51.455575564]},"properties":{"id":"toiletmap/9476c2263a6cd6404a7e0132","source":"toiletmap-uk","name":"The Exchange 72, 73 Old Market St, Bristol BS2 0EJ ","fee":"no","charge":null,"access":null,"wheelchair":"yes","opening_hours":null,"operator":null,"description":null,"password":null}},{"type":"Feature","geometry":{"type":"Point","coordinates":[-2.61780113,51.447033271]},"properties":{"id":"toiletmap/94bba64adb89a50d94d22619","source":"toiletmap-uk","name":"Underfall Yard Cumberland Road, BS1 6XG ","fee":"no","charge":null,"access":null,"wheelchair":"yes","opening_hours":null,"operator":null,"description":null,"password":null}},{"type":"Feature","geometry":{"type":"Point","coordinates":[-2.5091755,51.4804633]},"properties":{"id":"toiletmap/97b19f68a4fec0ed6257a76b","source":"toiletmap-uk","name":null,"fee":"no","charge":null,"access":null,"wheelchair":"no","opening_hours":null,"operator":null,"description":null,"password":null}},{"type":"Feature","geometry":{"type":"Point","coordinates":[-2.617924573,51.455272792]},"properties":{"id":"toiletmap/99c247115574a5aa5bf4e015","source":"toiletmap-uk","name":"East Village Cafe","fee":"no","charge":null,"access":null,"wheelchair":"yes","opening_hours":null,"operator":null,"description":null,"password":null}},{"type":"Feature","geometry":{"type":"Point","coordinates":[-2.602965832,51.4167931]},"properties":{"id":"toiletmap/9a0782e507b815546edb0401","source":"toiletmap-uk","name":"The Range","fee":"yes","charge":null,"access":null,"wheelchair":"no","opening_hours":"Mo-Su 09:00-17:00","operator":null,"description":null,"password":null}},{"type":"Feature","geometry":{"type":"Point","coordinates":[-2.612157762,51.441142012]},"properties":{"id":"toiletmap/9a0b3dbff37ade1c1febcfe6","source":"toiletmap-uk","name":"The Lounge,  227-231 North Street, Bedminster, Bristol BS3 1JJ","fee":"no","charge":null,"access":null,"wheelchair":"yes","opening_hours":"Mo-Su 09:00-23:00","operator":null,"description":null,"password":null}},{"type":"Feature","geometry":{"type":"Point","coordinates":[-2.561222613,51.448169772]},"properties":{"id":"toiletmap/9a0ed9e3d8b6811b05373133","source":"toiletmap-uk","name":"Costa, Avonmeads, Unit C, Avonmeads Retail Park, St Philips Causeway, BS2 0SP","fee":"no","charge":null,"access":null,"wheelchair":null,"opening_hours":null,"operator":null,"description":null,"password":null}},{"type":"Feature","geometry":{"type":"Point","coordinates":[-2.569644749,51.465859209]},"properties":{"id":"toiletmap/9a98cb755748a05071bbec26","source":"toiletmap-uk","name":"Tasty Corner 1 Oxford Place, BS5 0NR","fee":"no","charge":null,"access":null,"wheelchair":null,"opening_hours":null,"operator":null,"description":null,"password":null}},{"type":"Feature","geometry":{"type":"Point","coordinates":[-2.589898109,51.457227582]},"properties":{"id":"toiletmap/9ada80d37a65e82181b25129","source":"toiletmap-uk","name":"Galleries Shopping Centre - Floors 1&2","fee":"no","charge":null,"access":null,"wheelchair":"yes","opening_hours":null,"operator":null,"description":"RADAR key to access accessible toilets. Baby changing on both floors; family room with feeding cubicles and toddler toilet on 2nd floor.","password":null}},{"type":"Feature","geometry":{"type":"Point","coordinates":[-2.61973232,51.433517649]},"properties":{"id":"toiletmap/9b46cc3c14c08f0523a3e867","source":"toiletmap-uk","name":"Sainsburys","fee":"yes","charge":null,"access":null,"wheelchair":"yes","opening_hours":"Mo-Su 09:00-17:00","operator":null,"description":null,"password":null}},{"type":"Feature","geometry":{"type":"Point","coordinates":[-2.612758577,51.441476385]},"properties":{"id":"toiletmap/9c61c24337da59f728e9209c","source":"toiletmap-uk","name":"Coffee#1, 247, 249 North Street, Southville, BS3 1JN ","fee":"no","charge":null,"access":null,"wheelchair":"yes","opening_hours":"Mo-Fr 07:00-18:00; Sa 08:00-18:00; Su 08:30-17:00","operator":null,"description":null,"password":null}},{"type":"Feature","geometry":{"type":"Point","coordinates":[-2.5845703,51.4587042]},"properties":{"id":"toiletmap/a05edd0a36dcb29f925070df","source":"toiletmap-uk","name":"Cabot Circus","fee":"no","charge":null,"access":null,"wheelchair":null,"opening_hours":"Mo-Sa 10:00-20:00; Su 11:00-17:00","operator":null,"description":"Source: https://www.cabotcircus.com/opening-hours","password":null}},{"type":"Feature","geometry":{"type":"Point","coordinates":[-2.591160317,51.47377165]},"properties":{"id":"toiletmap/a35eb5af8fb0c9bcb01ff628","source":"toiletmap-uk","name":"The Industry ","fee":"no","charge":null,"access":null,"wheelchair":null,"opening_hours":null,"operator":null,"description":null,"password":null}},{"type":"Feature","geometry":{"type":"Point","coordinates":[-2.565082312,51.473960721]},"properties":{"id":"toiletmap/a699ea7750695021f7793b89","source":"toiletmap-uk","name":"Burger King, 4 Eastgate Road, Eastgate Centre, BS5 6XX","fee":"no","charge":null,"access":null,"wheelchair":"yes","opening_hours":null,"operator":null,"description":"Mon-Fri 8am-11pm. Sat-Sun 9am-11pm. Part of Bristol Community Toilet Scheme","password":null}},{"type":"Feature","geometry":{"type":"Point","coordinates":[-2.600318491,51.450329127]},"properties":{"id":"toiletmap/a702d79f5eb572e628da647d","source":"toiletmap-uk","name":"We The Curious: Cafe Anchor Road, BS1 5DB ","fee":"no","charge":null,"access":null,"wheelchair":"yes","opening_hours":"Tu-Su 10:00-17:00","operator":null,"description":"Term time, Tue - Sun, 10am - 5pm\nSchool Holidays / Bank Holidays, Mon - Sun, 10am - 5pm","password":null}},{"type":"Feature","geometry":{"type":"Point","coordinates":[-2.558089224,51.45872285]},"properties":{"id":"toiletmap/a7ee0418ca008451bffe1c3c","source":"toiletmap-uk","name":"The Old Stillage Church Road Redfield Bristol, BS5 9LA","fee":"no","charge":null,"access":null,"wheelchair":"yes","opening_hours":null,"operator":null,"description":null,"password":null}},{"type":"Feature","geometry":{"type":"Point","coordinates":[-2.5024284,51.488542]},"properties":{"id":"toiletmap/a947e02eefb5438a906347a6","source":"toiletmap-uk","name":null,"fee":"no","charge":null,"access":null,"wheelchair":"no","opening_hours":null,"operator":null,"description":null,"password":null}},{"type":"Feature","geometry":{"type":"Point","coordinates":[-2.560007572,51.446458249]},"properties":{"id":"toiletmap/aa2ee597bd3abc011a55a299","source":"toiletmap-uk","name":"Vaulted Chambers Park Cafe Castle Park, BS2 0HQ ","fee":"no","charge":null,"access":null,"wheelchair":"yes","opening_hours":"We-Su 09:30-16:30","operator":null,"description":null,"password":null}},{"type":"Feature","geometry":{"type":"Point","coordinates":[-2.637740316,51.443997796]},"properties":{"id":"toiletmap/aae213980f41ceca03ed8a83","source":"toiletmap-uk","name":"Ashton Court Estate","fee":"no","charge":null,"access":null,"wheelchair":"no","opening_hours":"Mo-Su 08:00-17:00","operator":null,"description":null,"password":null}},{"type":"Feature","geometry":{"type":"Point","coordinates":[-2.593677507,51.438693641]},"properties":{"id":"toiletmap/ab42d66cac875432e0874a32","source":"toiletmap-uk","name":"The Rising Sun, Alfred Road, BS3 4LE","fee":"no","charge":null,"access":null,"wheelchair":"no","opening_hours":"Mo-Th 16:00-23:00; Fr-Sa 13:00-23:00; Su 13:00-22:00","operator":null,"description":null,"password":null}},{"type":"Feature","geometry":{"type":"Point","coordinates":[-2.560723722,51.467946867]},"properties":{"id":"toiletmap/ab7d7f220975688c23be80ca","source":"toiletmap-uk","name":"Este kitchen 7 Greenbank Road BS5 6EZ","fee":"no","charge":null,"access":null,"wheelchair":"no","opening_hours":null,"operator":null,"description":null,"password":null}},{"type":"Feature","geometry":{"type":"Point","coordinates":[-2.621312141,51.439837935]},"properties":{"id":"toiletmap/abd19bcdce486bb3bdfa7516","source":"toiletmap-uk","name":"Ashton Gate (coffee shop)","fee":"no","charge":null,"access":null,"wheelchair":"no","opening_hours":"Mo-Fr 09:00-17:00","operator":null,"description":"Mon - Fri 8am-4pm. No access for general public on match days. Part of Bristol Community Toilet Scheme","password":null}},{"type":"Feature","geometry":{"type":"Point","coordinates":[-2.598269284,51.447621412]},"properties":{"id":"toiletmap/ac0dd3da1b193abb8824dbff","source":"toiletmap-uk","name":"Mshed, Prince's Wharf, Wapping Road, BS1 4RN","fee":"no","charge":null,"access":null,"wheelchair":"yes","opening_hours":"Tu-Su 10:00-17:00","operator":null,"description":"Open Mondays during Bristol school holidays, 10am-5pm.","password":null}},{"type":"Feature","geometry":{"type":"Point","coordinates":[-2.618828416,51.410956464]},"properties":{"id":"toiletmap/ac5c89c14696babac4d36f1b","source":"toiletmap-uk","name":"Creative Workspace (run by Brave Bold Drama CIC)","fee":"no","charge":null,"access":null,"wheelchair":"yes","opening_hours":"Mo-Fr 09:00-17:00","operator":null,"description":"Participates in Use Our Loos community toilet scheme.\nOpen 10am - 4pm (Tuesday - Friday)\nFacilities include Changing Places Toilet","password":null}},{"type":"Feature","geometry":{"type":"Point","coordinates":[-2.559873462,51.443003527]},"properties":{"id":"toiletmap/ad21c86df6a6deb1af4929e4","source":"toiletmap-uk","name":"Sainsbury's, St Philips Causeway , BS4 3QU","fee":"no","charge":null,"access":null,"wheelchair":"no","opening_hours":null,"operator":null,"description":null,"password":null}},{"type":"Feature","geometry":{"type":"Point","coordinates":[-2.584547102,51.458699622]},"properties":{"id":"toiletmap/ae8ee4f1b967d421143809e8","source":"toiletmap-uk","name":"Cabot Circus Shopping Centre, Glass House, Broadmead, BS1 3BX Lower ground floor ","fee":"no","charge":null,"access":null,"wheelchair":"yes","opening_hours":"Mo-Sa 09:15-20:15; Su 09:00-17:30","operator":null,"description":null,"password":null}},{"type":"Feature","geometry":{"type":"Point","coordinates":[-2.617696524,51.510251566]},"properties":{"id":"toiletmap/b04a0ee022a9ed17a88f8a11","source":"toiletmap-uk","name":"Bradgate Medical Centre","fee":"yes","charge":null,"access":null,"wheelchair":"no","opening_hours":null,"operator":null,"description":"Community Toilet Scheme","password":null}},{"type":"Feature","geometry":{"type":"Point","coordinates":[-2.611594531,51.412830595]},"properties":{"id":"toiletmap/b2aee37caa8c8a97dc20a4ee","source":"toiletmap-uk","name":"The Gatehouse","fee":"no","charge":null,"access":null,"wheelchair":null,"opening_hours":null,"operator":null,"description":null,"password":null}},{"type":"Feature","geometry":{"type":"Point","coordinates":[-2.620657682,51.495497368]},"properties":{"id":"toiletmap/b3a077318f93637bc009072d","source":"toiletmap-uk","name":"BP Garage/M&S Simply Food","fee":"no","charge":null,"access":null,"wheelchair":"yes","opening_hours":"Mo-Su 06:00-22:00","operator":null,"description":null,"password":null}},{"type":"Feature","geometry":{"type":"Point","coordinates":[-2.585898936,51.425717445]},"properties":{"id":"toiletmap/b540eacf6ce12e2300e10824","source":"toiletmap-uk","name":"Filwood Community Centre, Barnstaple Road, BS4 1JP ","fee":"no","charge":null,"access":null,"wheelchair":"yes","opening_hours":"Mo-Fr 09:00-17:00","operator":null,"description":null,"password":null}},{"type":"Feature","geometry":{"type":"Point","coordinates":[-2.55387336,51.46842212]},"properties":{"id":"toiletmap/b5a36337556701adcb4fc2ba","source":"toiletmap-uk","name":"Greenbank Cemetery","fee":"no","charge":null,"access":null,"wheelchair":"no","opening_hours":"Mo-Su 09:00-16:30","operator":null,"description":"Just behind the house inside the cemetery gates.","password":null}},{"type":"Feature","geometry":{"type":"Point","coordinates":[-2.605055273,51.456437059]},"properties":{"id":"toiletmap/b8e09ed51dae59a4f1688e67","source":"toiletmap-uk","name":"Bristol City Museum & Gallery","fee":"yes","charge":null,"access":null,"wheelchair":"yes","opening_hours":"Mo-Su 09:00-17:00","operator":null,"description":null,"password":null}},{"type":"Feature","geometry":{"type":"Point","coordinates":[-2.5869488,51.4740109]},"properties":{"id":"toiletmap/b9aa671cec059035cbc8b062","source":"toiletmap-uk","name":"St Andrews Park","fee":"no","charge":"true","access":null,"wheelchair":"yes","opening_hours":"Mo-Su 07:30-21:00","operator":null,"description":"8am-1 hour before sunset","password":null}},{"type":"Feature","geometry":{"type":"Point","coordinates":[-2.593057752,51.485075993]},"properties":{"id":"toiletmap/b9ad63f51a86df73867e28cf","source":"toiletmap-uk","name":"Horfield Common","fee":"no","charge":null,"access":null,"wheelchair":"yes","opening_hours":"Mo-Su 09:00-17:00","operator":null,"description":"Summer: 8am-9.15pm; Winter: 8am-5.15pm. Part of Bristol City Council Community Toilet Scheme.","password":null}},{"type":"Feature","geometry":{"type":"Point","coordinates":[-2.538685995,51.430091288]},"properties":{"id":"toiletmap/baa0d0f465f7edfabdbceffd","source":"toiletmap-uk","name":"Mc donolds","fee":"no","charge":null,"access":null,"wheelchair":"no","opening_hours":"Mo-Su 09:00-17:00","operator":null,"description":null,"password":null}},{"type":"Feature","geometry":{"type":"Point","coordinates":[-2.584642334,51.415688779]},"properties":{"id":"toiletmap/bd2828ec43cc89ffd18c55c0","source":"toiletmap-uk","name":"McDonald's","fee":"no","charge":null,"access":null,"wheelchair":"yes","opening_hours":"Mo-Su 09:00-17:00","operator":null,"description":null,"password":null}},{"type":"Feature","geometry":{"type":"Point","coordinates":[-2.551051676,51.459545026]},"properties":{"id":"toiletmap/bdb7d7135fe8547c0e3148e2","source":"toiletmap-uk","name":"The Fire Engine, 188 Church Road Redfield Bristol, BS5 9HX","fee":"no","charge":null,"access":null,"wheelchair":"yes","opening_hours":"Mo-Su 11:00-21:00","operator":null,"description":null,"password":null}},{"type":"Feature","geometry":{"type":"Point","coordinates":[-2.549766132,51.474025692]},"properties":{"id":"toiletmap/be1204a72324c73c9a9034bd","source":"toiletmap-uk","name":"Eastville Park car park toilet","fee":"no","charge":null,"access":null,"wheelchair":null,"opening_hours":null,"operator":null,"description":null,"password":null}},{"type":"Feature","geometry":{"type":"Point","coordinates":[-2.607549727,51.448843498]},"properties":{"id":"toiletmap/be8b52baa292019dfb733b1c","source":"toiletmap-uk","name":"SS Great Britain","fee":"no","charge":null,"access":null,"wheelchair":"yes","opening_hours":"Mo-Su 10:00-18:00","operator":null,"description":"Inside the gift shop behind the ticket counter.\nTickets not required to use toilets.\nSource: https://www.ssgreatbritain.org","password":null}},{"type":"Feature","geometry":{"type":"Point","coordinates":[-2.528684735,51.449963683]},"properties":{"id":"toiletmap/be909d9cebebf31666a6cfaf","source":"toiletmap-uk","name":"Dundridge Public Conveniences, Recreation Ground Dundridge Lane, BS5 8SZ","fee":"no","charge":null,"access":null,"wheelchair":null,"opening_hours":null,"operator":null,"description":null,"password":null}},{"type":"Feature","geometry":{"type":"Point","coordinates":[-2.630528212,51.463534561]},"properties":{"id":"toiletmap/bee574b2ad5723d98525197b","source":"toiletmap-uk","name":"Bennett's Patch and White's Paddock Nature Reserve","fee":"no","charge":null,"access":null,"wheelchair":"no","opening_hours":null,"operator":null,"description":"Nature Reserve always open to pedestrians but facilities only open during events (not sure if this means toilets)","password":null}},{"type":"Feature","geometry":{"type":"Point","coordinates":[-2.597296063,51.449695751]},"properties":{"id":"toiletmap/bf80739e7b64b66d7890fc3a","source":"toiletmap-uk","name":"Arnolfini","fee":"yes","charge":null,"access":null,"wheelchair":"no","opening_hours":null,"operator":null,"description":null,"password":null}},{"type":"Feature","geometry":{"type":"Point","coordinates":[-2.610720144,51.465302345]},"properties":{"id":"toiletmap/c1186815aa9236f2d43e3b96","source":"toiletmap-uk","name":"Redland Library","fee":"no","charge":null,"access":null,"wheelchair":null,"opening_hours":null,"operator":null,"description":null,"password":null}},{"type":"Feature","geometry":{"type":"Point","coordinates":[-2.592829764,51.44211503]},"properties":{"id":"toiletmap/c17103a4fef079fb5b385148","source":"toiletmap-uk","name":"Windmill Hill City Farm","fee":"no","charge":null,"access":null,"wheelchair":"no","opening_hours":"Mo-Su 09:00-17:00","operator":null,"description":"Part of Bristol City Council Community Toilet Scheme and the Use Our Loos Community toilet scheme","password":null}},{"type":"Feature","geometry":{"type":"Point","coordinates":[-2.632716894,51.509346775]},"properties":{"id":"toiletmap/c1991543c51a6a0bbae3aff7","source":"toiletmap-uk","name":"Henbury Sports Centre","fee":"no","charge":null,"access":null,"wheelchair":"yes","opening_hours":null,"operator":null,"description":"Mon-Sat 7.15-22.00. Sun-7.30-20.00. Part of Community Toilet Scheme.","password":null}},{"type":"Feature","geometry":{"type":"Point","coordinates":[-2.62494117,51.477405756]},"properties":{"id":"toiletmap/c1f1f2266d36f420fd9fa843","source":"toiletmap-uk","name":"University of Bristol Botanic Garden","fee":"no","charge":null,"access":null,"wheelchair":"yes","opening_hours":"Mo-Su 10:00-16:30","operator":null,"description":"Located outside the Garden area, no tickets needed.\nSource: https://botanic-garden.bristol.ac.uk","password":null}},{"type":"Feature","geometry":{"type":"Point","coordinates":[-2.58648634,51.449843266]},"properties":{"id":"toiletmap/c222b703692e2110507dd102","source":"toiletmap-uk","name":"Bristol City Council Customer Service Point","fee":"no","charge":null,"access":null,"wheelchair":"no","opening_hours":null,"operator":null,"description":"Mon-Tue 9am-4:45pm, Wed 10am- 4:45pm Thurs-Fr 9am-4:45pm. Includes CHANGING PLACES toilet. Part of Bristol City Council Community Toilet Scheme.","password":null}},{"type":"Feature","geometry":{"type":"Point","coordinates":[-2.606887221,51.453981839]},"properties":{"id":"toiletmap/c2b8fadbe1904f83f3236737","source":"toiletmap-uk","name":"Brandon Hill","fee":"no","charge":null,"access":null,"wheelchair":"yes","opening_hours":"Mo-Su 08:00-18:00","operator":null,"description":"8am-1 hour before sunset.","password":null}},{"type":"Feature","geometry":{"type":"Point","coordinates":[-2.578619421,51.468843178]},"properties":{"id":"toiletmap/c2f86008468c360b89a641d4","source":"toiletmap-uk","name":"Better Food Company","fee":"yes","charge":null,"access":null,"wheelchair":"yes","opening_hours":"Mo-Su 09:00-17:00","operator":null,"description":null,"password":null}},{"type":"Feature","geometry":{"type":"Point","coordinates":[-2.598269284,51.447621412]},"properties":{"id":"toiletmap/c3cc52b718eb20476c2e83d4","source":"toiletmap-uk","name":"Mshed, Prince's Wharf, Wapping Road, BS1 4RN","fee":"no","charge":null,"access":null,"wheelchair":"yes","opening_hours":"Tu-Su 10:00-17:00","operator":null,"description":"Open Mondays during Bristol school holidays, 10am-5pm.","password":null}},{"type":"Feature","geometry":{"type":"Point","coordinates":[-2.625075353,51.456059402]},"properties":{"id":"toiletmap/c4c9b3631828b36cd38b6358","source":"toiletmap-uk","name":"Clifton Suspension Bridge","fee":"no","charge":null,"access":null,"wheelchair":"yes","opening_hours":"Mo 08:00-18:00; We-Su 08:00-18:00","operator":null,"description":"Opening hours as of August 2021 (posted on sign):\nWednesday to Monday 08:00 — 18:00","password":null}},{"type":"Feature","geometry":{"type":"Point","coordinates":[-2.563663423,51.45622146]},"properties":{"id":"toiletmap/c53c96d4b9ae2421cab7fa16","source":"toiletmap-uk","name":"Barton Hill Settlement","fee":"no","charge":null,"access":null,"wheelchair":"no","opening_hours":"Mo-Fr 09:00-17:00","operator":null,"description":"Member of Use Our Loos community toilet Scheme. 9-5 Mon - Fri. Toilets in Reception.","password":null}},{"type":"Feature","geometry":{"type":"Point","coordinates":[-2.589785579,51.440044979]},"properties":{"id":"toiletmap/c6f72f426db37470d10937e4","source":"toiletmap-uk","name":"Victoria Park, Somerset Terrace, Bedminster, BS3 4LL ","fee":"no","charge":null,"access":null,"wheelchair":"yes","opening_hours":null,"operator":null,"description":null,"password":null}},{"type":"Feature","geometry":{"type":"Point","coordinates":[-2.5444218,51.4862345]},"properties":{"id":"toiletmap/ca15e8bce7c19c3097c4ee2a","source":"toiletmap-uk","name":"Snuff Mills Car Park","fee":"no","charge":null,"access":null,"wheelchair":"no","opening_hours":"Mo-Su 09:00-17:00","operator":null,"description":null,"password":null}},{"type":"Feature","geometry":{"type":"Point","coordinates":[-2.584777767,51.413527005]},"properties":{"id":"toiletmap/ccdb85a07100a45644cf74ad","source":"toiletmap-uk","name":"Hengrove Leisure Centre","fee":"no","charge":null,"access":null,"wheelchair":"yes","opening_hours":null,"operator":null,"description":null,"password":null}},{"type":"Feature","geometry":{"type":"Point","coordinates":[-2.628570199,51.506036291]},"properties":{"id":"toiletmap/d020074f27f6f93f1855a975","source":"toiletmap-uk","name":"Stonehouse Pizzeria and Carvery","fee":"no","charge":null,"access":null,"wheelchair":"no","opening_hours":null,"operator":null,"description":"Mon-Sun 8am-10pm. Part of Bristol Community Toilet Scheme","password":null}},{"type":"Feature","geometry":{"type":"Point","coordinates":[-2.588721385,51.464362682]},"properties":{"id":"toiletmap/d12f762567ab7ec20fbd008e","source":"toiletmap-uk","name":"The Salvation Army Bristol Citadel","fee":"no","charge":null,"access":null,"wheelchair":null,"opening_hours":null,"operator":null,"description":null,"password":null}},{"type":"Feature","geometry":{"type":"Point","coordinates":[-2.600347996,51.450331356]},"properties":{"id":"toiletmap/d15776c769a03f2627274c84","source":"toiletmap-uk","name":"We Are Curious cafe","fee":"no","charge":null,"access":null,"wheelchair":"no","opening_hours":null,"operator":null,"description":"10am-6pm (closes 5pm weekday term time.)\nThis business participates in the Use Our Loos Community Toilet Scheme.","password":null}},{"type":"Feature","geometry":{"type":"Point","coordinates":[-2.600865625,51.441155589]},"properties":{"id":"toiletmap/d174351b42197da958db46c7","source":"toiletmap-uk","name":"JD Wetherspoon, The Robert Fitzharding, 24 Cannon Street, BS3 1BN","fee":"no","charge":null,"access":null,"wheelchair":null,"opening_hours":null,"operator":null,"description":null,"password":null}},{"type":"Feature","geometry":{"type":"Point","coordinates":[-2.598642111,51.417288234]},"properties":{"id":"toiletmap/d21385250c0bdd451a553388","source":"toiletmap-uk","name":"B&Q","fee":"yes","charge":null,"access":null,"wheelchair":"no","opening_hours":"Mo-Su 09:00-17:00","operator":null,"description":null,"password":null}},{"type":"Feature","geometry":{"type":"Point","coordinates":[-2.61883378,51.509912689]},"properties":{"id":"toiletmap/d24a86984b4b75ba7491498c","source":"toiletmap-uk","name":"The Old Crow","fee":"no","charge":null,"access":null,"wheelchair":"yes","opening_hours":null,"operator":null,"description":"Mon-Sun, 11am-11pm. Part of Bristol Community Toilet Scheme.","password":null}},{"type":"Feature","geometry":{"type":"Point","coordinates":[-2.532093823,51.478703502]},"properties":{"id":"toiletmap/d39500b486ef89cf213a590a","source":"toiletmap-uk","name":"Morrisons","fee":"no","charge":null,"access":null,"wheelchair":"no","opening_hours":"Mo-Su 09:00-17:00","operator":null,"description":null,"password":null}},{"type":"Feature","geometry":{"type":"Point","coordinates":[-2.563387156,51.456226474]},"properties":{"id":"toiletmap/d4ecd6898c2bfe358f061a96","source":"toiletmap-uk","name":"Barton Hill Settlement ","fee":"no","charge":null,"access":null,"wheelchair":"yes","opening_hours":null,"operator":null,"description":null,"password":null}},{"type":"Feature","geometry":{"type":"Point","coordinates":[-2.619437354,51.454665273]},"properties":{"id":"toiletmap/d4f99f517a869b6a3a95fcac","source":"toiletmap-uk","name":"Spicer & Cole","fee":"no","charge":null,"access":null,"wheelchair":"no","opening_hours":null,"operator":null,"description":null,"password":null}},{"type":"Feature","geometry":{"type":"Point","coordinates":[-2.530277967,51.479630617]},"properties":{"id":"toiletmap/d5f016024a3c252c3c7a89db","source":"toiletmap-uk","name":"Wetherspoons Van Dyck Forum","fee":"no","charge":null,"access":null,"wheelchair":"no","opening_hours":null,"operator":null,"description":"Part of Bristol Community Toilet Scheme","password":null}},{"type":"Feature","geometry":{"type":"Point","coordinates":[-2.55322963,51.50770925]},"properties":{"id":"toiletmap/d8ae9119586c8179620b7476","source":"toiletmap-uk","name":"Sainsbury’s East Filton","fee":"no","charge":null,"access":null,"wheelchair":"yes","opening_hours":"Mo-Sa 07:00-22:00; Su 10:00-16:00","operator":null,"description":"Source: https://stores.sainsburys.co.uk/0797/east-filton","password":null}},{"type":"Feature","geometry":{"type":"Point","coordinates":[-2.627073526,51.494508652]},"properties":{"id":"toiletmap/d9ecbb8bb9ba215d02de7909","source":"toiletmap-uk","name":"Canford Cemetery","fee":"no","charge":null,"access":null,"wheelchair":"yes","opening_hours":"Mo-Fr 09:00-17:00","operator":null,"description":"Mon-Fri 9am-4pm. Part of Community Toilet Scheme.","password":null}},{"type":"Feature","geometry":{"type":"Point","coordinates":[-2.596847713,51.457299447]},"properties":{"id":"toiletmap/da78a1c43b32dc4ddd5dfc25","source":"toiletmap-uk","name":"C. J's Coffee House and Deli, 14 Upper Maudlin Street, BS2 8DJ","fee":"no","charge":null,"access":null,"wheelchair":"no","opening_hours":"Mo-Th 07:00-16:00; Fr 07:00-15:00; Sa 09:00-14:00","operator":null,"description":null,"password":null}},{"type":"Feature","geometry":{"type":"Point","coordinates":[-2.60245353,51.451472523]},"properties":{"id":"toiletmap/dad4fe59cde857c24a939812","source":"toiletmap-uk","name":"Bristol Central Library, Deanery Road, Bristol, BS1 5TL ","fee":"no","charge":null,"access":null,"wheelchair":"yes","opening_hours":"Mo 09:30-17:00; Tu 09:30-19:00; We 09:30-17:00; Th 09:30-19:00; Fr 09:30-17:00; Sa 10:00-17:00; Su 13:00-17:00","operator":null,"description":null,"password":null}},{"type":"Feature","geometry":{"type":"Point","coordinates":[-2.61777699,51.446209168]},"properties":{"id":"toiletmap/db440aa1d5baa570fcbbbf24","source":"toiletmap-uk","name":"Harbour Office","fee":"yes","charge":null,"access":null,"wheelchair":"no","opening_hours":null,"operator":null,"description":null,"password":null}},{"type":"Feature","geometry":{"type":"Point","coordinates":[-2.588640153,51.456888311]},"properties":{"id":"toiletmap/dde6d9058735315ad684df92","source":"toiletmap-uk","name":"The Galleries Shopping Centre, 25 Union Gallery, Broadmead, BS1 3XD","fee":"no","charge":null,"access":null,"wheelchair":"yes","opening_hours":"Mo-Su 10:00-16:30","operator":null,"description":null,"password":null}},{"type":"Feature","geometry":{"type":"Point","coordinates":[-2.588833255,51.479989917]},"properties":{"id":"toiletmap/de046914419e1d88449921bc","source":"toiletmap-uk","name":"Pizzarova","fee":"no","charge":null,"access":null,"wheelchair":"yes","opening_hours":null,"operator":null,"description":null,"password":null}},{"type":"Feature","geometry":{"type":"Point","coordinates":[-2.5932277,51.454426]},"properties":{"id":"toiletmap/decff217247fb79d7d8c1db2","source":"toiletmap-uk","name":"St Nicholas Market","fee":"no","charge":null,"access":null,"wheelchair":"yes","opening_hours":null,"operator":null,"description":"Mon-Fri 9.30-17.00. Sat: 9.30-17.30. Sun: CLOSED.","password":null}},{"type":"Feature","geometry":{"type":"Point","coordinates":[-2.5347546,51.447162]},"properties":{"id":"toiletmap/dee545de995ea0a0fce71eed","source":"toiletmap-uk","name":"Conham River Park","fee":"no","charge":null,"access":null,"wheelchair":"no","opening_hours":null,"operator":null,"description":null,"password":null}},{"type":"Feature","geometry":{"type":"Point","coordinates":[-2.6376211,51.4442494]},"properties":{"id":"toiletmap/df62af6c201f06815d77fd08","source":"toiletmap-uk","name":null,"fee":"yes","charge":null,"access":null,"wheelchair":"no","opening_hours":null,"operator":null,"description":null,"password":null}},{"type":"Feature","geometry":{"type":"Point","coordinates":[-2.543259859,51.51430454]},"properties":{"id":"toiletmap/e09844e921a1ed928a1759f4","source":"toiletmap-uk","name":"Bristol Parkway Station","fee":"no","charge":null,"access":null,"wheelchair":"yes","opening_hours":"Mo-Fr 04:30-01:45; Sa 05:00-01:15; Su 05:30-01:45","operator":null,"description":"Toilets available on Ground Level and Concourse Level.\n\nSource: https://www.gwr.com/stations-and-destinations/stations/Bristol-Parkway\n(under Accessibility and Mobility Access)","password":null}},{"type":"Feature","geometry":{"type":"Point","coordinates":[-2.537841797,51.427972467]},"properties":{"id":"toiletmap/e1863dbf0ba236597efdf072","source":"toiletmap-uk","name":"Brislington Park and Ride","fee":"no","charge":null,"access":null,"wheelchair":"no","opening_hours":null,"operator":null,"description":"Part of Bristol Community Toilet Scheme","password":null}},{"type":"Feature","geometry":{"type":"Point","coordinates":[-2.616899942,51.415872203]},"properties":{"id":"toiletmap/e38af53b51412d57dd6a16b2","source":"toiletmap-uk","name":"Campus","fee":"no","charge":null,"access":null,"wheelchair":null,"opening_hours":null,"operator":null,"description":null,"password":null}},{"type":"Feature","geometry":{"type":"Point","coordinates":[-2.593269646,51.425457181]},"properties":{"id":"toiletmap/e54b1248acc48bb8b251e9a1","source":"toiletmap-uk","name":"Knowle West Media Centre, Leinster Avenue, BS4 1NL ","fee":"no","charge":null,"access":null,"wheelchair":"yes","opening_hours":"Mo-Fr 09:30-17:00","operator":null,"description":null,"password":null}},{"type":"Feature","geometry":{"type":"Point","coordinates":[-2.560254335,51.505590534]},"properties":{"id":"toiletmap/e5dac7c985ac7d6ef3b179ac","source":"toiletmap-uk","name":"ASDA Filton","fee":"no","charge":null,"access":null,"wheelchair":"no","opening_hours":"Mo-Fr 07:00-00:00; Sa 07:00-22:00; Su 10:00-16:00","operator":null,"description":"Source: https://storelocator.asda.com/south-west/filton/abbeywood-retail-park","password":null}},{"type":"Feature","geometry":{"type":"Point","coordinates":[-2.589482363,51.459154152]},"properties":{"id":"toiletmap/e66d8e6877cd8e2a8b7b75e0","source":"toiletmap-uk","name":"Art Club 12 to 16 Bond Street BS1 3LU","fee":"no","charge":null,"access":null,"wheelchair":"no","opening_hours":"Mo-Sa 07:00-17:00; Su 10:00-16:00","operator":null,"description":"Part of Community Toilet Scheme https://www.bristol.gov.uk/residents/streets-travel/public-toilets","password":null}},{"type":"Feature","geometry":{"type":"Point","coordinates":[-2.593639622,51.444280562]},"properties":{"id":"toiletmap/e6c1631ed3f05fe81d6b95df","source":"toiletmap-uk","name":"Bedminster Library ,4 St Peters Court, Bedminster Parade, Bedminster, BS3 4AQ ","fee":"no","charge":null,"access":null,"wheelchair":null,"opening_hours":"Mo 10:00-19:00; We 10:00-19:00; Th-Sa 10:00-17:00","operator":null,"description":"Only open to those with bladder, bowel and other health issues.","password":null}},{"type":"Feature","geometry":{"type":"Point","coordinates":[-2.632421851,51.505744128]},"properties":{"id":"toiletmap/e72892a93e76f9fb1c04e11f","source":"toiletmap-uk","name":"Blaise Castle Estate: Museum and Roman Villa","fee":"no","charge":null,"access":null,"wheelchair":"no","opening_hours":null,"operator":null,"description":"Thurs-Sun: 11am-16.00. Open Mon during local school holidays 10am-17.00. Part of Bristol City Council Community Toilet Scheme.","password":null}},{"type":"Feature","geometry":{"type":"Point","coordinates":[-2.586489022,51.449881282]},"properties":{"id":"toiletmap/e92ff14fcfc0125f787c4e39","source":"toiletmap-uk","name":"Bristol City Council Customer Service Point, 100 Temple Street, BS1 6AG ","fee":"no","charge":null,"access":null,"wheelchair":"yes","opening_hours":"Mo-Tu 09:00-16:45; We 10:00-16:45; Th-Fr 09:00-16:45","operator":null,"description":null,"password":null}},{"type":"Feature","geometry":{"type":"Point","coordinates":[-2.560007572,51.446458249]},"properties":{"id":"toiletmap/ec039f9bbffa22d4010265f1","source":"toiletmap-uk","name":"Vaulted Chambers Park Cafe Castle Park, BS2 0HQ ","fee":"no","charge":null,"access":null,"wheelchair":"yes","opening_hours":"We-Su 09:30-16:30","operator":null,"description":null,"password":null}},{"type":"Feature","geometry":{"type":"Point","coordinates":[-2.508058548,51.462052315]},"properties":{"id":"toiletmap/eea7b80b4508dca47a9e61b6","source":"toiletmap-uk","name":"Moravian Road Public Toilets","fee":"no","charge":null,"access":null,"wheelchair":"yes","opening_hours":null,"operator":null,"description":null,"password":null}},{"type":"Feature","geometry":{"type":"Point","coordinates":[-2.6365599,51.5054081]},"properties":{"id":"toiletmap/f1da6e5b4469c95ee3f94dff","source":"toiletmap-uk","name":"Blaise Castle Estate","fee":"no","charge":null,"access":null,"wheelchair":"no","opening_hours":null,"operator":null,"description":"Daily 8am-3.30pm (4pm in summer weekdays).","password":null}},{"type":"Feature","geometry":{"type":"Point","coordinates":[-2.562563522,51.4900906]},"properties":{"id":"toiletmap/f26facffec7561611dc6e36e","source":"toiletmap-uk","name":"The Hub Community Centre","fee":"no","charge":null,"access":null,"wheelchair":null,"opening_hours":null,"operator":null,"description":null,"password":null}},{"type":"Feature","geometry":{"type":"Point","coordinates":[-2.569805682,51.44506405]},"properties":{"id":"toiletmap/f41afb4bc98283e3f68ef499","source":"toiletmap-uk","name":"Wholesale Fruit Centre","fee":"no","charge":null,"access":null,"wheelchair":"yes","opening_hours":"Mo-Su 09:00-17:00","operator":null,"description":"5am 11am Mon-Fri, 5am -9am Sat,7am-3am sun","password":null}},{"type":"Feature","geometry":{"type":"Point","coordinates":[-2.5728945,51.5100732]},"properties":{"id":"toiletmap/f664f3ad8d85d184ca099cbe","source":"toiletmap-uk","name":"Church Road","fee":"no","charge":null,"access":null,"wheelchair":"no","opening_hours":"Mo-Su 08:00-18:00","operator":null,"description":null,"password":null}},{"type":"Feature","geometry":{"type":"Point","coordinates":[-2.698377371,51.500084159]},"properties":{"id":"toiletmap/f6de44e3d89dec638a059754","source":"toiletmap-uk","name":"Avonmouth Community Centre","fee":"no","charge":null,"access":null,"wheelchair":"yes","opening_hours":"Mo-Th 09:30-16:30","operator":null,"description":null,"password":null}},{"type":"Feature","geometry":{"type":"Point","coordinates":[-2.501195237,51.416327875]},"properties":{"id":"toiletmap/f797de3fef9c9675a0e6651c","source":"toiletmap-uk","name":"Tesco","fee":"no","charge":null,"access":null,"wheelchair":"yes","opening_hours":"Mo-Sa 08:00-22:00; Su 10:00-16:00","operator":null,"description":"Located at the far end of the store, in front of the checkouts (no need to enter the shopping area)","password":null}},{"type":"Feature","geometry":{"type":"Point","coordinates":[-2.5331132,51.477533813]},"properties":{"id":"toiletmap/f9454e2283320b56fb8a909b","source":"toiletmap-uk","name":"Fishponds Library","fee":"no","charge":null,"access":null,"wheelchair":"yes","opening_hours":null,"operator":null,"description":null,"password":null}},{"type":"Feature","geometry":{"type":"Point","coordinates":[-2.6054281,51.443714947]},"properties":{"id":"toiletmap/fa0b82b5ea5a121b5da244be","source":"toiletmap-uk","name":"Southville Centre","fee":"yes","charge":null,"access":null,"wheelchair":"yes","opening_hours":"Mo-Fr 09:00-17:00","operator":null,"description":"Accessible community centre in BS3 with cafe open 9am-4.45pm, access to water fountain to refill bottles, covered bike racks. On street parking free for first 30 minutes then £1 an hour","password":null}},{"type":"Feature","geometry":{"type":"Point","coordinates":[-2.620537198,51.454383782]},"properties":{"id":"toiletmap/fa86c6a8c87bde7cdd75c4cc","source":"toiletmap-uk","name":"Coffee#1","fee":"no","charge":null,"access":null,"wheelchair":"yes","opening_hours":null,"operator":null,"description":null,"password":null}},{"type":"Feature","geometry":{"type":"Point","coordinates":[-2.610580623,51.463962279]},"properties":{"id":"toiletmap/fb266086673bd9bb722d96e8","source":"toiletmap-uk","name":"Sainsbury's Clifton Down","fee":"no","charge":null,"access":null,"wheelchair":"yes","opening_hours":"Mo-Sa 08:00-22:00; Su 11:00-17:00","operator":null,"description":"Go into Sainsbury's via the store exit, immediately turn left and walk all the way down.\n\nSource: https://stores.sainsburys.co.uk/2202/clifton-down","password":null}},{"type":"Feature","geometry":{"type":"Point","coordinates":[-2.611819804,51.441315886]},"properties":{"id":"toiletmap/fd3ea993acba26ca671ba665","source":"toiletmap-uk","name":"The Burger Joint, 240 North Street Bedminster Bristol, BS3 1JD","fee":"no","charge":null,"access":null,"wheelchair":"yes","opening_hours":"Mo-Th 12:00-22:00; Fr-Sa 12:00-22:30; Su 10:00-22:00","operator":null,"description":null,"password":null}},{"type":"Feature","geometry":{"type":"Point","coordinates":[-2.524379766,51.461691306]},"properties":{"id":"toiletmap/fda9988b6f45dbdda7e3322b","source":"toiletmap-uk","name":"1st Choice Cafe","fee":"no","charge":null,"access":null,"wheelchair":"no","opening_hours":null,"operator":null,"description":null,"password":null}},{"type":"Feature","geometry":{"type":"Point","coordinates":[-2.611819804,51.441315886]},"properties":{"id":"toiletmap/fdb548892296236e608d76a7","source":"toiletmap-uk","name":"The Burger Joint, 240 North Street Bedminster Bristol, BS3 1JD","fee":"no","charge":null,"access":null,"wheelchair":"yes","opening_hours":"Mo-Th 12:00-22:00; Fr-Sa 12:00-22:30; Su 10:00-22:00","operator":null,"description":null,"password":null}},{"type":"Feature","geometry":{"type":"Point","coordinates":[-2.591799881,51.47432895]},"properties":{"id":"toiletmap/fe332ebeb2764536066b657f","source":"toiletmap-uk","name":"Cider Press","fee":"no","charge":null,"access":null,"wheelchair":"yes","opening_hours":"Mo-Sa 11:00-23:00; Su 12:00-22:00","operator":null,"description":null,"password":null}}]}