{"type":"FeatureCollection","attribution":"Contains data from the Toilet Map © 2025 – CC BY 4.0 (https://www.toiletmap.org.uk/dataset)","generated_at":"2026-08-21T08:59:23.635Z","features":[{"type":"Feature","geometry":{"type":"Point","coordinates":[-3.2001988,55.9504193]},"properties":{"id":"toiletmap/000b4c533fc82eff2d5e212f","source":"toiletmap-uk","name":"Ross Band Stand","fee":"no","charge":null,"access":null,"wheelchair":"yes","opening_hours":null,"operator":null,"description":"part of council community toilet scheme\n\n10am-8pm (summer only)\n\nDisabled access (all toilets for the disabled require a RADAR key for access)\n\ngates opening automatically so no current charge","password":null}},{"type":"Feature","geometry":{"type":"Point","coordinates":[-3.248160482,55.970145649]},"properties":{"id":"toiletmap/0225f2ddd522de032d27c1b5","source":"toiletmap-uk","name":"The Drumbrae Library Hub (West Neighbourhood) Toilets","fee":"no","charge":null,"access":null,"wheelchair":"yes","opening_hours":null,"operator":null,"description":"part of council community toilet scheme\n\nMon & Wed 8.30am-8pm. \nTue 10am-8pm. \nThurs & Fri 8.30am-5pm. \nSat 10am-5pm","password":null}},{"type":"Feature","geometry":{"type":"Point","coordinates":[-3.191348161,55.955437182]},"properties":{"id":"toiletmap/0251564e209b1d93fb7286ed","source":"toiletmap-uk","name":"St Andrew Square Bus and Coach Station","fee":"no","charge":null,"access":null,"wheelchair":"yes","opening_hours":"Mo-Su 06:00-23:59","operator":null,"description":null,"password":null}},{"type":"Feature","geometry":{"type":"Point","coordinates":[-3.154462338,55.902796356]},"properties":{"id":"toiletmap/02e84c43fbc1bee18b916286","source":"toiletmap-uk","name":"Gracemount Leisure Centre Toilets","fee":"no","charge":null,"access":null,"wheelchair":"yes","opening_hours":null,"operator":null,"description":"part of council community toilet scheme\n\n6:30am - 10pm Mon - Fri \n9am - 5pm Sat & Sun","password":null}},{"type":"Feature","geometry":{"type":"Point","coordinates":[-3.106697559,55.953065792]},"properties":{"id":"toiletmap/052b892c1a9cbe16bf4ae7b1","source":"toiletmap-uk","name":"Portobello Swim Centre Toilets","fee":"no","charge":null,"access":null,"wheelchair":"yes","opening_hours":"Mo-Fr 07:00-22:00; Sa 09:00-16:00; Su 09:00-18:00","operator":null,"description":"part of council community toilet scheme\n\n7am - 10pm Mon - Fri \n9am - 4pm Sat \n9am - 6pm Sun","password":null}},{"type":"Feature","geometry":{"type":"Point","coordinates":[-3.313357472,55.895682904]},"properties":{"id":"toiletmap/05e4a166a0387c127599bb0f","source":"toiletmap-uk","name":"Pentland Medical Centre Toilets","fee":"no","charge":null,"access":null,"wheelchair":"yes","opening_hours":null,"operator":null,"description":"part of council community toilet scheme\n\nMon - Fri 08:00 - 18:00","password":null}},{"type":"Feature","geometry":{"type":"Point","coordinates":[-3.251444578,55.90671422]},"properties":{"id":"toiletmap/07812f76000fdb18522c7e1c","source":"toiletmap-uk","name":"Colinton Library Toilets","fee":"no","charge":null,"access":null,"wheelchair":"yes","opening_hours":"Mo 13:00-20:00; Tu 10:00-17:00; We 13:00-20:00; Fr 10:00-17:00; Sa 10:00-14:00","operator":null,"description":"Part of council community toilet scheme\n\nMon & Wed 1-8pm. \nTues & Fri & Sat 10am - 5pm, \nSat: 10am - 2pm","password":null}},{"type":"Feature","geometry":{"type":"Point","coordinates":[-3.178913355,55.941564213]},"properties":{"id":"toiletmap/086e2ef5479729f03d79f53f","source":"toiletmap-uk","name":"Nelson Hall Community Centre Toilets","fee":"no","charge":null,"access":null,"wheelchair":"yes","opening_hours":null,"operator":null,"description":"part of council community toilet scheme\n\nMon-Fri 8am-9pm","password":null}},{"type":"Feature","geometry":{"type":"Point","coordinates":[-3.218444586,55.945802]},"properties":{"id":"toiletmap/106df2c7bedc478e6c501d86","source":"toiletmap-uk","name":"Haymarket Station","fee":"no","charge":null,"access":null,"wheelchair":"yes","opening_hours":"Mo-Sa 06:00-00:00; Su 07:00-00:00","operator":null,"description":"Toilet is after barriers, on Platform 4","password":null}},{"type":"Feature","geometry":{"type":"Point","coordinates":[-3.167971084,55.953693559]},"properties":{"id":"toiletmap/10899943dc22d8a5ea039f11","source":"toiletmap-uk","name":"Hollywood Park Ranger Building","fee":"no","charge":null,"access":null,"wheelchair":"yes","opening_hours":"Mo-Su 09:00-17:00","operator":null,"description":"Accessed from the east end of the building - facing the palace.","password":null}},{"type":"Feature","geometry":{"type":"Point","coordinates":[-3.242350817,55.94174567]},"properties":{"id":"toiletmap/11beec890c2cdf5ea14e7bf2","source":"toiletmap-uk","name":"Murrayfield Stadium Toilets","fee":"no","charge":null,"access":null,"wheelchair":"yes","opening_hours":null,"operator":null,"description":"part of council community toilet scheme\n\nMonday-Friday: 9.00am-5.00pm \nSat & Sun: 9am - 5pm \nPublic Hols: 9am - 5pm \nRing venue for availability on match days and at other events\n\n\nToilet is located in the West Stand","password":null}},{"type":"Feature","geometry":{"type":"Point","coordinates":[-3.311159134,55.896042829]},"properties":{"id":"toiletmap/126d79d923d36c7c04e233b8","source":"toiletmap-uk","name":"Currie library Toilets","fee":"no","charge":null,"access":null,"wheelchair":"no","opening_hours":null,"operator":null,"description":"part of council community toilet scheme\n\nMon & Wed 1-8pm. \nTues, Thurs, Fri & Sat 10am - 5pm","password":null}},{"type":"Feature","geometry":{"type":"Point","coordinates":[-3.253974438,55.971422825]},"properties":{"id":"toiletmap/13828d6d24804c19f764e7ed","source":"toiletmap-uk","name":"Muirhouse Library Toilets","fee":"no","charge":null,"access":null,"wheelchair":"yes","opening_hours":null,"operator":null,"description":"part of council community toilet scheme\nMon, Tue, Wed: 10am-8pm. \nThu, Fri, Sat: 10am-5pm.","password":null}},{"type":"Feature","geometry":{"type":"Point","coordinates":[-3.134342551,55.905367391]},"properties":{"id":"toiletmap/151d8f08cd3357eca72ad031","source":"toiletmap-uk","name":"Gilmerton Library Toilet","fee":"no","charge":null,"access":null,"wheelchair":"yes","opening_hours":null,"operator":null,"description":"part of council community toilet scheme\n\nMon & Wed 1-8pm. \nTues & Fri 10am-5pm. \nSat 10am-2pm","password":null}},{"type":"Feature","geometry":{"type":"Point","coordinates":[-3.138836861,55.952635952]},"properties":{"id":"toiletmap/1856a4e22361ee674e67bbfc","source":"toiletmap-uk","name":"Northfield/Willowbrae Community Centre Toilets","fee":"no","charge":null,"access":null,"wheelchair":"yes","opening_hours":null,"operator":null,"description":"part of council community toilet scheme\n\nMon-Fri, 8am-8pm. \nSat, 9am-12pm and 6:30pm-9:30pm","password":null}},{"type":"Feature","geometry":{"type":"Point","coordinates":[-3.117125987,55.956959482]},"properties":{"id":"toiletmap/1a06cee363bdded19bf7b445","source":"toiletmap-uk","name":"Tumbles at Portobello Gymnastics and Softplay Centre","fee":"no","charge":null,"access":null,"wheelchair":"yes","opening_hours":null,"operator":null,"description":"part of council community toilet scheme\n\n9:30am - 5pm Mon - Sun","password":null}},{"type":"Feature","geometry":{"type":"Point","coordinates":[-3.0709006,55.893539114]},"properties":{"id":"toiletmap/1cd5cf6d5d0473d0b7a2681a","source":"toiletmap-uk","name":"Dalkeith Public Toilets","fee":"no","charge":null,"access":null,"wheelchair":"yes","opening_hours":"Mo-Su 09:00-18:30","operator":null,"description":null,"password":null}},{"type":"Feature","geometry":{"type":"Point","coordinates":[-3.175294518,55.952067343]},"properties":{"id":"toiletmap/2041e7172c95eaaa6cf36e84","source":"toiletmap-uk","name":"The Scottish Parliament Toilets","fee":"no","charge":null,"access":null,"wheelchair":"yes","opening_hours":null,"operator":null,"description":"part of council community toilet scheme\n\nToilet is not locked, has an attendant and is on the ground level. Changing Bench: height adjustable, adult sized, free standing Hoist: Ceiling track hoist - click system Toilet: Centrally placed toilet with room either side for carers","password":null}},{"type":"Feature","geometry":{"type":"Point","coordinates":[-3.298283458,55.977883899]},"properties":{"id":"toiletmap/230ab952c2d1def9ce47132f","source":"toiletmap-uk","name":"Cramond Kirk","fee":"no","charge":null,"access":null,"wheelchair":"yes","opening_hours":null,"operator":null,"description":"part of council community toilet scheme\n\n9am - 5pm Mon - Sat, \n8am - 1pm Sun","password":null}},{"type":"Feature","geometry":{"type":"Point","coordinates":[-3.306141,55.925081]},"properties":{"id":"toiletmap/257b33fe68987f11c4c3139c","source":"toiletmap-uk","name":"Tesco Supermarket","fee":"no","charge":null,"access":null,"wheelchair":"no","opening_hours":null,"operator":null,"description":null,"password":null}},{"type":"Feature","geometry":{"type":"Point","coordinates":[-3.220957518,55.905256174]},"properties":{"id":"toiletmap/27807cd6387e8229de9ebef1","source":"toiletmap-uk","name":"Pentland Community Centre","fee":"no","charge":null,"access":null,"wheelchair":"yes","opening_hours":null,"operator":null,"description":"part of council community toilet scheme\n\nMon-Fri, 9:30am-9:30pm. \nSun, 6pm-8pm","password":null}},{"type":"Feature","geometry":{"type":"Point","coordinates":[-3.205384612,55.928291527]},"properties":{"id":"toiletmap/292f963178747e787da50208","source":"toiletmap-uk","name":null,"fee":"yes","charge":null,"access":null,"wheelchair":"no","opening_hours":null,"operator":null,"description":null,"password":null}},{"type":"Feature","geometry":{"type":"Point","coordinates":[-3.218372941,55.94010848]},"properties":{"id":"toiletmap/2b21e165b8808fe7c63c6891","source":"toiletmap-uk","name":"Fountainbridge Library Toilets","fee":"no","charge":null,"access":null,"wheelchair":"yes","opening_hours":null,"operator":null,"description":"part of council community toilet scheme\n\n\nMon & Wed 1-8pm. \nTues, Thurs, Fri & Sat 10am - 5pm","password":null}},{"type":"Feature","geometry":{"type":"Point","coordinates":[-3.1861307,55.9458479]},"properties":{"id":"toiletmap/2c793f3578ff4e3b5b29b04a","source":"toiletmap-uk","name":"Nicolson Square Toilets","fee":"no","charge":null,"access":null,"wheelchair":"no","opening_hours":"Mo-Su 09:00-18:00","operator":null,"description":"part of council community toilet scheme\n\n10.00am to 6.00pm\n\n\n\tDisabled access (all toilets for the disabled require a RADAR key for access)","password":null}},{"type":"Feature","geometry":{"type":"Point","coordinates":[-3.189003905,55.94716258]},"properties":{"id":"toiletmap/2cc16bc2e089be5f1adcaa17","source":"toiletmap-uk","name":"National Museum of Scotland","fee":"no","charge":null,"access":null,"wheelchair":"yes","opening_hours":"Mo-Su 09:00-17:00","operator":null,"description":null,"password":null}},{"type":"Feature","geometry":{"type":"Point","coordinates":[-3.2042289,55.964772]},"properties":{"id":"toiletmap/2e6bbb49a17b78a706157c78","source":"toiletmap-uk","name":"Royal Botanic Garden Edinburgh","fee":"no","charge":null,"access":null,"wheelchair":"yes","opening_hours":null,"operator":null,"description":"Open Daily from 10:00 to 16:00, except:\n\nOct and Feb: 10:00 to 17:00\nMar-Sep: 10:00 to 18:00\n\nClosed 25 December and 1 January.\n\nAdmission\nGarden entry FREE","password":null}},{"type":"Feature","geometry":{"type":"Point","coordinates":[-3.061006665,55.901380172]},"properties":{"id":"toiletmap/2fc0b0be301780a77a238ae2","source":"toiletmap-uk","name":"Dalkeith Country Park","fee":"no","charge":null,"access":null,"wheelchair":"no","opening_hours":null,"operator":null,"description":null,"password":null}},{"type":"Feature","geometry":{"type":"Point","coordinates":[-3.255236149,55.90777487]},"properties":{"id":"toiletmap/3214fede77fc225a1657e2d2","source":"toiletmap-uk","name":"Colinton Public Toilets","fee":"no","charge":null,"access":null,"wheelchair":"yes","opening_hours":"Mo-Su 10:00-19:00","operator":null,"description":"Part of council community toilet scheme\n\nOpening times\n10.00am to 7.00pm","password":null}},{"type":"Feature","geometry":{"type":"Point","coordinates":[-3.3140197,55.9382378]},"properties":{"id":"toiletmap/366203b19bb064960d8acde5","source":"toiletmap-uk","name":null,"fee":"no","charge":null,"access":null,"wheelchair":"no","opening_hours":null,"operator":null,"description":null,"password":null}},{"type":"Feature","geometry":{"type":"Point","coordinates":[-3.3159294,55.9393607]},"properties":{"id":"toiletmap/37c9f6afa5a25650fa1b7e58","source":"toiletmap-uk","name":null,"fee":"no","charge":null,"access":null,"wheelchair":"no","opening_hours":null,"operator":null,"description":null,"password":null}},{"type":"Feature","geometry":{"type":"Point","coordinates":[-3.104487419,55.934734516]},"properties":{"id":"toiletmap/3ea87174c653b40ba1afa9ff","source":"toiletmap-uk","name":"Fort Kinnaird Toilets","fee":"no","charge":null,"access":null,"wheelchair":"yes","opening_hours":null,"operator":null,"description":"There are toilet facilities available for use at Customer Services, towards the back of the retail area. Various retailers also provide customer toilet facilities within their stores.","password":null}},{"type":"Feature","geometry":{"type":"Point","coordinates":[-3.116967201,55.93173481]},"properties":{"id":"toiletmap/41b556ccc2d95c8b320dbcda","source":"toiletmap-uk","name":"Jack Kane Sports Centre Toilets","fee":"no","charge":null,"access":null,"wheelchair":"yes","opening_hours":null,"operator":null,"description":"part of council community toilet scheme\n\n9am - 10pm Mon - Thurs \n9am - 9pm Fri \n9:30am - 5pm Sat & Sun","password":null}},{"type":"Feature","geometry":{"type":"Point","coordinates":[-3.179753423,55.93206298]},"properties":{"id":"toiletmap/41c211e34178b13d007dc7b7","source":"toiletmap-uk","name":"Newington Library Toilets","fee":"no","charge":null,"access":null,"wheelchair":"yes","opening_hours":null,"operator":null,"description":"part of council community toilet scheme\n\nMon, Tue, Wed: 10am-8pm. \nThu, Fri, Sat: 10am-5pm.","password":null}},{"type":"Feature","geometry":{"type":"Point","coordinates":[-3.156208992,55.898293274]},"properties":{"id":"toiletmap/4676895ddf028d29b0af91f9","source":"toiletmap-uk","name":"Valley Park Community Centre Public Toilet","fee":"no","charge":null,"access":null,"wheelchair":"no","opening_hours":null,"operator":null,"description":"part of council community toilet scheme\nOpening times:\nMon-Fri 9am-9pm","password":null}},{"type":"Feature","geometry":{"type":"Point","coordinates":[-3.290190697,55.92653523]},"properties":{"id":"toiletmap/47a21dcba6b05f73ab5a0b1f","source":"toiletmap-uk","name":"Edinburgh College Toilets","fee":"no","charge":null,"access":null,"wheelchair":"yes","opening_hours":null,"operator":null,"description":"part of council community toilet scheme\n\nMon - Fri: 9am - 5pm\n\n\nToilet is located on first floor","password":null}},{"type":"Feature","geometry":{"type":"Point","coordinates":[-3.114898683,55.947935069]},"properties":{"id":"toiletmap/480b97233340a4bb6f6e1cd2","source":"toiletmap-uk","name":"Portobello Golf Course Toilets","fee":"no","charge":null,"access":null,"wheelchair":"no","opening_hours":null,"operator":null,"description":"part of council community toilet scheme\n\n7:30am - 7:45pm Mon - Fri \n7:15am - 7:30pm Sat & Sun \n(Open 1 May - 31 Aug)","password":null}},{"type":"Feature","geometry":{"type":"Point","coordinates":[-3.17051053,55.969852975]},"properties":{"id":"toiletmap/4b3000bfcb057e1814c78ff3","source":"toiletmap-uk","name":"Tesco - Leith Superstore","fee":"no","charge":null,"access":null,"wheelchair":"yes","opening_hours":"Mo-Sa 06:00-00:00; Su 08:00-20:00","operator":null,"description":"The toilets are in the back corner of the store, almost hidden behind the clothes section.","password":null}},{"type":"Feature","geometry":{"type":"Point","coordinates":[-3.2082826,55.9583533]},"properties":{"id":"toiletmap/4ba42f924f9491ad4c6983bb","source":"toiletmap-uk","name":"Hamilton Place Toilets","fee":"no","charge":null,"access":null,"wheelchair":"yes","opening_hours":null,"operator":null,"description":"part of council community toilet scheme\n\nDisabled access (all toilets for the disabled require a RADAR key for access)\n\nopening times\n10.00am to 6.00pm","password":null}},{"type":"Feature","geometry":{"type":"Point","coordinates":[-3.188159466,55.952107283]},"properties":{"id":"toiletmap/4f1f0496ce05a81bb8eeab63","source":"toiletmap-uk","name":"Edinburgh Waverley Station","fee":"no","charge":"Yes, 40p I think?","access":null,"wheelchair":"no","opening_hours":"Mo-Su 06:00-23:59","operator":null,"description":null,"password":null}},{"type":"Feature","geometry":{"type":"Point","coordinates":[-3.175340652,55.97142322]},"properties":{"id":"toiletmap/4f97132f2e2736835cd0ff32","source":"toiletmap-uk","name":"Leith Victoria Swim Centre Toilets","fee":"no","charge":null,"access":null,"wheelchair":"yes","opening_hours":null,"operator":null,"description":"part of council community toilet scheme\n\nopening times\n\n6am - 10pm Mon - Fri \n9am - 6pm Saturday \n9am - 8:30pm Sunday","password":null}},{"type":"Feature","geometry":{"type":"Point","coordinates":[-3.195690036,55.951876516]},"properties":{"id":"toiletmap/5367a469da5848219e0e0c10","source":"toiletmap-uk","name":"Mound (Paraplegic) Toilets","fee":"no","charge":null,"access":null,"wheelchair":"yes","opening_hours":null,"operator":null,"description":"part of council community toilet scheme\n\nDisabled 24hr access (all toilets for the disabled require a RADAR key for access)","password":null}},{"type":"Feature","geometry":{"type":"Point","coordinates":[-3.217619777,55.945249844]},"properties":{"id":"toiletmap/537a7b86b490ad33fba8d92f","source":"toiletmap-uk","name":"Troy Cafe - Bistro Toilets","fee":"no","charge":null,"access":null,"wheelchair":"no","opening_hours":null,"operator":null,"description":"part of council community toilet scheme\n\nMon - Fri, 8am - 9pm. \nSat and Sun, 9am - 10pm","password":null}},{"type":"Feature","geometry":{"type":"Point","coordinates":[-3.2774742,55.9710589]},"properties":{"id":"toiletmap/53a048eb35b6b3d55e517e3c","source":"toiletmap-uk","name":"Lauriston Castle Gardens Public Toilets","fee":"no","charge":null,"access":null,"wheelchair":"yes","opening_hours":"Mo-Su 09:30-16:00","operator":null,"description":null,"password":null}},{"type":"Feature","geometry":{"type":"Point","coordinates":[-3.1968492,55.9516586]},"properties":{"id":"toiletmap/56136add129d68cfaf13fe4a","source":"toiletmap-uk","name":"Mound (Gents only) Toilets","fee":"no","charge":null,"access":null,"wheelchair":"no","opening_hours":null,"operator":null,"description":"part of council community toilet scheme\n\n10.00am to 10.00pm","password":null}},{"type":"Feature","geometry":{"type":"Point","coordinates":[-3.136769414,55.933197868]},"properties":{"id":"toiletmap/577b2af3cf19b79d12cb4881","source":"toiletmap-uk","name":"Craigmillar Library Toilets","fee":"no","charge":null,"access":null,"wheelchair":"yes","opening_hours":null,"operator":null,"description":"part of council community toilet scheme\n\nMon, Tue, Wed: 10am-8pm. \nThu, Fri, Sat: 10am-5pm","password":null}},{"type":"Feature","geometry":{"type":"Point","coordinates":[-3.116694689,55.953329608]},"properties":{"id":"toiletmap/58a4dd88c64860f8afc9319f","source":"toiletmap-uk","name":"Portobello Library Toilets","fee":"no","charge":null,"access":null,"wheelchair":"yes","opening_hours":null,"operator":null,"description":"part of council community toilet scheme\n\nOne toilet with disabled access on first floor (accessible by lift).\nMon, Tue, Wed: 10am-8pm. Thu, Fri, Sat: 10am-5pm.","password":null}},{"type":"Feature","geometry":{"type":"Point","coordinates":[-3.18321974,55.9410262]},"properties":{"id":"toiletmap/591fcf144ba29d7984a9a26c","source":"toiletmap-uk","name":"Hope Park Toilets","fee":"no","charge":null,"access":null,"wheelchair":"yes","opening_hours":null,"operator":null,"description":"part of council community toilet scheme\n\nDisabled access (all toilets for the disabled require a RADAR key for access)","password":null}},{"type":"Feature","geometry":{"type":"Point","coordinates":[-3.203199148,55.947806406]},"properties":{"id":"toiletmap/5e3dcf2d57cd79408be6e8ac","source":"toiletmap-uk","name":"Castle Terrace Car Park Toilets","fee":"no","charge":null,"access":null,"wheelchair":"yes","opening_hours":null,"operator":null,"description":"part of council community toilet scheme\n\n\nOpening times\n10am-8pm\n\nDisabled access (all toilets for the disabled require a RADAR key for access)","password":null}},{"type":"Feature","geometry":{"type":"Point","coordinates":[-3.2025852,55.9195933]},"properties":{"id":"toiletmap/5f772a48941d472494e1a9c1","source":"toiletmap-uk","name":"Hermitage of Braid Local Nature Reserve Toilets","fee":"no","charge":null,"access":null,"wheelchair":"yes","opening_hours":null,"operator":null,"description":"part of council community toilet scheme\n\nOpening times Visitor Centre\nMonday to Friday: 9am - 4pm, Sunday and Public Holidays 12 noon - 4pm.","password":null}},{"type":"Feature","geometry":{"type":"Point","coordinates":[-3.280228972,55.942393404]},"properties":{"id":"toiletmap/62cb1e784b9c26ea97ad4b15","source":"toiletmap-uk","name":"Subway Toilets","fee":"no","charge":null,"access":null,"wheelchair":"yes","opening_hours":null,"operator":null,"description":"part of council community toilet scheme\n\nMon - Sat: 8am - 9pm \nSun: 9am - 9pm","password":null}},{"type":"Feature","geometry":{"type":"Point","coordinates":[-3.0512651,55.9429504]},"properties":{"id":"toiletmap/6678c0239074ac2a84c9289c","source":"toiletmap-uk","name":"Shorthope Street","fee":"no","charge":null,"access":null,"wheelchair":"yes","opening_hours":"Mo-Su 09:00-16:00","operator":null,"description":"Open to 6pm during British Summer Time","password":null}},{"type":"Feature","geometry":{"type":"Point","coordinates":[-3.185260534,55.941442993]},"properties":{"id":"toiletmap/6a7ae8a6eeed88b647f31a38","source":"toiletmap-uk","name":"Meadows Tennis Toilets","fee":"no","charge":null,"access":null,"wheelchair":"no","opening_hours":null,"operator":null,"description":"part of council community toilet scheme\n\nOpening times\n9am - 4pm Mon - Sun \n(Open Oct - March)","password":null}},{"type":"Feature","geometry":{"type":"Point","coordinates":[-3.261076928,55.961572747]},"properties":{"id":"toiletmap/6b667473ab03771e62c20f1a","source":"toiletmap-uk","name":"Blackhall Library Toilets","fee":"no","charge":null,"access":null,"wheelchair":null,"opening_hours":null,"operator":null,"description":"Building closed due to concrete problems ","password":null}},{"type":"Feature","geometry":{"type":"Point","coordinates":[-3.318879604,55.959915676]},"properties":{"id":"toiletmap/6c6831a82ce2392e82c2a8e7","source":"toiletmap-uk","name":"Cammo visitor centre","fee":"no","charge":null,"access":null,"wheelchair":"yes","opening_hours":null,"operator":null,"description":"Open when the coffee van is open, roughly 9 to 4 and when there are events on.","password":null}},{"type":"Feature","geometry":{"type":"Point","coordinates":[-3.256263971,55.93826165]},"properties":{"id":"toiletmap/6cb5c865f43e4f6ec29d2965","source":"toiletmap-uk","name":"Carrick Knowe Golf Course Toilets","fee":"no","charge":null,"access":null,"wheelchair":"yes","opening_hours":null,"operator":null,"description":"part of council community toilet scheme\n\n7am - 7:45pm Mon - Fri \n6:45am - 7:30pm Sat & Sun\n (Open 1 May - 31 Aug)","password":null}},{"type":"Feature","geometry":{"type":"Point","coordinates":[-3.247658853,55.934826135]},"properties":{"id":"toiletmap/6eb86cdcf3deb8d25c9666ba","source":"toiletmap-uk","name":"Saughton Park, Winter Gardens Public Toilet","fee":"no","charge":null,"access":null,"wheelchair":"yes","opening_hours":"Mo-Su 10:00-17:30","operator":null,"description":null,"password":null}},{"type":"Feature","geometry":{"type":"Point","coordinates":[-3.18784833,55.955056569]},"properties":{"id":"toiletmap/71c877443705a8e5bf8bf213","source":"toiletmap-uk","name":"St James Quarter","fee":"no","charge":null,"access":null,"wheelchair":"yes","opening_hours":null,"operator":null,"description":null,"password":null}},{"type":"Feature","geometry":{"type":"Point","coordinates":[-3.245210052,55.971686662]},"properties":{"id":"toiletmap/73d620f6ec0c936b9f8a9eb7","source":"toiletmap-uk","name":"West Pilton Neighbourhood Centre Toilets","fee":"no","charge":null,"access":null,"wheelchair":"yes","opening_hours":null,"operator":null,"description":"part of council community toilet scheme\n\nMon-Thur, 8:30am-9pm. \nFri, 8:30am-5:15pm. \nSat, 9:30am-2:30pm","password":null}},{"type":"Feature","geometry":{"type":"Point","coordinates":[-3.134886503,55.913489585]},"properties":{"id":"toiletmap/73df4efe0f31a312c1be3843","source":"toiletmap-uk","name":"Moredun Library Toilets","fee":"no","charge":null,"access":null,"wheelchair":"yes","opening_hours":null,"operator":null,"description":"part of council community toilet scheme\n\nMon & Wed 1-8pm. \nTues, Thurs, Fri & Sat 10am - 5pm","password":null}},{"type":"Feature","geometry":{"type":"Point","coordinates":[-3.138433456,55.96464574]},"properties":{"id":"toiletmap/791f9fb9687f2caca296e33c","source":"toiletmap-uk","name":"Craigentinny Golf Course Toilets","fee":"no","charge":null,"access":null,"wheelchair":"yes","opening_hours":null,"operator":null,"description":"part of council community toilet scheme\n\n7am - 7:45pm Mon - Fri \n6:45am - 7:30pm Sat & Sun \n(Open 1 May - 31 Aug)","password":null}},{"type":"Feature","geometry":{"type":"Point","coordinates":[-3.205073476,55.950118941]},"properties":{"id":"toiletmap/7aa98bc5feb8511b930531a2","source":"toiletmap-uk","name":"West End Toilets","fee":"no","charge":null,"access":null,"wheelchair":"yes","opening_hours":"Mo-Su 09:00-18:00","operator":null,"description":"part of council community toilet scheme\n\nDisabled access (all toilets for the disabled require a RADAR key for access) \n\nopening times\n10.00am to 9.30pm","password":null}},{"type":"Feature","geometry":{"type":"Point","coordinates":[-3.153009653,55.902848089]},"properties":{"id":"toiletmap/7c3c87da1fa9c33698a4ec1e","source":"toiletmap-uk","name":"South Neighbourhood Office and Library Toilets","fee":"no","charge":null,"access":null,"wheelchair":"no","opening_hours":null,"operator":null,"description":"part of council community toilet scheme\n\nMon - Thurs 8.30am-5pm. Fri 8.30am-3.40pm","password":null}},{"type":"Feature","geometry":{"type":"Point","coordinates":[-3.1785758,55.9804391]},"properties":{"id":"toiletmap/7e8cc0ffb33e8ae4c03a3575","source":"toiletmap-uk","name":"Ocean Terminal Public Toilets","fee":"no","charge":null,"access":null,"wheelchair":"yes","opening_hours":null,"operator":null,"description":null,"password":null}},{"type":"Feature","geometry":{"type":"Point","coordinates":[-3.250179374,55.933965056]},"properties":{"id":"toiletmap/824e0388d5af1209e1f87aad","source":"toiletmap-uk","name":"Saughton Park, Courtyard Public Toilet","fee":"no","charge":null,"access":null,"wheelchair":"yes","opening_hours":"Mo-Su 10:00-17:30","operator":null,"description":null,"password":null}},{"type":"Feature","geometry":{"type":"Point","coordinates":[-3.230637074,55.971969522]},"properties":{"id":"toiletmap/82e2472fc0744bf3a2d6d39f","source":"toiletmap-uk","name":"Ainslie Park Leisure Centre Toilets","fee":"no","charge":null,"access":null,"wheelchair":"yes","opening_hours":null,"operator":null,"description":"part of council community toilet scheme\n\n6am - 10pm Mon - Fri \n6am - 5pm Saturday \n8am - 9pm Sunday","password":null}},{"type":"Feature","geometry":{"type":"Point","coordinates":[-3.235784768,55.922060955]},"properties":{"id":"toiletmap/84c75f1ad1bb820c9c85698b","source":"toiletmap-uk","name":"Craiglockhart Leisure and Tennis Centre Toilets","fee":"no","charge":null,"access":null,"wheelchair":"yes","opening_hours":null,"operator":null,"description":"part of council community toilet scheme\n\nLeisure Centre: \n6:30am - 10:30pm Mon - Fri \n9am - 6pm Sat \n9am - 10pm Sun \n\nTennis Courts: \n9am - 10:30pm Mon - Fri\n 9am - 6pm Sat \n9am - 10pm Sun","password":null}},{"type":"Feature","geometry":{"type":"Point","coordinates":[-3.22679406,55.93158204]},"properties":{"id":"toiletmap/8620fc11767cf9dcfe572d62","source":"toiletmap-uk","name":"Ashley Terrace Services","fee":"no","charge":null,"access":null,"wheelchair":"no","opening_hours":null,"operator":null,"description":"access limited","password":null}},{"type":"Feature","geometry":{"type":"Point","coordinates":[-3.272333619,55.973178427]},"properties":{"id":"toiletmap/886feab2e4342e3cb4a16c37","source":"toiletmap-uk","name":"Silverknowes Golf Course Toilets","fee":"no","charge":null,"access":null,"wheelchair":"yes","opening_hours":null,"operator":null,"description":"part of council community toilet scheme\n\n7am - 7:45pm Mon - Fri \n6:45am - 7:30pm Sat & Sun \n(Open 1 May - 31 Aug)","password":null}},{"type":"Feature","geometry":{"type":"Point","coordinates":[-3.214236735,55.962364138]},"properties":{"id":"toiletmap/892d3b2712e46852deb18efa","source":"toiletmap-uk","name":"Inverleith park public toilet","fee":"no","charge":null,"access":null,"wheelchair":"yes","opening_hours":null,"operator":null,"description":null,"password":null}},{"type":"Feature","geometry":{"type":"Point","coordinates":[-3.114113,55.953029]},"properties":{"id":"toiletmap/89778ce9a362d8b2111afd04","source":"toiletmap-uk","name":"Bath Street Toilets","fee":"no","charge":null,"access":null,"wheelchair":"yes","opening_hours":"Mo-Su 10:00-20:00","operator":null,"description":"part of council community toilet scheme\n\nDisabled access (all toilets for the disabled require a RADAR key for access)\n\nOpening times \n10:00-20:00","password":null}},{"type":"Feature","geometry":{"type":"Point","coordinates":[-3.124400139,55.940300678]},"properties":{"id":"toiletmap/8c39ca30d51ebe0386b86b97","source":"toiletmap-uk","name":"Bingham Community Centre Toilets","fee":"no","charge":null,"access":null,"wheelchair":"no","opening_hours":null,"operator":null,"description":"part of council community toilet scheme\n\nOpening times\nTuesday","password":null}},{"type":"Feature","geometry":{"type":"Point","coordinates":[-3.158783913,55.92836666]},"properties":{"id":"toiletmap/8d01f551ed6ffd5d6967dfdc","source":"toiletmap-uk","name":"Toyota Western","fee":"no","charge":null,"access":null,"wheelchair":"yes","opening_hours":null,"operator":null,"description":null,"password":null}},{"type":"Feature","geometry":{"type":"Point","coordinates":[-3.104551792,55.942194325]},"properties":{"id":"toiletmap/8d4cd94f85c2a1e8cfe2f069","source":"toiletmap-uk","name":"Magdalene Community Education Centre Toilet","fee":"no","charge":null,"access":null,"wheelchair":"yes","opening_hours":null,"operator":null,"description":"part of council community toilet scheme\n\n\nMon-Fri, 10am-9pm","password":null}},{"type":"Feature","geometry":{"type":"Point","coordinates":[-3.2999368,55.98004126]},"properties":{"id":"toiletmap/8d976845fed890a37f5de1ae","source":"toiletmap-uk","name":"Cramond Toilets","fee":"no","charge":null,"access":null,"wheelchair":"no","opening_hours":null,"operator":null,"description":"part of council community toilet scheme\n\n10.00am to 6.00pm","password":null}},{"type":"Feature","geometry":{"type":"Point","coordinates":[-3.159152987,55.924865543]},"properties":{"id":"toiletmap/8e5a9619f31544e516225fb7","source":"toiletmap-uk","name":"Inch Community Centre Toilets","fee":"no","charge":null,"access":null,"wheelchair":"yes","opening_hours":null,"operator":null,"description":"part of council community toilet scheme\n\nMon-Thu, 9am-9:30pm. \nFri, 9am-3pm, 6pm-9:30pm. \nSat, 12:15pm-3:45pm. \nSun, 9:15am-12pm, 1pm-3pm","password":null}},{"type":"Feature","geometry":{"type":"Point","coordinates":[-3.1416514,55.9260049]},"properties":{"id":"toiletmap/8f1502d92a69c7cfaa30c69b","source":"toiletmap-uk","name":null,"fee":"no","charge":null,"access":null,"wheelchair":"no","opening_hours":null,"operator":null,"description":null,"password":null}},{"type":"Feature","geometry":{"type":"Point","coordinates":[-3.057338583,55.943879058]},"properties":{"id":"toiletmap/93647ea0f7b110a31d9629e2","source":"toiletmap-uk","name":"Brunton Hall Public Toilet","fee":"no","charge":null,"access":null,"wheelchair":"no","opening_hours":null,"operator":null,"description":"Public Toilet Facilities","password":null}},{"type":"Feature","geometry":{"type":"Point","coordinates":[-3.196313381,55.948695022]},"properties":{"id":"toiletmap/937302cc9a97c714a8fa477c","source":"toiletmap-uk","name":"Castlehill","fee":"no","charge":null,"access":null,"wheelchair":"no","opening_hours":null,"operator":null,"description":"part of council community toilet scheme\n\nOpening times\n10am - 7:30pm","password":null}},{"type":"Feature","geometry":{"type":"Point","coordinates":[-3.1971869,55.9471021]},"properties":{"id":"toiletmap/937da48bb9fdd628737cc0d0","source":"toiletmap-uk","name":"Grassmarket Public Convenience","fee":"no","charge":"true","access":null,"wheelchair":"no","opening_hours":null,"operator":null,"description":null,"password":null}},{"type":"Feature","geometry":{"type":"Point","coordinates":[-3.1777025,55.9744283]},"properties":{"id":"toiletmap/94e54b886677f4248ecde075","source":"toiletmap-uk","name":"Taylor Gardens Toilet","fee":"no","charge":null,"access":null,"wheelchair":"yes","opening_hours":null,"operator":null,"description":"part of council community toilet scheme\n\nDisabled access (all toilets for the disabled require a RADAR key for access)\n\n10.00am to 6.00pm","password":null}},{"type":"Feature","geometry":{"type":"Point","coordinates":[-3.223528147,55.905188736]},"properties":{"id":"toiletmap/9ddf7a967deb58ff965646be","source":"toiletmap-uk","name":"Oxgangs Library Toilets","fee":"no","charge":null,"access":null,"wheelchair":"yes","opening_hours":null,"operator":null,"description":"part of council community toilet scheme\n\nMon, Tue, Wed: 10am-8pm. \nThu, Fri, Sat: 10am-5pm.","password":null}},{"type":"Feature","geometry":{"type":"Point","coordinates":[-3.0809031,55.9400256]},"properties":{"id":"toiletmap/a0e47d13eada9c06db90ff2e","source":"toiletmap-uk","name":null,"fee":"no","charge":null,"access":null,"wheelchair":"no","opening_hours":null,"operator":null,"description":null,"password":null}},{"type":"Feature","geometry":{"type":"Point","coordinates":[-3.205347061,55.951960113]},"properties":{"id":"toiletmap/a165dc22fc5349851366e0a8","source":"toiletmap-uk","name":"Alexander Graham Bell (JD Wetherspoon)","fee":"no","charge":null,"access":null,"wheelchair":"yes","opening_hours":"Mo-Su 08:00-01:00","operator":null,"description":"Accessible toilet on ground floor, RADAR key needed but staff will open if required. Baby changing in same bathroom as accessible toilet. Male and female toilet facilities upstairs also.","password":null}},{"type":"Feature","geometry":{"type":"Point","coordinates":[-3.20651944,55.93715834]},"properties":{"id":"toiletmap/a5e55b284879794aae722594","source":"toiletmap-uk","name":"Bruntsfield Toilets","fee":"no","charge":null,"access":null,"wheelchair":"yes","opening_hours":null,"operator":null,"description":"part of council community toilet scheme\n\nDisabled 24hr access (all toilets for the disabled require a RADAR key for access. Further information on RADAR keys, including how to order one, is available on www.radar-shop.org.uk)\n\n10.00am to 8.00pm","password":null}},{"type":"Feature","geometry":{"type":"Point","coordinates":[-3.1915042,55.945012]},"properties":{"id":"toiletmap/a7b3c29755bdc319710ea80c","source":"toiletmap-uk","name":"Middle Meadow Walk Toilets","fee":"no","charge":null,"access":null,"wheelchair":"no","opening_hours":null,"operator":null,"description":"part of council community toilet scheme\n10.00am to 6.00pm","password":null}},{"type":"Feature","geometry":{"type":"Point","coordinates":[-3.2224341,55.901497]},"properties":{"id":"toiletmap/a8d423baafc7508621f10bc7","source":"toiletmap-uk","name":"Morrisons","fee":"no","charge":null,"access":null,"wheelchair":"no","opening_hours":null,"operator":null,"description":"inside supermarket - for public use","password":null}},{"type":"Feature","geometry":{"type":"Point","coordinates":[-3.193274438,55.953179503]},"properties":{"id":"toiletmap/a8e7204a1c9f68bf9bc11ee1","source":"toiletmap-uk","name":"TK Maxx","fee":"no","charge":null,"access":null,"wheelchair":"no","opening_hours":"Mo-Su 09:00-17:00","operator":null,"description":"Disabled toilet","password":null}},{"type":"Feature","geometry":{"type":"Point","coordinates":[-3.1646478,55.9264292]},"properties":{"id":"toiletmap/ad218782ca92d24f942fd2fd","source":"toiletmap-uk","name":"Sainsbury's Toilets","fee":"no","charge":null,"access":null,"wheelchair":"yes","opening_hours":null,"operator":null,"description":"Shop opening times\nMon-Sat 7:30-22:00\nSun 8:00-20:00","password":null}},{"type":"Feature","geometry":{"type":"Point","coordinates":[-3.146673202,55.959954613]},"properties":{"id":"toiletmap/ad98460fb490521aac5e907f","source":"toiletmap-uk","name":"Craigentinny Community Centre Toilets","fee":"no","charge":null,"access":null,"wheelchair":"yes","opening_hours":null,"operator":null,"description":"part of council community toilet scheme\n\nMon-Fri, 8am-9pm. \nSat, 9am-1pm","password":null}},{"type":"Feature","geometry":{"type":"Point","coordinates":[-3.220767617,55.942800783]},"properties":{"id":"toiletmap/adaf1c1e15d6c36a57e1e7f3","source":"toiletmap-uk","name":"CJ's Cafe Toilets","fee":"no","charge":null,"access":null,"wheelchair":"yes","opening_hours":null,"operator":null,"description":"part of council community toilet scheme\n\nMon - Fri: 9am - 4pm, \nSat: 9am - 3pm Sun: 10am - 3pm","password":null}},{"type":"Feature","geometry":{"type":"Point","coordinates":[-3.24798131,55.946399602]},"properties":{"id":"toiletmap/ae175b00b19c660bc5f363f3","source":"toiletmap-uk","name":"Capability Scotland Head Office Toilets","fee":"no","charge":null,"access":null,"wheelchair":"no","opening_hours":null,"operator":null,"description":"part of council community toilet scheme\n\nMon - Fri: 9am - 5pm\n\t\n\nToilet is locked on arrival, ask member of staff at reception","password":null}},{"type":"Feature","geometry":{"type":"Point","coordinates":[-3.173111201,55.939298802]},"properties":{"id":"toiletmap/b5dfc12df156ba17f6a45cb9","source":"toiletmap-uk","name":"Royal Commonwealth Pool","fee":"no","charge":null,"access":null,"wheelchair":"yes","opening_hours":null,"operator":null,"description":"part of council community toilet scheme\n\n5:30am - 10pm Mon - Fri \n5:30am - 8pm Sat \n7:30am - 8pm Sun","password":null}},{"type":"Feature","geometry":{"type":"Point","coordinates":[-3.207787871,55.95893264]},"properties":{"id":"toiletmap/ba4a4f6390f06a0bca746e17","source":"toiletmap-uk","name":"Stockbridge Library Toilets","fee":"no","charge":null,"access":null,"wheelchair":"yes","opening_hours":null,"operator":null,"description":"part of council community toilet scheme\n\nMon & Wed 1-8pm. \nTues, Thurs, Fri & Sat 10am - 5pm","password":null}},{"type":"Feature","geometry":{"type":"Point","coordinates":[-3.23492217,55.927510709]},"properties":{"id":"toiletmap/bda96ef6180fc17b5134b830","source":"toiletmap-uk","name":"Meggetland Sports Complex Toilets","fee":"no","charge":null,"access":null,"wheelchair":"yes","opening_hours":null,"operator":null,"description":"part of council community toilet scheme\n\n8:30am - 10pm Mon - Fri \n8:30am - 6pm Sat & Sun","password":null}},{"type":"Feature","geometry":{"type":"Point","coordinates":[-3.285137415,55.916185383]},"properties":{"id":"toiletmap/c06bcf2450fdfae96d30e955","source":"toiletmap-uk","name":"Wester Hailes Library Toilets","fee":"no","charge":null,"access":null,"wheelchair":"yes","opening_hours":null,"operator":null,"description":"part of council community toilet scheme\n\nMain Library: one male toilet, one female toilet, one toilet with disabled access and baby changing facilities. Upstairs there is one male toilet with disabled access and one female toilet with disabled access and baby changing facilities.\n\nMon, Tue, Wed: 10am-8pm. \nThu, Fri, Sat: 10am-5pm.","password":null}},{"type":"Feature","geometry":{"type":"Point","coordinates":[-3.19742918,55.935182733]},"properties":{"id":"toiletmap/c0c69dfffd8a2ffc8619daa0","source":"toiletmap-uk","name":"Warrender Swim Centre Toilets","fee":"no","charge":null,"access":null,"wheelchair":"yes","opening_hours":null,"operator":null,"description":"part of council community toilet scheme\n\n7am - 10pm Mon - Fri \n8:30am - 5pm Sat \n9am - 6pm Sun \n(closed between 1:30pm - 3:30pm Tues)","password":null}},{"type":"Feature","geometry":{"type":"Point","coordinates":[-3.209648251,55.925456949]},"properties":{"id":"toiletmap/c8339ed7fc31c7c5d6f14dac","source":"toiletmap-uk","name":"The Open Door Toilets","fee":"no","charge":null,"access":null,"wheelchair":"yes","opening_hours":null,"operator":null,"description":"part of council community toilet scheme\n\nMon 11am-4pm \nTues to Fri 10am-4pm \nClosed Sat and Sun","password":null}},{"type":"Feature","geometry":{"type":"Point","coordinates":[-3.19245851,55.948213003]},"properties":{"id":"toiletmap/c8ec398bdc96af026b077f24","source":"toiletmap-uk","name":"Central Library Toilets","fee":"no","charge":null,"access":null,"wheelchair":"yes","opening_hours":null,"operator":null,"description":"part of council community toilet scheme\n\nMon, Tue, Wed: 10am-8pm. \nThu, Fri, Sat: 10am-5pm","password":null}},{"type":"Feature","geometry":{"type":"Point","coordinates":[-3.155048132,55.956017384]},"properties":{"id":"toiletmap/cad457ae096d27f13d4ed5d2","source":"toiletmap-uk","name":"Meadowbank Sports Centre Toilets","fee":"no","charge":null,"access":null,"wheelchair":"yes","opening_hours":null,"operator":null,"description":"part of council community toilet scheme\n\n7:30am - 10pm Mon - Sun","password":null}},{"type":"Feature","geometry":{"type":"Point","coordinates":[-3.287334681,55.954977325]},"properties":{"id":"toiletmap/cc21905a08dfdc1b45559495","source":"toiletmap-uk","name":"Rannoch Community Centre Toilets","fee":"no","charge":null,"access":null,"wheelchair":"yes","opening_hours":null,"operator":null,"description":"part of council community toilet scheme\n\nMon - Fri, 9:30am-4pm, \nthen 6pm-10pm \nSat,9:30am-1:30pm \nSun,11am-2pm","password":null}},{"type":"Feature","geometry":{"type":"Point","coordinates":[-3.200631738,55.963389628]},"properties":{"id":"toiletmap/d060af4ef7f2de9110936545","source":"toiletmap-uk","name":"The Orchard Bar and Restaurant Toilets","fee":"no","charge":null,"access":null,"wheelchair":"no","opening_hours":null,"operator":null,"description":"part of council community toilet scheme\n\nMon - Thurs: 11:30am - 11:30pm \nFri and Sat: 11:30am - 1:30am \nSun: 11:30am - 12:30am","password":null}},{"type":"Feature","geometry":{"type":"Point","coordinates":[-3.293950081,55.955963063]},"properties":{"id":"toiletmap/d9a0ec17bcdef8d9bb2a02c6","source":"toiletmap-uk","name":"Drumbrae Leisure Centre Toilets","fee":"no","charge":null,"access":null,"wheelchair":"yes","opening_hours":null,"operator":null,"description":"part of council community toilet scheme\n\n7am - 10pm Mon - Fri \n9am - 7pm Sat \n9am - 9pm Sun","password":null}},{"type":"Feature","geometry":{"type":"Point","coordinates":[-3.19470942,55.95306087]},"properties":{"id":"toiletmap/db116c0842135b140f2d4393","source":"toiletmap-uk","name":"M&S","fee":"no","charge":null,"access":null,"wheelchair":"no","opening_hours":"Mo-Fr 09:00-17:00","operator":null,"description":"Back entrance, rose street","password":null}},{"type":"Feature","geometry":{"type":"Point","coordinates":[-3.2794113,55.9794554]},"properties":{"id":"toiletmap/de7315b4d215b493464bf799","source":"toiletmap-uk","name":"Silverknowes Esplanade Toilets","fee":"no","charge":null,"access":null,"wheelchair":"no","opening_hours":null,"operator":null,"description":null,"password":null}},{"type":"Feature","geometry":{"type":"Point","coordinates":[-3.142676515,55.909045653]},"properties":{"id":"toiletmap/df132cc10ce5d9423703a4cd","source":"toiletmap-uk","name":"Morrisons supermarket","fee":"yes","charge":null,"access":null,"wheelchair":"no","opening_hours":"Mo-Su 09:00-17:00","operator":null,"description":null,"password":null}},{"type":"Feature","geometry":{"type":"Point","coordinates":[-3.068109155,55.945158152]},"properties":{"id":"toiletmap/df9d3f5b6ace8400923c2b00","source":"toiletmap-uk","name":"Musselburgh Public Toilet","fee":"no","charge":null,"access":null,"wheelchair":"yes","opening_hours":"Mo-Su 09:00-20:30","operator":null,"description":"Toilet located on ground floor as part of suite of public toilets with lowered kerbs and accessible pavement Changing Bench: heigh adjustable, adult sized, free-standing Hoist: Ceiling track hoist Toilet: centrally placed with room either side for carers\n\nAt all times with Radar key access","password":null}},{"type":"Feature","geometry":{"type":"Point","coordinates":[-3.209491611,55.960999837]},"properties":{"id":"toiletmap/e0258f2b60d0b7a408546bb4","source":"toiletmap-uk","name":"Glenogle Swim Centre Toilets","fee":"no","charge":null,"access":null,"wheelchair":"yes","opening_hours":null,"operator":null,"description":"part of council community toilet scheme\n\n7am - 10pm Mon - Fri \n8am - 4pm Sat & Sun","password":null}},{"type":"Feature","geometry":{"type":"Point","coordinates":[-3.142256141,55.955074588]},"properties":{"id":"toiletmap/e08cd00f638970cbdc04b6b7","source":"toiletmap-uk","name":"Piershill Library Toilets","fee":"no","charge":null,"access":null,"wheelchair":"yes","opening_hours":null,"operator":null,"description":"part of council community toilet scheme\n\nMon & Wed: 10am-8pm. \nTues, Thu, Fri, Sat: 10am-5pm","password":null}},{"type":"Feature","geometry":{"type":"Point","coordinates":[-3.230677843,55.975695282]},"properties":{"id":"toiletmap/e10519bc46ae5082ba75f3f0","source":"toiletmap-uk","name":"Royston/Wardieburn Community Centre Toilets","fee":"no","charge":null,"access":null,"wheelchair":"yes","opening_hours":null,"operator":null,"description":"part of council community toilet scheme\n\nMon-Fri, 9am-9pm. \nSat, 10am-12pm","password":null}},{"type":"Feature","geometry":{"type":"Point","coordinates":[-3.1143007,55.9562075]},"properties":{"id":"toiletmap/e11802337f0dcb913f8e12d7","source":"toiletmap-uk","name":"Pipe Lane Toilets","fee":"no","charge":null,"access":null,"wheelchair":"yes","opening_hours":"Mo-Su 10:00-20:00","operator":null,"description":"part of council community toilet scheme\n\n10.00am to 8.00pm (Summer only)\n\n\nDisabled 24hr access (all toilets for the disabled require a RADAR key for access)","password":null}},{"type":"Feature","geometry":{"type":"Point","coordinates":[-3.218555331,55.943044051]},"properties":{"id":"toiletmap/e285fc40b9fb15389e387a20","source":"toiletmap-uk","name":"Orwell Arts Toilets","fee":"no","charge":null,"access":null,"wheelchair":"yes","opening_hours":null,"operator":null,"description":"part of council community toilet scheme\n\nMonday to Friday: 9.00am-5.00pm (5.00pm on Friday) Public Holidays - phone ahead for details\n\n\nToilet is on first floor","password":null}},{"type":"Feature","geometry":{"type":"Point","coordinates":[-3.226857305,55.976701525]},"properties":{"id":"toiletmap/e43022d44811026ed38855aa","source":"toiletmap-uk","name":"Granton Library Toilets","fee":"no","charge":null,"access":null,"wheelchair":"yes","opening_hours":null,"operator":null,"description":"part of council community toilet scheme\n\n\nMon & Wed 1-8pm. \nTues & Fri 10am - 5pm \nSat 10am - 2pm","password":null}},{"type":"Feature","geometry":{"type":"Point","coordinates":[-3.229677916,55.976486667]},"properties":{"id":"toiletmap/e4b870bdff26e2763e108be4","source":"toiletmap-uk","name":"Royston Wardieburn Community Centre Toilets","fee":"no","charge":null,"access":null,"wheelchair":"yes","opening_hours":null,"operator":null,"description":"part of council community toilet scheme\nMonday-Friday: 9.00am-9.00pm \nSat: 10am - 2pm \nSun: 1pm - 5pm\n\nToilet is on the ground level. \nChanging Bench: height adjustable, adult sized, free standing \nHoist: Ceiling track hoist - click system Toilet: Centrally placed toilet with room either side for carers","password":null}},{"type":"Feature","geometry":{"type":"Point","coordinates":[-3.1485976,55.9411936]},"properties":{"id":"toiletmap/eab60eb0878b469c0ddf0ca0","source":"toiletmap-uk","name":null,"fee":"no","charge":null,"access":null,"wheelchair":"no","opening_hours":null,"operator":null,"description":null,"password":null}},{"type":"Feature","geometry":{"type":"Point","coordinates":[-3.20868086,55.96634762]},"properties":{"id":"toiletmap/ebb8d836226d0c2f6d51d75e","source":"toiletmap-uk","name":"Royal Botanic Garden Edinburgh","fee":"no","charge":null,"access":null,"wheelchair":"yes","opening_hours":null,"operator":null,"description":"Open Daily from 10:00 to 16:00, except:\n\nOct and Feb: 10:00 to 17:00\nMar-Sep: 10:00 to 18:00\n\nClosed 25 December and 1 January.\n\nAdmission\nGarden entry FREE","password":null}},{"type":"Feature","geometry":{"type":"Point","coordinates":[-3.245266914,55.977334393]},"properties":{"id":"toiletmap/ec0fdd7f2dfe36f226c72211","source":"toiletmap-uk","name":"Edinburgh College Toilets","fee":"no","charge":null,"access":null,"wheelchair":"yes","opening_hours":null,"operator":null,"description":"part of council community toilet scheme\n\nMonday - Friday 8:30am - 5pm\n\n\nToilet is located on ground floor in Sports Block corridor Changing Bench: Heigh adjustable, adult sized, free standing Hoist: Mobile hoist (loop system) Toilet: centrally placed with room either side for carers","password":null}},{"type":"Feature","geometry":{"type":"Point","coordinates":[-3.184949914,55.950669974]},"properties":{"id":"toiletmap/f2b5b9fe158a070ed3d88d78","source":"toiletmap-uk","name":"Scottish Story Telling Centre","fee":"no","charge":null,"access":null,"wheelchair":"no","opening_hours":"Mo-Su 09:00-17:00","operator":null,"description":"Located downstairs in the basement.","password":null}},{"type":"Feature","geometry":{"type":"Point","coordinates":[-3.19021672,55.950671602]},"properties":{"id":"toiletmap/f3f841a21172c865f78f92d4","source":"toiletmap-uk","name":"Stills Centre for Photography","fee":"no","charge":null,"access":null,"wheelchair":"yes","opening_hours":"Tu-Sa 11:00-17:00","operator":null,"description":null,"password":null}},{"type":"Feature","geometry":{"type":"Point","coordinates":[-3.20990467,55.928913289]},"properties":{"id":"toiletmap/f63a5711ac955a6737c33b03","source":"toiletmap-uk","name":"Morningside Library Toilets","fee":"no","charge":null,"access":null,"wheelchair":"yes","opening_hours":null,"operator":null,"description":"part of council community toilet scheme\n\nMonday - Wednesday: 10am - 8pm Thursday -Saturday: 10am - 5pm","password":null}},{"type":"Feature","geometry":{"type":"Point","coordinates":[-3.212386,55.9646282]},"properties":{"id":"toiletmap/f94058e36f698012e2f13b35","source":"toiletmap-uk","name":"Royal Botanic Garden Edinburgh","fee":"no","charge":null,"access":null,"wheelchair":"no","opening_hours":"Mo-Su 09:00-17:00","operator":null,"description":"Open Daily from 10:00 to 16:00, except:\n\nOct and Feb: 10:00 to 17:00\nMar-Sep: 10:00 to 18:00\n\nClosed 25 December and 1 January.\n\nAdmission\nGarden entry FREE","password":null}},{"type":"Feature","geometry":{"type":"Point","coordinates":[-3.189255953,55.951029079]},"properties":{"id":"toiletmap/fb3a35b415fbaaf4b2b40416","source":"toiletmap-uk","name":"City Art Centre Toilets","fee":"no","charge":null,"access":null,"wheelchair":"no","opening_hours":null,"operator":null,"description":"part of council community toilet scheme\n\nMon - Sat: 10am - 5pm Sun: 12 - 5pm","password":null}},{"type":"Feature","geometry":{"type":"Point","coordinates":[-3.286642671,55.91613934]},"properties":{"id":"toiletmap/fc18acc673ce821cbb0aee6f","source":"toiletmap-uk","name":"South West Neighbourhood Office Toilets","fee":"no","charge":null,"access":null,"wheelchair":"yes","opening_hours":null,"operator":null,"description":"part of council community toilet scheme\n\n\nMonday 8.30am-5pm, \nTuesday 10am - 5pm, \nWednesday 8:30am - 5pm, \nThursday 8:30am - 5pm, \nFriday 8:30am - 3:40pm","password":null}},{"type":"Feature","geometry":{"type":"Point","coordinates":[-3.205472589,55.916188017]},"properties":{"id":"toiletmap/fcd0d0a99f447e02efbdc166","source":"toiletmap-uk","name":"Braid Hills Golf Course Toilets","fee":"no","charge":null,"access":null,"wheelchair":"yes","opening_hours":null,"operator":null,"description":"7am - 7:45pm Mon - Fri \n6:45am - 7:30pm Sat & Sun (Open 1 May - 31 Aug)\n\npart of council community toilet scheme","password":null}},{"type":"Feature","geometry":{"type":"Point","coordinates":[-3.13405931,55.906324178]},"properties":{"id":"toiletmap/fe1d7bba36c40b3b6bf33aba","source":"toiletmap-uk","name":"Gilmerton Community Centre Toilets","fee":"no","charge":null,"access":null,"wheelchair":"yes","opening_hours":null,"operator":null,"description":"part of council community toilet scheme\n\nMon-Thu, 8am-4pm. \nTue, Wed, Thu, 6pm-9pm. \nFri, 8am-3pm","password":null}}]}