{"type":"FeatureCollection","attribution":"Contains data from the Toilet Map © 2025 – CC BY 4.0 (https://www.toiletmap.org.uk/dataset)","generated_at":"2026-08-21T08:59:23.634Z","features":[{"type":"Feature","geometry":{"type":"Point","coordinates":[-2.248587012,53.44952603]},"properties":{"id":"toiletmap/038a95fd95d38b398ab7634f","source":"toiletmap-uk","name":"Alexandra Park - The Pavilion (Bembe Cafe)","fee":"no","charge":null,"access":null,"wheelchair":null,"opening_hours":"Mo-Fr 10:00-16:30; Sa-Su 09:00-17:00","operator":null,"description":"Access inside the building. Hours may vary seasonally.","password":null}},{"type":"Feature","geometry":{"type":"Point","coordinates":[-2.253066301,53.481413454]},"properties":{"id":"toiletmap/06085be24548969685a027ba","source":"toiletmap-uk","name":"People's History Museum","fee":"no","charge":null,"access":null,"wheelchair":"yes","opening_hours":"Mo 10:00-17:00; We-Su 10:00-17:00","operator":null,"description":"Gender toilets are located on the ground floor next to the reception area, which include accessible facilities.\nGender neutral toilets which are also accessible are located in the Engine Hall on the ground floor, on the lower ground floor, and off Main Gallery Two on the second floor of the museum.\nWheelchair accessible baby changing facilities are available in the ground floor toilets and second floor toilet.","password":null}},{"type":"Feature","geometry":{"type":"Point","coordinates":[-2.2537752,53.5371243]},"properties":{"id":"toiletmap/0755f215d087e414668caf80","source":"toiletmap-uk","name":"Heaton Park Main Toilet Block","fee":"no","charge":null,"access":null,"wheelchair":"yes","opening_hours":null,"operator":null,"description":"Spring and summer 08.00-18.00\nAutumn and winter 08.00-16.00","password":null}},{"type":"Feature","geometry":{"type":"Point","coordinates":[-2.295536399,53.470962895]},"properties":{"id":"toiletmap/08460bc9bbc7bfb59c6a9835","source":"toiletmap-uk","name":"The Lowry","fee":"no","charge":null,"access":null,"wheelchair":"yes","opening_hours":null,"operator":null,"description":"Open 7 days a week, most of the day until late evening while The Lowry is open. More details: https://thelowry.com/visit-us/","password":null}},{"type":"Feature","geometry":{"type":"Point","coordinates":[-2.25690186,53.501326039]},"properties":{"id":"toiletmap/08964c8e0dd0a4eb458ad16a","source":"toiletmap-uk","name":"Broughton Hub","fee":"no","charge":null,"access":null,"wheelchair":"no","opening_hours":null,"operator":null,"description":"Monday: 5.00pm to 10.00pm\r\nTuesday to Thursday: 10.00am to 10.00pm\r\nFriday: 10.00am to 7.30pm\r\nSaturday: 10.00am to 2.00pm\r\nSunday: 10.00am to 2.00pm","password":null}},{"type":"Feature","geometry":{"type":"Point","coordinates":[-2.231329679,53.477088344]},"properties":{"id":"toiletmap/0be216744c7dd3294be25c87","source":"toiletmap-uk","name":"Manchester Piccadilly Station, main concourse","fee":"no","charge":null,"access":null,"wheelchair":"yes","opening_hours":null,"operator":null,"description":null,"password":null}},{"type":"Feature","geometry":{"type":"Point","coordinates":[-2.232971191,53.498521352]},"properties":{"id":"toiletmap/0d0660b899ab0c80af30580b","source":"toiletmap-uk","name":"Manchester Fort","fee":"yes","charge":null,"access":null,"wheelchair":"yes","opening_hours":"Mo-Su 09:00-17:00","operator":null,"description":null,"password":null}},{"type":"Feature","geometry":{"type":"Point","coordinates":[-2.210620666,53.42021218]},"properties":{"id":"toiletmap/0e815d33912df2706578a71a","source":"toiletmap-uk","name":"Tesco Burnage","fee":"yes","charge":null,"access":null,"wheelchair":"no","opening_hours":"Mo-Su 09:00-17:00","operator":null,"description":null,"password":null}},{"type":"Feature","geometry":{"type":"Point","coordinates":[-2.156831,53.536674]},"properties":{"id":"toiletmap/1006fac668cb656c87bb5263","source":"toiletmap-uk","name":"Old trafford football club","fee":"no","charge":null,"access":null,"wheelchair":"no","opening_hours":null,"operator":null,"description":null,"password":null}},{"type":"Feature","geometry":{"type":"Point","coordinates":[-2.3471767,53.3880495]},"properties":{"id":"toiletmap/13da888d648b0bfad42aa081","source":"toiletmap-uk","name":"Altrincham Bus Station","fee":"yes","charge":"0.20","access":null,"wheelchair":"yes","opening_hours":"Mo-Su 09:00-17:00","operator":null,"description":"Free for radar key holders and for baby changing cubicle","password":null}},{"type":"Feature","geometry":{"type":"Point","coordinates":[-2.27893889,53.444648691]},"properties":{"id":"toiletmap/167d1b783f43422bbfe66221","source":"toiletmap-uk","name":"Chorlton Library,Manchester Road","fee":"no","charge":null,"access":null,"wheelchair":"yes","opening_hours":"Mo-Fr 09:00-17:00","operator":null,"description":"Library closed on Wednesdays","password":null}},{"type":"Feature","geometry":{"type":"Point","coordinates":[-2.293428183,53.511970735]},"properties":{"id":"toiletmap/17b7b9ce8746e8194ff6b016","source":"toiletmap-uk","name":"Agecroft Cemetery","fee":"no","charge":null,"access":null,"wheelchair":"yes","opening_hours":null,"operator":null,"description":"Two sets of toilets are in the cemetery. One here next to the crematorium and the other a separate building near the main entrance.","password":null}},{"type":"Feature","geometry":{"type":"Point","coordinates":[-2.29003787,53.489890343]},"properties":{"id":"toiletmap/184091ba51b076b9498b96bf","source":"toiletmap-uk","name":"Tesco Extra Salford","fee":"yes","charge":null,"access":null,"wheelchair":"yes","opening_hours":null,"operator":null,"description":"Mon-Sat 6.00-midnight. Sunday: 11.00-17.00","password":null}},{"type":"Feature","geometry":{"type":"Point","coordinates":[-2.160631928,53.408240346]},"properties":{"id":"toiletmap/1b2549150505bb29f864db59","source":"toiletmap-uk","name":"Central Library","fee":"no","charge":null,"access":null,"wheelchair":"no","opening_hours":null,"operator":null,"description":null,"password":null}},{"type":"Feature","geometry":{"type":"Point","coordinates":[-2.188918591,53.373973156]},"properties":{"id":"toiletmap/1b356132737fcf47c0ae479d","source":"toiletmap-uk","name":"Cheadle Hulme Library","fee":"no","charge":null,"access":null,"wheelchair":"no","opening_hours":null,"operator":null,"description":null,"password":null}},{"type":"Feature","geometry":{"type":"Point","coordinates":[-2.292478681,53.447417676]},"properties":{"id":"toiletmap/1cf6ef4884775d37d17b9729","source":"toiletmap-uk","name":"Longford Park","fee":"no","charge":null,"access":null,"wheelchair":"yes","opening_hours":"Mo-Su 10:00-15:00","operator":null,"description":"Open same times as cafe. Located to side of cafe.","password":null}},{"type":"Feature","geometry":{"type":"Point","coordinates":[-2.244193554,53.36480155]},"properties":{"id":"toiletmap/1dabd0e3a03cfa98572894bc","source":"toiletmap-uk","name":"Tatton Arms Accessible Toilet","fee":"no","charge":null,"access":null,"wheelchair":"yes","opening_hours":"Mo-Su 12:00-22:00","operator":null,"description":"3 Toilets, 1 Men’s, 1 Women’s, and 1 Accessible. Just ask the bar staff nicely and they will direct you to them. ","password":null}},{"type":"Feature","geometry":{"type":"Point","coordinates":[-2.239892632,53.483364536]},"properties":{"id":"toiletmap/1e08eb7cf072fc13ebccb5ef","source":"toiletmap-uk","name":"Manchester Arndale upper floor toilets.","fee":"no","charge":null,"access":null,"wheelchair":"yes","opening_hours":null,"operator":null,"description":"Clearly signed on the walkway.","password":null}},{"type":"Feature","geometry":{"type":"Point","coordinates":[-2.241361261,53.483191176]},"properties":{"id":"toiletmap/1e8ce4766d8b09d0109a4b58","source":"toiletmap-uk","name":"Arndale lower ground floor","fee":"no","charge":null,"access":null,"wheelchair":"yes","opening_hours":null,"operator":null,"description":null,"password":null}},{"type":"Feature","geometry":{"type":"Point","coordinates":[-2.198402882,53.502795367]},"properties":{"id":"toiletmap/1f42b450aa820baf521538d8","source":"toiletmap-uk","name":"GMP HQ","fee":"no","charge":null,"access":null,"wheelchair":"yes","opening_hours":"Mo-Fr 09:00-17:00","operator":null,"description":"Police HQ","password":null}},{"type":"Feature","geometry":{"type":"Point","coordinates":[-2.167361174,53.516623099]},"properties":{"id":"toiletmap/1f4e6945e02a093303612374","source":"toiletmap-uk","name":"New Moston Community Library, Nurthurst Road","fee":"no","charge":null,"access":null,"wheelchair":"no","opening_hours":null,"operator":null,"description":null,"password":null}},{"type":"Feature","geometry":{"type":"Point","coordinates":[-2.337958217,53.512037724]},"properties":{"id":"toiletmap/2081d81a2a83b7751e5c2d43","source":"toiletmap-uk","name":"Swinton Precinct","fee":"no","charge":null,"access":null,"wheelchair":"no","opening_hours":null,"operator":null,"description":"Only open when the precinct is.","password":null}},{"type":"Feature","geometry":{"type":"Point","coordinates":[-2.342150509,53.512294516]},"properties":{"id":"toiletmap/2367ab02fbaee93497ad5d20","source":"toiletmap-uk","name":"Swinton Gateway","fee":"no","charge":null,"access":null,"wheelchair":"no","opening_hours":null,"operator":null,"description":"Baby feeding room also available. Mon-Fri 8.30-18.00, Saturday 9.00-13.00. Sunday closed.","password":null}},{"type":"Feature","geometry":{"type":"Point","coordinates":[-2.245116234,53.425191221]},"properties":{"id":"toiletmap/236ce50f0b4bb83f55d6d792","source":"toiletmap-uk","name":"Withington Community Hospital","fee":"no","charge":null,"access":null,"wheelchair":"yes","opening_hours":"Mo-Fr 09:00-17:00","operator":null,"description":null,"password":null}},{"type":"Feature","geometry":{"type":"Point","coordinates":[-2.17214942,53.462357444]},"properties":{"id":"toiletmap/27700fcfe41b5e6a60bd1a67","source":"toiletmap-uk","name":"Gorton Market","fee":"no","charge":null,"access":null,"wheelchair":"yes","opening_hours":null,"operator":null,"description":null,"password":null}},{"type":"Feature","geometry":{"type":"Point","coordinates":[-2.238314152,53.485511189]},"properties":{"id":"toiletmap/2838dc4e1e4acc65943bb299","source":"toiletmap-uk","name":"Shudehill Interchange","fee":"yes","charge":"£0.20","access":null,"wheelchair":"yes","opening_hours":"Mo-Sa 07:15-21:30; Su 07:15-16:00","operator":null,"description":null,"password":null}},{"type":"Feature","geometry":{"type":"Point","coordinates":[-2.158334145,53.510289593]},"properties":{"id":"toiletmap/2862a330dd40023f13ec6307","source":"toiletmap-uk","name":"Failsworth  Library, Failsworth Town Hall, Oldham Road","fee":"no","charge":null,"access":null,"wheelchair":"no","opening_hours":"Mo-Th 09:00-19:00","operator":null,"description":null,"password":null}},{"type":"Feature","geometry":{"type":"Point","coordinates":[-2.331579924,53.414069416]},"properties":{"id":"toiletmap/28b013be68628e25ad870041","source":"toiletmap-uk","name":"Walton Park","fee":"no","charge":null,"access":null,"wheelchair":null,"opening_hours":"Mo-Fr 09:00-16:30; Sa-Su 09:00-16:00","operator":null,"description":null,"password":null}},{"type":"Feature","geometry":{"type":"Point","coordinates":[-2.3104506,53.4660325]},"properties":{"id":"toiletmap/29fea6fbe8ebf4d07317bc89","source":"toiletmap-uk","name":null,"fee":"no","charge":null,"access":null,"wheelchair":"no","opening_hours":null,"operator":null,"description":null,"password":null}},{"type":"Feature","geometry":{"type":"Point","coordinates":[-2.323426008,53.42464867]},"properties":{"id":"toiletmap/2a16bbae3a5369aeb7522287","source":"toiletmap-uk","name":"6 Acre Centre","fee":"no","charge":null,"access":null,"wheelchair":null,"opening_hours":null,"operator":null,"description":"The toilets are very rarely open on Saturdays.","password":null}},{"type":"Feature","geometry":{"type":"Point","coordinates":[-2.347163558,53.518155649]},"properties":{"id":"toiletmap/2afd844ef781da77a1daf0ed","source":"toiletmap-uk","name":"Swinton Cemetery","fee":"yes","charge":null,"access":null,"wheelchair":"no","opening_hours":null,"operator":null,"description":null,"password":null}},{"type":"Feature","geometry":{"type":"Point","coordinates":[-2.319499254,53.425140101]},"properties":{"id":"toiletmap/2c9aadccf8d3c9109f15c042","source":"toiletmap-uk","name":"Waterside Arts Centre","fee":"no","charge":null,"access":null,"wheelchair":null,"opening_hours":"Mo-Sa 10:00-17:00","operator":null,"description":"Ladies through double doors in foyer, gents beyond bar","password":null}},{"type":"Feature","geometry":{"type":"Point","coordinates":[-2.28681922,53.489775444]},"properties":{"id":"toiletmap/2cee6488d2692a7fee8cb9ef","source":"toiletmap-uk","name":"Salford Shopping Centre","fee":"yes","charge":null,"access":null,"wheelchair":"no","opening_hours":null,"operator":null,"description":"Located by Post Office on Rossall Way","password":null}},{"type":"Feature","geometry":{"type":"Point","coordinates":[-2.244732678,53.478756446]},"properties":{"id":"toiletmap/2d889baeb019004532dc4507","source":"toiletmap-uk","name":"Town Hall Extension Toilet","fee":"yes","charge":null,"access":null,"wheelchair":"no","opening_hours":null,"operator":null,"description":"Very clean well looked after facilities.","password":null}},{"type":"Feature","geometry":{"type":"Point","coordinates":[-2.2321536,53.3698874]},"properties":{"id":"toiletmap/2ded74f87edd0b3d06906278","source":"toiletmap-uk","name":"Cafe Unity","fee":"no","charge":null,"access":null,"wheelchair":"no","opening_hours":null,"operator":null,"description":"This toilet is at the rear of the cafe. Unity Cafe is a community cafe. The cafe along with the toilet does close at 15.00 hours each day.","password":null}},{"type":"Feature","geometry":{"type":"Point","coordinates":[-2.170436287,53.413270597]},"properties":{"id":"toiletmap/2e6cad7b8425112d50fc9d11","source":"toiletmap-uk","name":"B&q","fee":"no","charge":null,"access":null,"wheelchair":"yes","opening_hours":"Mo-Su 09:00-17:00","operator":null,"description":null,"password":null}},{"type":"Feature","geometry":{"type":"Point","coordinates":[-2.28474319,53.488412589]},"properties":{"id":"toiletmap/2e79ddf0d5a6817690ea9f15","source":"toiletmap-uk","name":"Pendleton Gateway","fee":"yes","charge":null,"access":null,"wheelchair":"yes","opening_hours":null,"operator":null,"description":"Baby feeding room, family toilet. Mon-Thurs 8.00-22.00, Fri 8.00-19.30, Sat 9.00-13.00","password":null}},{"type":"Feature","geometry":{"type":"Point","coordinates":[-2.154869556,53.536027864]},"properties":{"id":"toiletmap/304fcff75bca2442819f6852","source":"toiletmap-uk","name":"Foxdenton Park, Foxdenton Lane","fee":"yes","charge":null,"access":null,"wheelchair":"no","opening_hours":null,"operator":null,"description":null,"password":null}},{"type":"Feature","geometry":{"type":"Point","coordinates":[-2.153536752,53.416339443]},"properties":{"id":"toiletmap/3135d0f160c96ec4f15293dd","source":"toiletmap-uk","name":"Tesco","fee":"no","charge":null,"access":null,"wheelchair":"yes","opening_hours":"Mo-Su 00:00-00:00","operator":null,"description":null,"password":null}},{"type":"Feature","geometry":{"type":"Point","coordinates":[-2.228660204,53.369981837]},"properties":{"id":"toiletmap/32a2c832434b657a17a6ed05","source":"toiletmap-uk","name":"Heald Green Library","fee":"no","charge":null,"access":null,"wheelchair":"no","opening_hours":null,"operator":null,"description":null,"password":null}},{"type":"Feature","geometry":{"type":"Point","coordinates":[-2.219420671,53.411917651]},"properties":{"id":"toiletmap/3559cd223c07b6fe38f61323","source":"toiletmap-uk","name":"Tesco East Didsbury","fee":"no","charge":null,"access":null,"wheelchair":"yes","opening_hours":"Mo-Sa 06:00-00:00; Su 11:00-17:00","operator":null,"description":null,"password":null}},{"type":"Feature","geometry":{"type":"Point","coordinates":[-2.34723866,53.385881614]},"properties":{"id":"toiletmap/39346cac40a498a18272a251","source":"toiletmap-uk","name":"Tesco","fee":"no","charge":null,"access":null,"wheelchair":null,"opening_hours":null,"operator":null,"description":"Adjacent to Cafe  customer toilets. open during store hours","password":null}},{"type":"Feature","geometry":{"type":"Point","coordinates":[-2.309751939,53.446107602]},"properties":{"id":"toiletmap/3bf36437ebd85dba51a6d0e8","source":"toiletmap-uk","name":"Stretford Mall Toilets","fee":"yes","charge":null,"access":null,"wheelchair":"no","opening_hours":null,"operator":null,"description":null,"password":null}},{"type":"Feature","geometry":{"type":"Point","coordinates":[-2.1590299,53.4397073]},"properties":{"id":"toiletmap/3caf5dda8949e4f40b604ee7","source":"toiletmap-uk","name":"Sykes Cafe","fee":"no","charge":null,"access":null,"wheelchair":"no","opening_hours":null,"operator":null,"description":"Tu-Sa 09:00-16:00","password":null}},{"type":"Feature","geometry":{"type":"Point","coordinates":[-2.255142331,53.482884117]},"properties":{"id":"toiletmap/3d6485cb7a36dc7be167107f","source":"toiletmap-uk","name":"Salford Central Station","fee":"yes","charge":null,"access":null,"wheelchair":"yes","opening_hours":null,"operator":null,"description":"Accessible toilet only.","password":null}},{"type":"Feature","geometry":{"type":"Point","coordinates":[-2.235745288,53.512391091]},"properties":{"id":"toiletmap/41de04ea6f059e73ed0f2e81","source":"toiletmap-uk","name":"Abraham Moss Library, Crescent Road, Abraham Moss Centre","fee":"no","charge":null,"access":null,"wheelchair":"no","opening_hours":null,"operator":null,"description":null,"password":null}},{"type":"Feature","geometry":{"type":"Point","coordinates":[-2.242522886,53.473996643]},"properties":{"id":"toiletmap/44dceb19cb854d9c24a9cd7e","source":"toiletmap-uk","name":"Manchester Oxford Road","fee":"no","charge":null,"access":null,"wheelchair":"no","opening_hours":null,"operator":null,"description":null,"password":null}},{"type":"Feature","geometry":{"type":"Point","coordinates":[-2.159982557,53.410632753]},"properties":{"id":"toiletmap/4555ee107d48890b55fa0c61","source":"toiletmap-uk","name":"Merseyway","fee":"no","charge":null,"access":null,"wheelchair":"yes","opening_hours":"Mo-Su 09:00-17:00","operator":null,"description":null,"password":null}},{"type":"Feature","geometry":{"type":"Point","coordinates":[-2.21492,53.43795]},"properties":{"id":"toiletmap/49195428d50d3ef9df470246","source":"toiletmap-uk","name":"Ladybarn Community Hub","fee":"no","charge":null,"access":null,"wheelchair":"yes","opening_hours":"Mo-Fr 10:00-16:00","operator":null,"description":null,"password":null}},{"type":"Feature","geometry":{"type":"Point","coordinates":[-2.213014912,53.394073276]},"properties":{"id":"toiletmap/4a67902fb25c15fac9f5349b","source":"toiletmap-uk","name":"Cheadle Library","fee":"no","charge":null,"access":null,"wheelchair":"no","opening_hours":null,"operator":null,"description":null,"password":null}},{"type":"Feature","geometry":{"type":"Point","coordinates":[-2.234229147,53.466363038]},"properties":{"id":"toiletmap/4abfb2cecf65fc13c2ea1c8d","source":"toiletmap-uk","name":"Manchester Museum","fee":"no","charge":null,"access":null,"wheelchair":"yes","opening_hours":"Tu 10:00-17:00; We 10:00-21:00; Th-Fr 10:00-17:00; Sa 08:00-17:00; Su 10:00-17:00","operator":null,"description":"Open 10am-5pm every Monday in August\n","password":null}},{"type":"Feature","geometry":{"type":"Point","coordinates":[-2.155401707,53.392275255]},"properties":{"id":"toiletmap/4bb595120343a787f98900aa","source":"toiletmap-uk","name":"Cale Green Park","fee":"no","charge":null,"access":null,"wheelchair":"no","opening_hours":"Mo-Fr 09:00-16:00","operator":null,"description":null,"password":null}},{"type":"Feature","geometry":{"type":"Point","coordinates":[-2.336474977,53.484290429]},"properties":{"id":"toiletmap/4c44d048d375a00a3999d910","source":"toiletmap-uk","name":"Public Toilet - Eccles Precinct","fee":"no","charge":null,"access":null,"wheelchair":"no","opening_hours":null,"operator":null,"description":"Have been closed for some time, when asked about reopening the staff at the precinct dont know??","password":null}},{"type":"Feature","geometry":{"type":"Point","coordinates":[-2.305508852,53.474861446]},"properties":{"id":"toiletmap/4f88e049cbe1cc88e43afcc9","source":"toiletmap-uk","name":"Salford Broadway","fee":"yes","charge":null,"access":null,"wheelchair":"no","opening_hours":null,"operator":null,"description":"Exact location unclear","password":null}},{"type":"Feature","geometry":{"type":"Point","coordinates":[-2.189723253,53.376229347]},"properties":{"id":"toiletmap/503c84142b53ee3c7414cf2b","source":"toiletmap-uk","name":"Waitrose","fee":"no","charge":null,"access":null,"wheelchair":"no","opening_hours":"Mo-Sa 08:30-20:00","operator":null,"description":null,"password":null}},{"type":"Feature","geometry":{"type":"Point","coordinates":[-2.29967773,53.431152286]},"properties":{"id":"toiletmap/51634c13cba1892230ee8874","source":"toiletmap-uk","name":"Sale Water Park","fee":"yes","charge":"No","access":null,"wheelchair":"yes","opening_hours":"Mo-Su 09:00-18:00","operator":null,"description":null,"password":null}},{"type":"Feature","geometry":{"type":"Point","coordinates":[-2.246623635,53.473605072]},"properties":{"id":"toiletmap/5318d4c1793c0ccca9a6d29e","source":"toiletmap-uk","name":"HOME","fee":"no","charge":null,"access":null,"wheelchair":"yes","opening_hours":"Mo-Sa 10:00-23:00; Su 11:00-23:00","operator":null,"description":"Toilets on ground floor straight through the doors to the left of reception.\n\nGender neutral toilets are located on ground floor past the bar area. Toilets on first and second floors also.","password":null}},{"type":"Feature","geometry":{"type":"Point","coordinates":[-2.214176418,53.394790284]},"properties":{"id":"toiletmap/533b99c519656a07949c62e6","source":"toiletmap-uk","name":"The Star Inn","fee":"no","charge":null,"access":null,"wheelchair":"no","opening_hours":"Mo-Su 11:00-23:00","operator":null,"description":null,"password":null}},{"type":"Feature","geometry":{"type":"Point","coordinates":[-2.22632053,53.436016349]},"properties":{"id":"toiletmap/5a45b1160738bbcdd0246512","source":"toiletmap-uk","name":"Withington Library, 410 Wilmslow Road","fee":"no","charge":null,"access":null,"wheelchair":"no","opening_hours":null,"operator":null,"description":null,"password":null}},{"type":"Feature","geometry":{"type":"Point","coordinates":[-2.163453687,53.402690575]},"properties":{"id":"toiletmap/5bf7ebf290f2a9c8300f2947","source":"toiletmap-uk","name":"The Jolly Crofter","fee":"no","charge":null,"access":null,"wheelchair":"no","opening_hours":"Mo-Su 13:00-23:00","operator":null,"description":null,"password":null}},{"type":"Feature","geometry":{"type":"Point","coordinates":[-2.296636105,53.400404687]},"properties":{"id":"toiletmap/5cf7f179d2d9ceeccdec9e31","source":"toiletmap-uk","name":"Tesco","fee":"yes","charge":null,"access":null,"wheelchair":"yes","opening_hours":"Mo-Su 00:00-00:00","operator":null,"description":null,"password":null}},{"type":"Feature","geometry":{"type":"Point","coordinates":[-2.289329767,53.461341105]},"properties":{"id":"toiletmap/5d8b3bccd4029c3380eb7932","source":"toiletmap-uk","name":"Old Trafford Public Toilet","fee":"no","charge":null,"access":null,"wheelchair":"no","opening_hours":null,"operator":null,"description":"These toilets are permenently closed","password":null}},{"type":"Feature","geometry":{"type":"Point","coordinates":[-2.22899884,53.46035102]},"properties":{"id":"toiletmap/5f15f531c50c5abf04800a38","source":"toiletmap-uk","name":"Whitworth Art Gallery","fee":"no","charge":null,"access":null,"wheelchair":"yes","opening_hours":"Tu-We 10:00-17:00; Th 10:00-21:00; Fr-Su 10:00-17:00","operator":null,"description":"Gendered toilets in the Shop\nGender-neutral toilets at the Parkside entrance, lower ground floor\nGender-neutral toilets on the lower ground floor - downstairs on the Oxford Road side, lift available\n4 baby changing areas\nA family room - downstairs on the Oxford Road side, lift available","password":null}},{"type":"Feature","geometry":{"type":"Point","coordinates":[-2.334616184,53.482734051]},"properties":{"id":"toiletmap/6278b0b7d4f1744cba2c32ce","source":"toiletmap-uk","name":"Morrisons","fee":"no","charge":null,"access":null,"wheelchair":"yes","opening_hours":"Mo-Sa 07:00-22:00; Su 10:00-16:00","operator":null,"description":null,"password":null}},{"type":"Feature","geometry":{"type":"Point","coordinates":[-2.235369086,53.393821934]},"properties":{"id":"toiletmap/62f2db761a9e947bd8fbb592","source":"toiletmap-uk","name":"Gatley medical centre","fee":"yes","charge":"Free","access":null,"wheelchair":"yes","opening_hours":"Mo-Fr 09:00-17:00","operator":null,"description":null,"password":null}},{"type":"Feature","geometry":{"type":"Point","coordinates":[-2.237702608,53.480394155]},"properties":{"id":"toiletmap/62f5b3b2e748f0a0e06c1150","source":"toiletmap-uk","name":"Manchester Piccadilly Gardens (Automatic Public Toilet)","fee":"yes","charge":"10p","access":null,"wheelchair":"yes","opening_hours":"Mo-Su 00:00-00:00","operator":null,"description":null,"password":null}},{"type":"Feature","geometry":{"type":"Point","coordinates":[-2.21648097,53.375827722]},"properties":{"id":"toiletmap/6599ab237e844fb14d9cb580","source":"toiletmap-uk","name":"Sainsbury's Cheadle Royal","fee":"no","charge":null,"access":null,"wheelchair":"yes","opening_hours":null,"operator":null,"description":"Customer toilets located at back of cafe. Opening times as per store hours.","password":null}},{"type":"Feature","geometry":{"type":"Point","coordinates":[-2.169046825,53.411608935]},"properties":{"id":"toiletmap/67eba27d9bf9d35f626d6426","source":"toiletmap-uk","name":null,"fee":"no","charge":null,"access":null,"wheelchair":"no","opening_hours":"Mo-Su 09:00-17:00","operator":null,"description":null,"password":null}},{"type":"Feature","geometry":{"type":"Point","coordinates":[-2.16598611,53.357807014]},"properties":{"id":"toiletmap/69c673abde7b018a9c93a50c","source":"toiletmap-uk","name":"Napa Lounge","fee":"no","charge":null,"access":null,"wheelchair":"no","opening_hours":null,"operator":null,"description":null,"password":null}},{"type":"Feature","geometry":{"type":"Point","coordinates":[-2.1508662,53.5123075]},"properties":{"id":"toiletmap/6aad9fa997d05c79f006f303","source":"toiletmap-uk","name":"Higher Memorial Park, Joseph Street","fee":"yes","charge":null,"access":null,"wheelchair":"no","opening_hours":"Mo-Fr 07:30-16:00","operator":null,"description":null,"password":null}},{"type":"Feature","geometry":{"type":"Point","coordinates":[-2.25559026,53.53602908]},"properties":{"id":"toiletmap/6e404e8fd87ce98f696a998a","source":"toiletmap-uk","name":"Heaton Park Stable Block","fee":"no","charge":null,"access":null,"wheelchair":null,"opening_hours":null,"operator":null,"description":null,"password":null}},{"type":"Feature","geometry":{"type":"Point","coordinates":[-2.261182666,53.427956032]},"properties":{"id":"toiletmap/7278fb9c6863da19cde617fb","source":"toiletmap-uk","name":"Southern Cemetery","fee":"no","charge":null,"access":null,"wheelchair":"yes","opening_hours":null,"operator":null,"description":null,"password":null}},{"type":"Feature","geometry":{"type":"Point","coordinates":[-2.212667859,53.514259028]},"properties":{"id":"toiletmap/7291a6ac5ffada74b6093fde","source":"toiletmap-uk","name":"New City Library, Rochdale Road","fee":"no","charge":null,"access":null,"wheelchair":"no","opening_hours":null,"operator":null,"description":null,"password":null}},{"type":"Feature","geometry":{"type":"Point","coordinates":[-2.201036243,53.548246224]},"properties":{"id":"toiletmap/7379f7088d89abacb77d4d48","source":"toiletmap-uk","name":null,"fee":"no","charge":null,"access":null,"wheelchair":"no","opening_hours":"Mo-Sa 09:00-17:30","operator":null,"description":null,"password":null}},{"type":"Feature","geometry":{"type":"Point","coordinates":[-2.155979785,53.412352063]},"properties":{"id":"toiletmap/77629bf2ca5226051d28cd5e","source":"toiletmap-uk","name":"Asda","fee":"no","charge":null,"access":null,"wheelchair":"yes","opening_hours":"Mo-Su 09:00-17:00","operator":null,"description":null,"password":null}},{"type":"Feature","geometry":{"type":"Point","coordinates":[-2.260884941,53.50724771]},"properties":{"id":"toiletmap/7893c1fcf290d1360505bb26","source":"toiletmap-uk","name":"Newbury Green Medical Centre","fee":"no","charge":null,"access":null,"wheelchair":"yes","opening_hours":null,"operator":null,"description":null,"password":null}},{"type":"Feature","geometry":{"type":"Point","coordinates":[-2.244564442,53.477956649]},"properties":{"id":"toiletmap/794da07608987d4850042c4e","source":"toiletmap-uk","name":"Central Library, St Peters Square","fee":"no","charge":null,"access":null,"wheelchair":"no","opening_hours":null,"operator":null,"description":null,"password":null}},{"type":"Feature","geometry":{"type":"Point","coordinates":[-2.163180113,53.360249422]},"properties":{"id":"toiletmap/79b165442b0572baa103634a","source":"toiletmap-uk","name":"Bramhall Library","fee":"no","charge":null,"access":null,"wheelchair":"no","opening_hours":null,"operator":null,"description":null,"password":null}},{"type":"Feature","geometry":{"type":"Point","coordinates":[-2.238139808,53.391344309]},"properties":{"id":"toiletmap/7a25e6b0d5a45d20df3b6f01","source":"toiletmap-uk","name":"Coffee fix","fee":"no","charge":null,"access":null,"wheelchair":"no","opening_hours":null,"operator":null,"description":null,"password":null}},{"type":"Feature","geometry":{"type":"Point","coordinates":[-2.275312543,53.485528745]},"properties":{"id":"toiletmap/7b3619420c21f318312dd85c","source":"toiletmap-uk","name":"Salford Crescent","fee":"no","charge":null,"access":null,"wheelchair":"no","opening_hours":null,"operator":null,"description":"The toilets are located in the Booking Hall. The National key toilets are operated by a RADAR key. A key is available from the Booking Office and Supervisor's Office upon request.\r\nhttp://www.nationalrail.co.uk/stations_destinations/SLD.aspx","password":null}},{"type":"Feature","geometry":{"type":"Point","coordinates":[-2.323361635,53.424669912]},"properties":{"id":"toiletmap/7dac9246654ad1e7e3fb468f","source":"toiletmap-uk","name":"6 Acre Centre","fee":"no","charge":null,"access":null,"wheelchair":null,"opening_hours":null,"operator":null,"description":"These toilets are rarely open on Saturdays.","password":null}},{"type":"Feature","geometry":{"type":"Point","coordinates":[-2.257127166,53.53088298]},"properties":{"id":"toiletmap/7f512c52b406fbd452a1c34d","source":"toiletmap-uk","name":"Heaton Park Lakeside","fee":"no","charge":null,"access":null,"wheelchair":"yes","opening_hours":null,"operator":null,"description":"Male and Female toilets in the cafe building. Changing Places toilet at the end of the adjacent boathouse building.","password":null}},{"type":"Feature","geometry":{"type":"Point","coordinates":[-2.231104374,53.477319807]},"properties":{"id":"toiletmap/7fcf80c3010eea60a98cf970","source":"toiletmap-uk","name":"Piccadilly railway station","fee":"yes","charge":null,"access":null,"wheelchair":"yes","opening_hours":"Mo-Su 00:00-00:00","operator":null,"description":"Free at last, whooo","password":null}},{"type":"Feature","geometry":{"type":"Point","coordinates":[-2.24229455,53.486917271]},"properties":{"id":"toiletmap/826b198b842c32420fa64350","source":"toiletmap-uk","name":"Manchester Victoria (next to Costa)","fee":"no","charge":null,"access":null,"wheelchair":"yes","opening_hours":null,"operator":null,"description":"Baby changing is in the disabled toilet","password":null}},{"type":"Feature","geometry":{"type":"Point","coordinates":[-2.27948606,53.404687088]},"properties":{"id":"toiletmap/83607394094775c0093d2026","source":"toiletmap-uk","name":"Wythenshawe Park Courtyard Cafe","fee":"no","charge":null,"access":null,"wheelchair":"yes","opening_hours":null,"operator":null,"description":"Open daily when Cafe is open","password":null}},{"type":"Feature","geometry":{"type":"Point","coordinates":[-2.319252491,53.387388533]},"properties":{"id":"toiletmap/85756191ada214e2bcc6a5be","source":"toiletmap-uk","name":"Thorley Lane Car Park (Healthmatic Automatic Public Toilet) (NOT IN USE)","fee":"yes","charge":"20p OR RADAR Key","access":null,"wheelchair":"yes","opening_hours":"Mo-Su 00:00-00:00","operator":null,"description":null,"password":null}},{"type":"Feature","geometry":{"type":"Point","coordinates":[-2.158218026,53.441667612]},"properties":{"id":"toiletmap/85db28048df36b73a9998a84","source":"toiletmap-uk","name":"Reddish Library","fee":"no","charge":null,"access":null,"wheelchair":"no","opening_hours":null,"operator":null,"description":null,"password":null}},{"type":"Feature","geometry":{"type":"Point","coordinates":[-2.239880562,53.472996117]},"properties":{"id":"toiletmap/88a7e583527613125f3a2ed0","source":"toiletmap-uk","name":"Cafe Nero","fee":"no","charge":null,"access":null,"wheelchair":"yes","opening_hours":null,"operator":null,"description":"5123 code","password":null}},{"type":"Feature","geometry":{"type":"Point","coordinates":[-2.196695584,53.477973138]},"properties":{"id":"toiletmap/8b54f9125e993b523ca7c090","source":"toiletmap-uk","name":"Beswick Library, 60 Grey Mare Lane","fee":"no","charge":null,"access":null,"wheelchair":"no","opening_hours":null,"operator":null,"description":null,"password":null}},{"type":"Feature","geometry":{"type":"Point","coordinates":[-2.3455066,53.4642604]},"properties":{"id":"toiletmap/8ba6190df30df4e508ad27d8","source":"toiletmap-uk","name":"Peel Avenue toilets","fee":"no","charge":null,"access":null,"wheelchair":"no","opening_hours":null,"operator":null,"description":null,"password":null}},{"type":"Feature","geometry":{"type":"Point","coordinates":[-2.17279315,53.40049584]},"properties":{"id":"toiletmap/90a4fed5891244b9936e19bb","source":"toiletmap-uk","name":"Alexandra Park","fee":"no","charge":null,"access":null,"wheelchair":"no","opening_hours":"Mo-Fr 09:00-16:00","operator":null,"description":null,"password":null}},{"type":"Feature","geometry":{"type":"Point","coordinates":[-2.173833847,53.461855302]},"properties":{"id":"toiletmap/94480f03ce4a4673dfbb758f","source":"toiletmap-uk","name":"Tesco","fee":"no","charge":null,"access":null,"wheelchair":"no","opening_hours":null,"operator":null,"description":null,"password":null}},{"type":"Feature","geometry":{"type":"Point","coordinates":[-2.313745916,53.369044468]},"properties":{"id":"toiletmap/964da8fafac9b8965c246881","source":"toiletmap-uk","name":"Asda","fee":"no","charge":null,"access":null,"wheelchair":"yes","opening_hours":"Mo-Sa 08:00-18:00; Su 10:00-16:00","operator":null,"description":"Through cafe","password":null}},{"type":"Feature","geometry":{"type":"Point","coordinates":[-2.189186203,53.401284893]},"properties":{"id":"toiletmap/9815454600276cc9cd6947e2","source":"toiletmap-uk","name":"Morrisons ","fee":"no","charge":null,"access":null,"wheelchair":"yes","opening_hours":null,"operator":null,"description":null,"password":null}},{"type":"Feature","geometry":{"type":"Point","coordinates":[-2.323737144,53.487247584]},"properties":{"id":"toiletmap/98e6edf744cc55e9a7d61833","source":"toiletmap-uk","name":"Salford Royal NHS Foundation Trust","fee":"yes","charge":null,"access":null,"wheelchair":"yes","opening_hours":"Mo-Su 00:00-00:00","operator":null,"description":null,"password":null}},{"type":"Feature","geometry":{"type":"Point","coordinates":[-2.217543125,53.440531679]},"properties":{"id":"toiletmap/993ec688740ad438e691c93a","source":"toiletmap-uk","name":"Sainsbury's","fee":"no","charge":null,"access":null,"wheelchair":"no","opening_hours":null,"operator":null,"description":null,"password":null}},{"type":"Feature","geometry":{"type":"Point","coordinates":[-2.239743769,53.482364155]},"properties":{"id":"toiletmap/9955fcc3d228ad1ebc668cd1","source":"toiletmap-uk","name":"Tim Hortons Market Street","fee":"no","charge":null,"access":null,"wheelchair":"yes","opening_hours":"Mo-Su 06:00-23:00","operator":null,"description":"Requires a code, can get by asking staff.","password":null}},{"type":"Feature","geometry":{"type":"Point","coordinates":[-2.232172686,53.418863976]},"properties":{"id":"toiletmap/9a7fb70f02d9057c7fb15718","source":"toiletmap-uk","name":"Didsbury Library, 692 Wilmslow Road","fee":"no","charge":null,"access":null,"wheelchair":"yes","opening_hours":"Mo-Tu 09:00-20:00; Th-Sa 09:00-17:00","operator":null,"description":"A single disabled toilet for all users- to the right of the entrance (key at the Counter)","password":null}},{"type":"Feature","geometry":{"type":"Point","coordinates":[-2.160032927,53.529618021]},"properties":{"id":"toiletmap/9c534615777121e4c07aa0d8","source":"toiletmap-uk","name":"Costco Wholesale","fee":"yes","charge":null,"access":null,"wheelchair":"yes","opening_hours":"Mo-Su 09:00-17:00","operator":null,"description":null,"password":null}},{"type":"Feature","geometry":{"type":"Point","coordinates":[-2.161195278,53.43700706]},"properties":{"id":"toiletmap/9d3b0f3ce96f28310034e296","source":"toiletmap-uk","name":"The Corner Cafe","fee":"no","charge":null,"access":null,"wheelchair":"no","opening_hours":"Mo-Fr 07:30-15:00","operator":null,"description":null,"password":null}},{"type":"Feature","geometry":{"type":"Point","coordinates":[-2.267467082,53.476706679]},"properties":{"id":"toiletmap/9e960d3fb28659d15192cbe1","source":"toiletmap-uk","name":"Sainsbury’s","fee":"no","charge":null,"access":null,"wheelchair":"yes","opening_hours":"Mo-Fr 07:00-23:00; Sa 07:00-22:00; Su 11:00-17:00","operator":null,"description":"All the way to the left","password":null}},{"type":"Feature","geometry":{"type":"Point","coordinates":[-2.323144963,53.425905133]},"properties":{"id":"toiletmap/9fadd7bc63a8bb1ac812df90","source":"toiletmap-uk","name":"Sainsbury's","fee":"no","charge":null,"access":null,"wheelchair":"yes","opening_hours":"Mo-Sa 07:00-22:00; Su 10:00-16:00","operator":null,"description":null,"password":null}},{"type":"Feature","geometry":{"type":"Point","coordinates":[-2.237474306,53.44678091]},"properties":{"id":"toiletmap/a519f837cad822de0617dd9b","source":"toiletmap-uk","name":"Fallowfield Library, Platt Lane","fee":"no","charge":null,"access":null,"wheelchair":"no","opening_hours":null,"operator":null,"description":null,"password":null}},{"type":"Feature","geometry":{"type":"Point","coordinates":[-2.293846607,53.510276823]},"properties":{"id":"toiletmap/a52884dcfdcf7581a780a09a","source":"toiletmap-uk","name":"Agecroft Cemetery entrance.","fee":"no","charge":null,"access":null,"wheelchair":"no","opening_hours":"Mo-Su 08:00-18:00","operator":null,"description":"opening times\n8am to 8pm, between April and September\n8am to 6pm, between October and March","password":null}},{"type":"Feature","geometry":{"type":"Point","coordinates":[-2.157089354,53.40619567]},"properties":{"id":"toiletmap/a564b95aeb62ef894f10b7da","source":"toiletmap-uk","name":"Fred Perry House","fee":"no","charge":null,"access":null,"wheelchair":"no","opening_hours":"Mo-Fr 08:30-17:00","operator":null,"description":null,"password":null}},{"type":"Feature","geometry":{"type":"Point","coordinates":[-2.271823883,53.485045533]},"properties":{"id":"toiletmap/a599849dcd5b573930b1d5f6","source":"toiletmap-uk","name":"Salford Museum and Art Gallery.","fee":"no","charge":null,"access":null,"wheelchair":"yes","opening_hours":"Tu-Su 11:30-16:00","operator":null,"description":"The Museum does NOT open on a monday. Toilets are on the ground floor near the recreated street (Lark Hill Place).","password":null}},{"type":"Feature","geometry":{"type":"Point","coordinates":[-2.324244082,53.424139558]},"properties":{"id":"toiletmap/a6639f0761d54b309a2a8248","source":"toiletmap-uk","name":"Tesco","fee":"no","charge":null,"access":null,"wheelchair":"yes","opening_hours":"Mo-Su 09:00-17:00","operator":null,"description":"Customer toilets. Free. opening times as per store opening times","password":null}},{"type":"Feature","geometry":{"type":"Point","coordinates":[-2.278123498,53.445774929]},"properties":{"id":"toiletmap/aa6579f7b0a5eac8c0cd8b75","source":"toiletmap-uk","name":"Barbakan Deli","fee":"yes","charge":"Free","access":null,"wheelchair":"no","opening_hours":"Mo-Su 09:00-18:00","operator":null,"description":"Closed Sundays","password":null}},{"type":"Feature","geometry":{"type":"Point","coordinates":[-2.159848809,53.438034438]},"properties":{"id":"toiletmap/ad888cfa49e1ccc1a44b0ac4","source":"toiletmap-uk","name":"Johnny's Diner","fee":"no","charge":null,"access":null,"wheelchair":"no","opening_hours":"Mo-Su 07:00-17:00","operator":null,"description":null,"password":null}},{"type":"Feature","geometry":{"type":"Point","coordinates":[-2.274014354,53.442496776]},"properties":{"id":"toiletmap/af5ccca4b21f37fe1129b336","source":"toiletmap-uk","name":"Morrison’s","fee":"yes","charge":"Free","access":null,"wheelchair":"yes","opening_hours":"Mo-Su 09:00-17:00","operator":null,"description":null,"password":null}},{"type":"Feature","geometry":{"type":"Point","coordinates":[-2.241339684,53.484113084]},"properties":{"id":"toiletmap/b007b5f29be3060c209f2a13","source":"toiletmap-uk","name":"Manchester Arndale","fee":"yes","charge":null,"access":null,"wheelchair":"yes","opening_hours":"Mo-Su 09:00-17:00","operator":null,"description":"1st class","password":null}},{"type":"Feature","geometry":{"type":"Point","coordinates":[-2.22452392,53.44595488]},"properties":{"id":"toiletmap/b07c12dcb0200bac08ec9efc","source":"toiletmap-uk","name":null,"fee":"yes","charge":null,"access":null,"wheelchair":"no","opening_hours":null,"operator":null,"description":null,"password":null}},{"type":"Feature","geometry":{"type":"Point","coordinates":[-2.2661561,53.4241267]},"properties":{"id":"toiletmap/b15c5e3c2cfb4fc3e501d857","source":"toiletmap-uk","name":"Chorlton Water Park","fee":"no","charge":null,"access":null,"wheelchair":"yes","opening_hours":"Mo-Fr 09:00-15:30; Sa-Su 09:30-15:30","operator":null,"description":null,"password":null}},{"type":"Feature","geometry":{"type":"Point","coordinates":[-2.166845442,53.373913421]},"properties":{"id":"toiletmap/b1a0c1f32dcff46d4a434ad8","source":"toiletmap-uk","name":"Bramhall Park","fee":"no","charge":null,"access":null,"wheelchair":"no","opening_hours":"Mo-Su 09:00-16:30","operator":null,"description":null,"password":null}},{"type":"Feature","geometry":{"type":"Point","coordinates":[-2.234094943,53.467687197]},"properties":{"id":"toiletmap/b664e1c44ecb6140a1fc6eb8","source":"toiletmap-uk","name":"Kilburn Building ","fee":"no","charge":null,"access":null,"wheelchair":"yes","opening_hours":"Mo-Fr 09:00-18:00","operator":null,"description":"Only open during University term time\n\nKilburn Building is a part of the university of Manchester and is open to the general public","password":null}},{"type":"Feature","geometry":{"type":"Point","coordinates":[-2.2313922,53.4165067]},"properties":{"id":"toiletmap/b6cdb06c6a7baaf5fbc47b86","source":"toiletmap-uk","name":null,"fee":"yes","charge":null,"access":null,"wheelchair":"no","opening_hours":null,"operator":null,"description":null,"password":null}},{"type":"Feature","geometry":{"type":"Point","coordinates":[-2.245116234,53.479484324]},"properties":{"id":"toiletmap/b731b561eb53ffbbad97317f","source":"toiletmap-uk","name":"Victoria trainstation manchester","fee":"no","charge":null,"access":null,"wheelchair":"yes","opening_hours":"Mo 07:00-19:07; Tu-We 07:00-19:16; Th 07:16-19:16; Fr 07:00-19:16; Sa-Su 07:00-19:17","operator":null,"description":null,"password":null}},{"type":"Feature","geometry":{"type":"Point","coordinates":[-2.191327214,53.416810755]},"properties":{"id":"toiletmap/b93ecbee79a67150f3608f9c","source":"toiletmap-uk","name":"The Heatons Library","fee":"no","charge":null,"access":null,"wheelchair":"yes","opening_hours":"Tu 12:00-18:00; Th-Fr 10:00-16:00; Sa 10:00-14:00","operator":null,"description":"Toilet is within the Library and is locked with a key available from Staff. Key is only available during staffed hours. See https://www.stockport.gov.uk/directories/entry/libraries/heatons-library for opening hours","password":null}},{"type":"Feature","geometry":{"type":"Point","coordinates":[-2.29332928,53.428733663]},"properties":{"id":"toiletmap/b950de0f65d6e62672a3cd83","source":"toiletmap-uk","name":"Mersey Valley Visitors Centre","fee":"yes","charge":null,"access":null,"wheelchair":"yes","opening_hours":"Mo-Su 09:00-17:00","operator":null,"description":null,"password":null}},{"type":"Feature","geometry":{"type":"Point","coordinates":[-2.244880199,53.482521805]},"properties":{"id":"toiletmap/bb6a97692c59d3c35d521c22","source":"toiletmap-uk","name":"Royal Exchange Theatre","fee":"no","charge":null,"access":null,"wheelchair":"no","opening_hours":null,"operator":null,"description":"Up flight of stairs on north side of Exchange floor","password":null}},{"type":"Feature","geometry":{"type":"Point","coordinates":[-2.211394654,53.380006444]},"properties":{"id":"toiletmap/bc45d19ee5377da856534187","source":"toiletmap-uk","name":"Bruntwood park","fee":"no","charge":null,"access":null,"wheelchair":"yes","opening_hours":null,"operator":null,"description":null,"password":null}},{"type":"Feature","geometry":{"type":"Point","coordinates":[-2.200570107,53.502055126]},"properties":{"id":"toiletmap/bf9dab1960fa35e9bcb0f577","source":"toiletmap-uk","name":"Police Station","fee":"no","charge":null,"access":null,"wheelchair":"yes","opening_hours":"Mo-Su 09:00-17:00","operator":null,"description":null,"password":null}},{"type":"Feature","geometry":{"type":"Point","coordinates":[-2.186193466,53.463001842]},"properties":{"id":"toiletmap/c11f2c3cbef5df9c5d1da835","source":"toiletmap-uk","name":"Buzz Bingo","fee":"no","charge":null,"access":null,"wheelchair":"yes","opening_hours":"Mo-Su 09:00-18:00","operator":null,"description":"This toilet is for Buzz Bingo Customers and Disabled Using the RADAR Key","password":null}},{"type":"Feature","geometry":{"type":"Point","coordinates":[-2.207554558,53.532523431]},"properties":{"id":"toiletmap/c186752dd61ac0ad9b7a243a","source":"toiletmap-uk","name":"Avenue Library and Learning Centre, Victoria Avenue East","fee":"no","charge":null,"access":null,"wheelchair":"no","opening_hours":null,"operator":null,"description":null,"password":null}},{"type":"Feature","geometry":{"type":"Point","coordinates":[-2.164444,53.508131]},"properties":{"id":"toiletmap/c35a2d4e1e3b1ea720b0bcd6","source":"toiletmap-uk","name":null,"fee":"yes","charge":null,"access":null,"wheelchair":"no","opening_hours":"Mo-Fr 07:30-16:00","operator":null,"description":null,"password":null}},{"type":"Feature","geometry":{"type":"Point","coordinates":[-2.272380888,53.365470458]},"properties":{"id":"toiletmap/c64ff527317b6e9e27c4221e","source":"toiletmap-uk","name":"Manchester Airport","fee":"no","charge":null,"access":null,"wheelchair":"yes","opening_hours":"Mo-Su 00:00-23:59","operator":null,"description":"Loated by Stand G at bus station","password":null}},{"type":"Feature","geometry":{"type":"Point","coordinates":[-2.163153291,53.404941332]},"properties":{"id":"toiletmap/c85c47fa3e7f22160d93fc66","source":"toiletmap-uk","name":"Stockport Train Station","fee":"no","charge":null,"access":null,"wheelchair":"no","opening_hours":null,"operator":null,"description":"On platform - behind ticket barriers?","password":null}},{"type":"Feature","geometry":{"type":"Point","coordinates":[-2.244198918,53.513514655]},"properties":{"id":"toiletmap/c97906d73fc22e600ddf0b1d","source":"toiletmap-uk","name":"Tesco. Cheetham Hill.","fee":"no","charge":null,"access":null,"wheelchair":"yes","opening_hours":null,"operator":null,"description":null,"password":null}},{"type":"Feature","geometry":{"type":"Point","coordinates":[-2.1567988,53.4105102]},"properties":{"id":"toiletmap/cc66ddcaf690f2783ccc477a","source":"toiletmap-uk","name":"Disability Stockport","fee":"no","charge":null,"access":null,"wheelchair":"no","opening_hours":"Mo-Fr 09:00-16:00","operator":null,"description":null,"password":null}},{"type":"Feature","geometry":{"type":"Point","coordinates":[-2.1561565,53.410301]},"properties":{"id":"toiletmap/cd239e66f31bd407cded9019","source":"toiletmap-uk","name":"Age Concern","fee":"no","charge":null,"access":null,"wheelchair":"no","opening_hours":"Mo-Fr 09:30-15:00","operator":null,"description":null,"password":null}},{"type":"Feature","geometry":{"type":"Point","coordinates":[-2.241540849,53.478727714]},"properties":{"id":"toiletmap/ce75b21494f7e9590ef34133","source":"toiletmap-uk","name":"Manchester Art Gallery","fee":"no","charge":null,"access":null,"wheelchair":"yes","opening_hours":"Tu-Su 09:00-17:00","operator":null,"description":"There are multiple toilets on the ground floor. There are wheelchair-accessible toilets in the ground floor Atrium area. In addition to this, there is a wheelchair-accessible toilet on the first floor by Gallery 16.\nThere is a baby change cubicle in both the gendered toilet facilities adjacent to the Mosley Street entrance. Please note that buggies can be parked in the Atrium if needed as they cannot be taken into the toilets.","password":null}},{"type":"Feature","geometry":{"type":"Point","coordinates":[-2.201503515,53.458132825]},"properties":{"id":"toiletmap/ce83f1ff86bf22c0d4b64c24","source":"toiletmap-uk","name":"Longsight Library and Learning Centre, 519 Stockport Road","fee":"no","charge":null,"access":null,"wheelchair":"no","opening_hours":null,"operator":null,"description":null,"password":null}},{"type":"Feature","geometry":{"type":"Point","coordinates":[-2.235658765,53.39204004]},"properties":{"id":"toiletmap/d1f58a360c60d20fb7f56385","source":"toiletmap-uk","name":"Costa coffee","fee":"no","charge":null,"access":null,"wheelchair":"no","opening_hours":null,"operator":null,"description":null,"password":null}},{"type":"Feature","geometry":{"type":"Point","coordinates":[-2.16403842,53.40881593]},"properties":{"id":"toiletmap/d309eecda15c2778f5407d9e","source":"toiletmap-uk","name":"Stockport Interchange","fee":"yes","charge":"20p","access":null,"wheelchair":"yes","opening_hours":null,"operator":null,"description":null,"password":null}},{"type":"Feature","geometry":{"type":"Point","coordinates":[-2.334749587,53.429973749]},"properties":{"id":"toiletmap/d33047f814e7a8212a8e1487","source":"toiletmap-uk","name":"Ashton Park","fee":"no","charge":null,"access":null,"wheelchair":"yes","opening_hours":"Mo-Su 09:00-18:00","operator":null,"description":null,"password":null}},{"type":"Feature","geometry":{"type":"Point","coordinates":[-2.279577255,53.443822765]},"properties":{"id":"toiletmap/d353398fa12a0cba6ff508d7","source":"toiletmap-uk","name":"Chorlton Health Centre","fee":"yes","charge":"Free","access":null,"wheelchair":"yes","opening_hours":"Mo-Su 09:00-17:00","operator":null,"description":null,"password":null}},{"type":"Feature","geometry":{"type":"Point","coordinates":[-2.290048599,53.535193781]},"properties":{"id":"toiletmap/d4975123d009abe6e458e77c","source":"toiletmap-uk","name":"Tesco Prestwich","fee":"no","charge":null,"access":null,"wheelchair":"no","opening_hours":"Mo-Su 09:00-17:00","operator":null,"description":"Tesco store toilets (store is 24/7 except Sun)","password":null}},{"type":"Feature","geometry":{"type":"Point","coordinates":[-2.193131447,53.482960027]},"properties":{"id":"toiletmap/d53e1b6d62f9a71ba2c3e756","source":"toiletmap-uk","name":"Asda Eastlands","fee":"no","charge":null,"access":null,"wheelchair":"yes","opening_hours":"Mo-Fr 00:00-23:59; Sa 00:00-22:00; Su 11:00-17:00","operator":null,"description":null,"password":null}},{"type":"Feature","geometry":{"type":"Point","coordinates":[-2.200688124,53.429961738]},"properties":{"id":"toiletmap/d5f786368f975ef22e226679","source":"toiletmap-uk","name":"Burnage Library, Activity and information Hub, Burnage Lane","fee":"no","charge":null,"access":null,"wheelchair":"no","opening_hours":null,"operator":null,"description":null,"password":null}},{"type":"Feature","geometry":{"type":"Point","coordinates":[-2.293463945,53.471341801]},"properties":{"id":"toiletmap/d91d076594cbc38c9039baad","source":"toiletmap-uk","name":"Quayside MediaCityUK shopping mall","fee":"no","charge":null,"access":null,"wheelchair":"yes","opening_hours":"Mo-We 08:00-18:00; Th 08:00-20:00; Fr 08:00-18:00; Sa 08:00-19:00; Su 09:00-17:00","operator":null,"description":"Toilets on upper level near car park","password":null}},{"type":"Feature","geometry":{"type":"Point","coordinates":[-2.242798805,53.487714517]},"properties":{"id":"toiletmap/d9e6ab1788f9c88db8489844","source":"toiletmap-uk","name":"Manchester Victoria (The Beer House)","fee":"no","charge":null,"access":null,"wheelchair":null,"opening_hours":null,"operator":null,"description":null,"password":null}},{"type":"Feature","geometry":{"type":"Point","coordinates":[-2.260670522,53.380195605]},"properties":{"id":"toiletmap/dadd504f6a0f692f9b801c41","source":"toiletmap-uk","name":"Mcdonalds","fee":"no","charge":null,"access":null,"wheelchair":"yes","opening_hours":"Mo-Su 00:00-00:00","operator":null,"description":null,"password":null}},{"type":"Feature","geometry":{"type":"Point","coordinates":[-2.158012171,53.484574152]},"properties":{"id":"toiletmap/dafeaaf7e33be615d349ea0f","source":"toiletmap-uk","name":null,"fee":"yes","charge":null,"access":null,"wheelchair":"no","opening_hours":"Mo-Su 10:00-13:00","operator":null,"description":null,"password":null}},{"type":"Feature","geometry":{"type":"Point","coordinates":[-2.159890111,53.420375873]},"properties":{"id":"toiletmap/dbca47407cce07f39b3d48bf","source":"toiletmap-uk","name":"Mc donalds","fee":"no","charge":null,"access":null,"wheelchair":"no","opening_hours":null,"operator":null,"description":null,"password":null}},{"type":"Feature","geometry":{"type":"Point","coordinates":[-2.214882374,53.375827722]},"properties":{"id":"toiletmap/de18962c8df156200ea6ccb1","source":"toiletmap-uk","name":"Sainsburys/John Lewis","fee":"no","charge":null,"access":null,"wheelchair":"no","opening_hours":null,"operator":null,"description":null,"password":null}},{"type":"Feature","geometry":{"type":"Point","coordinates":[-2.228977818,53.47671998]},"properties":{"id":"toiletmap/de1efaf03e469dfe4589e6a2","source":"toiletmap-uk","name":"Manchester Piccadilly, Platforms 13-14 concourse","fee":"no","charge":null,"access":null,"wheelchair":"no","opening_hours":null,"operator":null,"description":null,"password":null}},{"type":"Feature","geometry":{"type":"Point","coordinates":[-2.260246575,53.397434898]},"properties":{"id":"toiletmap/de3890b9c723ddd957153194","source":"toiletmap-uk","name":"Aldi","fee":"no","charge":null,"access":null,"wheelchair":"yes","opening_hours":null,"operator":null,"description":"Open during shop opening times- usually fairly clean","password":null}},{"type":"Feature","geometry":{"type":"Point","coordinates":[-2.28890866,53.470916595]},"properties":{"id":"toiletmap/de636cfaf2265e933e0752de","source":"toiletmap-uk","name":"Salford Watersports Centre","fee":"yes","charge":null,"access":null,"wheelchair":"no","opening_hours":null,"operator":null,"description":null,"password":null}},{"type":"Feature","geometry":{"type":"Point","coordinates":[-2.237404883,53.477883294]},"properties":{"id":"toiletmap/dee0bcffc4df56e5d1cb63ec","source":"toiletmap-uk","name":"Manchester Central Coach Station","fee":"no","charge":null,"access":null,"wheelchair":"no","opening_hours":null,"operator":null,"description":null,"password":null}},{"type":"Feature","geometry":{"type":"Point","coordinates":[-2.339226902,53.482681414]},"properties":{"id":"toiletmap/dffd671cdf535a61ecaa7f17","source":"toiletmap-uk","name":"Eccles Gateway","fee":"yes","charge":null,"access":null,"wheelchair":"yes","opening_hours":null,"operator":null,"description":"Hoist in Ground Floor accessible toilet. Baby feeding room also available.","password":null}},{"type":"Feature","geometry":{"type":"Point","coordinates":[-2.151981339,53.483746052]},"properties":{"id":"toiletmap/e45c560d690988e56a63619d","source":"toiletmap-uk","name":null,"fee":"yes","charge":null,"access":null,"wheelchair":"no","opening_hours":"Mo-Su 07:00-19:00","operator":null,"description":null,"password":null}},{"type":"Feature","geometry":{"type":"Point","coordinates":[-2.161692253,53.406936924]},"properties":{"id":"toiletmap/e46619543a5711b47e0c1c4c","source":"toiletmap-uk","name":"Leisure centre","fee":"no","charge":null,"access":null,"wheelchair":"no","opening_hours":null,"operator":null,"description":null,"password":null}},{"type":"Feature","geometry":{"type":"Point","coordinates":[-2.2837295,53.4042033]},"properties":{"id":"toiletmap/e5eaef6da7740c2363912f10","source":"toiletmap-uk","name":"Horticultural Centre","fee":"no","charge":null,"access":null,"wheelchair":"yes","opening_hours":null,"operator":null,"description":"Open Wednesday to Sunday 12.00 - 16.00","password":null}},{"type":"Feature","geometry":{"type":"Point","coordinates":[-2.155503631,53.411269758]},"properties":{"id":"toiletmap/e66cde9a2f3a4f16123570f8","source":"toiletmap-uk","name":"St Mary's Parish Church","fee":"yes","charge":null,"access":null,"wheelchair":"yes","opening_hours":null,"operator":null,"description":"St Mary's is open on market days, Tues, Thurs, Fri,  Sat, and of course Sunday, morning","password":null}},{"type":"Feature","geometry":{"type":"Point","coordinates":[-2.318973541,53.373382686]},"properties":{"id":"toiletmap/ea349b12bf6c8383f2a33b2e","source":"toiletmap-uk","name":"Hale croft park toilets","fee":"yes","charge":null,"access":null,"wheelchair":"no","opening_hours":null,"operator":null,"description":"Only open when park keeper is in the park","password":null}},{"type":"Feature","geometry":{"type":"Point","coordinates":[-2.29577411,53.400180964]},"properties":{"id":"toiletmap/eb4efd2258db29fb7de7f99e","source":"toiletmap-uk","name":"Lidl","fee":"no","charge":null,"access":null,"wheelchair":"yes","opening_hours":null,"operator":null,"description":null,"password":null}},{"type":"Feature","geometry":{"type":"Point","coordinates":[-2.277082801,53.446634364]},"properties":{"id":"toiletmap/eedbd38546bf8f01b51e5d8d","source":"toiletmap-uk","name":"Unicorn grocery","fee":"yes","charge":"Free","access":null,"wheelchair":"yes","opening_hours":"Mo-Su 09:00-17:00","operator":null,"description":"Closed on Mondays","password":null}},{"type":"Feature","geometry":{"type":"Point","coordinates":[-2.1693784,53.5168421]},"properties":{"id":"toiletmap/f30c2ba9c467bce3b64fdeba","source":"toiletmap-uk","name":null,"fee":"yes","charge":null,"access":null,"wheelchair":"no","opening_hours":null,"operator":null,"description":null,"password":null}},{"type":"Feature","geometry":{"type":"Point","coordinates":[-2.229430676,53.408476605]},"properties":{"id":"toiletmap/f56b273e6026509a21a1bf16","source":"toiletmap-uk","name":"Fletcher Moss Botanical Gardens","fee":"no","charge":null,"access":null,"wheelchair":"yes","opening_hours":"Mo-Su 09:00-18:00","operator":null,"description":null,"password":null}},{"type":"Feature","geometry":{"type":"Point","coordinates":[-2.296469883,53.402101769]},"properties":{"id":"toiletmap/f616c533a5f8c13a992976af","source":"toiletmap-uk","name":"Brooklands Library, Moor Road","fee":"no","charge":null,"access":null,"wheelchair":"no","opening_hours":null,"operator":null,"description":null,"password":null}},{"type":"Feature","geometry":{"type":"Point","coordinates":[-2.21233964,53.380315788]},"properties":{"id":"toiletmap/f7625ca081b8971389f34e4e","source":"toiletmap-uk","name":"Bruntwood Park (exact location unknown)","fee":"no","charge":null,"access":null,"wheelchair":"no","opening_hours":"Mo-Su 09:00-16:30","operator":null,"description":null,"password":null}},{"type":"Feature","geometry":{"type":"Point","coordinates":[-2.182904874,53.501508791]},"properties":{"id":"toiletmap/f9288f2a1c83016a2e40cee2","source":"toiletmap-uk","name":"Newton Heath Library, Old Church Street","fee":"no","charge":null,"access":null,"wheelchair":"no","opening_hours":null,"operator":null,"description":null,"password":null}},{"type":"Feature","geometry":{"type":"Point","coordinates":[-2.1678972,53.4016712]},"properties":{"id":"toiletmap/f9f3bde0a09c3441dfb6694e","source":"toiletmap-uk","name":"The Royal Oak","fee":"no","charge":null,"access":null,"wheelchair":"no","opening_hours":"Mo-Su 11:00-00:00","operator":null,"description":null,"password":null}},{"type":"Feature","geometry":{"type":"Point","coordinates":[-2.192172618,53.446140833]},"properties":{"id":"toiletmap/fc14277ce1ce57069a481294","source":"toiletmap-uk","name":"Levenshulme Arcadia Library & Leisure Centre","fee":"no","charge":null,"access":null,"wheelchair":"yes","opening_hours":null,"operator":null,"description":null,"password":null}},{"type":"Feature","geometry":{"type":"Point","coordinates":[-2.337867022,53.512418924]},"properties":{"id":"toiletmap/fc8353c3858c96ebe248ebe4","source":"toiletmap-uk","name":"Asda. Swinton.","fee":"no","charge":null,"access":null,"wheelchair":"yes","opening_hours":"Mo-Su 09:00-17:00","operator":null,"description":null,"password":null}},{"type":"Feature","geometry":{"type":"Point","coordinates":[-2.1806004,53.501108]},"properties":{"id":"toiletmap/feabe846791fceea20166207","source":"toiletmap-uk","name":null,"fee":"yes","charge":null,"access":null,"wheelchair":"no","opening_hours":null,"operator":null,"description":null,"password":null}}]}