{"type":"FeatureCollection","attribution":"© OpenStreetMap contributors (ODbL)","generated_at":"2026-08-21T08:43:05.506Z","features":[{"type":"Feature","geometry":{"type":"Point","coordinates":[4.8845506,52.3589253]},"properties":{"id":"node/278609736","source":"osm","name":null,"fee":"yes","charge":"1.00 EUR","access":null,"wheelchair":null,"opening_hours":null,"operator":null,"description":null,"password":null}},{"type":"Feature","geometry":{"type":"Point","coordinates":[4.9450336,52.3126913]},"properties":{"id":"node/440356404","source":"osm","name":null,"fee":"yes","charge":null,"access":null,"wheelchair":null,"opening_hours":null,"operator":null,"description":null,"password":null}},{"type":"Feature","geometry":{"type":"Point","coordinates":[4.961184,52.3647825]},"properties":{"id":"node/512195029","source":"osm","name":null,"fee":null,"charge":null,"access":"customers","wheelchair":"yes","opening_hours":null,"operator":"Camping Zeeburg","description":null,"password":null}},{"type":"Feature","geometry":{"type":"Point","coordinates":[4.9606833,52.3643347]},"properties":{"id":"node/512195032","source":"osm","name":null,"fee":null,"charge":null,"access":"private","wheelchair":null,"opening_hours":null,"operator":"Camping Zeeburg","description":null,"password":null}},{"type":"Feature","geometry":{"type":"Point","coordinates":[4.8753297,52.3876916]},"properties":{"id":"node/559516374","source":"osm","name":null,"fee":"no","charge":null,"access":null,"wheelchair":"yes","opening_hours":null,"operator":null,"description":null,"password":null}},{"type":"Feature","geometry":{"type":"Point","coordinates":[4.8569135,52.3491803]},"properties":{"id":"node/560607630","source":"osm","name":null,"fee":"no","charge":null,"access":"yes","wheelchair":"no","opening_hours":null,"operator":null,"description":null,"password":null}},{"type":"Feature","geometry":{"type":"Point","coordinates":[4.8784481,52.3555808]},"properties":{"id":"node/560607637","source":"osm","name":null,"fee":"no","charge":null,"access":"yes","wheelchair":"no","opening_hours":"24/7","operator":null,"description":null,"password":null}},{"type":"Feature","geometry":{"type":"Point","coordinates":[4.8382037,52.3892557]},"properties":{"id":"node/1281540718","source":"osm","name":null,"fee":"yes","charge":null,"access":"yes","wheelchair":null,"opening_hours":null,"operator":"SANIFAIR GmbH","description":null,"password":null}},{"type":"Feature","geometry":{"type":"Point","coordinates":[4.8962206,52.362024]},"properties":{"id":"node/1310911758","source":"osm","name":null,"fee":"no","charge":null,"access":"yes","wheelchair":"no","opening_hours":null,"operator":null,"description":null,"password":null}},{"type":"Feature","geometry":{"type":"Point","coordinates":[4.8954225,52.3713846]},"properties":{"id":"node/1310974822","source":"osm","name":null,"fee":"no","charge":null,"access":null,"wheelchair":"no","opening_hours":null,"operator":null,"description":null,"password":null}},{"type":"Feature","geometry":{"type":"Point","coordinates":[4.8802621,52.3564715]},"properties":{"id":"node/1495919343","source":"osm","name":null,"fee":null,"charge":null,"access":null,"wheelchair":"yes","opening_hours":null,"operator":null,"description":null,"password":null}},{"type":"Feature","geometry":{"type":"Point","coordinates":[4.884891,52.3745077]},"properties":{"id":"node/1503399448","source":"osm","name":null,"fee":"no","charge":null,"access":"yes","wheelchair":"no","opening_hours":null,"operator":null,"description":null,"password":null}},{"type":"Feature","geometry":{"type":"Point","coordinates":[4.9221783,52.3859992]},"properties":{"id":"node/1599741859","source":"osm","name":null,"fee":"no","charge":null,"access":null,"wheelchair":"no","opening_hours":"24/7","operator":null,"description":null,"password":null}},{"type":"Feature","geometry":{"type":"Point","coordinates":[4.8982205,52.3739049]},"properties":{"id":"node/1640661345","source":"osm","name":null,"fee":"no","charge":null,"access":null,"wheelchair":"no","opening_hours":"24/7","operator":null,"description":null,"password":null}},{"type":"Feature","geometry":{"type":"Point","coordinates":[4.8897359,52.3643754]},"properties":{"id":"node/1686119420","source":"osm","name":null,"fee":"no","charge":null,"access":null,"wheelchair":"no","opening_hours":"24/7","operator":null,"description":null,"password":null}},{"type":"Feature","geometry":{"type":"Point","coordinates":[4.9598746,52.3655521]},"properties":{"id":"node/1811697757","source":"osm","name":null,"fee":null,"charge":null,"access":"private","wheelchair":null,"opening_hours":null,"operator":"Camping Zeeburg","description":null,"password":null}},{"type":"Feature","geometry":{"type":"Point","coordinates":[4.8938491,52.3733151]},"properties":{"id":"node/1819065977","source":"osm","name":"Bijenkorf 5e etage","fee":null,"charge":null,"access":null,"wheelchair":"yes","opening_hours":null,"operator":null,"description":null,"password":null}},{"type":"Feature","geometry":{"type":"Point","coordinates":[4.9572795,52.2938225]},"properties":{"id":"node/1875738705","source":"osm","name":null,"fee":"no","charge":null,"access":null,"wheelchair":"yes","opening_hours":null,"operator":null,"description":null,"password":null}},{"type":"Feature","geometry":{"type":"Point","coordinates":[4.8989226,52.374468]},"properties":{"id":"node/2053188330","source":"osm","name":null,"fee":"no","charge":null,"access":null,"wheelchair":"no","opening_hours":null,"operator":null,"description":null,"password":null}},{"type":"Feature","geometry":{"type":"Point","coordinates":[4.9939917,52.3932345]},"properties":{"id":"node/2258857609","source":"osm","name":null,"fee":"no","charge":null,"access":"yes","wheelchair":"no","opening_hours":null,"operator":null,"description":null,"password":null}},{"type":"Feature","geometry":{"type":"Point","coordinates":[4.8891336,52.3674779]},"properties":{"id":"node/2293578202","source":"osm","name":null,"fee":"yes","charge":null,"access":"yes","wheelchair":"yes","opening_hours":"Mo-Su 00:00-00:00","operator":null,"description":null,"password":null}},{"type":"Feature","geometry":{"type":"Point","coordinates":[4.890048,52.3673047]},"properties":{"id":"node/2294731730","source":"osm","name":null,"fee":"no","charge":null,"access":"yes","wheelchair":"no","opening_hours":null,"operator":null,"description":null,"password":null}},{"type":"Feature","geometry":{"type":"Point","coordinates":[4.8916787,52.379413]},"properties":{"id":"node/2634225791","source":"osm","name":null,"fee":"no","charge":null,"access":"yes","wheelchair":"no","opening_hours":"24/7","operator":null,"description":null,"password":null}},{"type":"Feature","geometry":{"type":"Point","coordinates":[4.9387014,52.3989515]},"properties":{"id":"node/2848301796","source":"osm","name":null,"fee":"yes","charge":null,"access":null,"wheelchair":null,"opening_hours":null,"operator":null,"description":null,"password":null}},{"type":"Feature","geometry":{"type":"Point","coordinates":[4.8746495,52.3857554]},"properties":{"id":"node/2997596571","source":"osm","name":null,"fee":"yes","charge":null,"access":null,"wheelchair":"no","opening_hours":null,"operator":null,"description":null,"password":null}},{"type":"Feature","geometry":{"type":"Point","coordinates":[4.9016876,52.3779574]},"properties":{"id":"node/3381333509","source":"osm","name":null,"fee":"yes","charge":null,"access":null,"wheelchair":"yes","opening_hours":null,"operator":null,"description":null,"password":null}},{"type":"Feature","geometry":{"type":"Point","coordinates":[4.9073507,52.3830736]},"properties":{"id":"node/3581918212","source":"osm","name":null,"fee":null,"charge":null,"access":null,"wheelchair":null,"opening_hours":null,"operator":null,"description":null,"password":null}},{"type":"Feature","geometry":{"type":"Point","coordinates":[4.8849024,52.3600308]},"properties":{"id":"node/3706817260","source":"osm","name":null,"fee":"no","charge":null,"access":"customers","wheelchair":"yes","opening_hours":null,"operator":null,"description":null,"password":null}},{"type":"Feature","geometry":{"type":"Point","coordinates":[4.9178241,52.3466085]},"properties":{"id":"node/3820178616","source":"osm","name":null,"fee":"yes","charge":null,"access":"yes","wheelchair":"yes","opening_hours":"Mo-Su 07:00-21:00","operator":"SANIFAIR GmbH","description":null,"password":null}},{"type":"Feature","geometry":{"type":"Point","coordinates":[4.9881331,52.3102514]},"properties":{"id":"node/4083459487","source":"osm","name":null,"fee":"no","charge":null,"access":null,"wheelchair":"yes","opening_hours":null,"operator":null,"description":null,"password":null}},{"type":"Feature","geometry":{"type":"Point","coordinates":[4.913161,52.3676821]},"properties":{"id":"node/4296431592","source":"osm","name":null,"fee":"no","charge":null,"access":null,"wheelchair":"no","opening_hours":null,"operator":null,"description":null,"password":null}},{"type":"Feature","geometry":{"type":"Point","coordinates":[4.8991512,52.3789405]},"properties":{"id":"node/4344470390","source":"osm","name":null,"fee":"yes","charge":"0.9 EUR","access":"yes","wheelchair":"yes","opening_hours":"07:00-24:00","operator":"SANIFAIR GmbH","description":null,"password":null}},{"type":"Feature","geometry":{"type":"Point","coordinates":[4.8734795,52.3387404]},"properties":{"id":"node/4357611193","source":"osm","name":null,"fee":"yes","charge":null,"access":"yes","wheelchair":"no","opening_hours":"24/7","operator":"SANIFAIR GmbH","description":null,"password":null}},{"type":"Feature","geometry":{"type":"Point","coordinates":[4.9032091,52.3656047]},"properties":{"id":"node/4394896690","source":"osm","name":null,"fee":"no","charge":null,"access":"permissive","wheelchair":"yes","opening_hours":null,"operator":null,"description":null,"password":null}},{"type":"Feature","geometry":{"type":"Point","coordinates":[5.0033435,52.3058192]},"properties":{"id":"node/4471570291","source":"osm","name":null,"fee":"no","charge":null,"access":null,"wheelchair":null,"opening_hours":null,"operator":null,"description":null,"password":null}},{"type":"Feature","geometry":{"type":"Point","coordinates":[4.8942106,52.3751317]},"properties":{"id":"node/4720714476","source":"osm","name":"Toiletten HEMA","fee":"yes","charge":"0.50 EUR","access":null,"wheelchair":null,"opening_hours":null,"operator":null,"description":null,"password":null}},{"type":"Feature","geometry":{"type":"Point","coordinates":[4.8890467,52.3730595]},"properties":{"id":"node/4807241143","source":"osm","name":null,"fee":"no","charge":null,"access":null,"wheelchair":"no","opening_hours":"24/7","operator":null,"description":null,"password":null}},{"type":"Feature","geometry":{"type":"Point","coordinates":[4.8839841,52.3651507]},"properties":{"id":"node/4807351131","source":"osm","name":null,"fee":"no","charge":null,"access":null,"wheelchair":"no","opening_hours":"24/7","operator":null,"description":null,"password":null}},{"type":"Feature","geometry":{"type":"Point","coordinates":[4.8948877,52.3542013]},"properties":{"id":"node/4943423422","source":"osm","name":null,"fee":"no","charge":null,"access":"no","wheelchair":"yes","opening_hours":null,"operator":null,"description":"Toilet out of order","password":null}},{"type":"Feature","geometry":{"type":"Point","coordinates":[4.899572,52.3799718]},"properties":{"id":"node/4977553280","source":"osm","name":null,"fee":"yes","charge":null,"access":"yes","wheelchair":"yes","opening_hours":"Mo-Su,PH 00:00-24:00+","operator":"SANIFAIR GmbH","description":null,"password":null}},{"type":"Feature","geometry":{"type":"Point","coordinates":[4.9050482,52.3652392]},"properties":{"id":"node/5070903434","source":"osm","name":null,"fee":"no","charge":null,"access":"yes","wheelchair":"no","opening_hours":null,"operator":null,"description":null,"password":null}},{"type":"Feature","geometry":{"type":"Point","coordinates":[4.9463769,52.3121729]},"properties":{"id":"node/5097840494","source":"osm","name":null,"fee":"yes","charge":null,"access":"yes","wheelchair":null,"opening_hours":null,"operator":"NS","description":null,"password":null}},{"type":"Feature","geometry":{"type":"Point","coordinates":[4.8831461,52.3641999]},"properties":{"id":"node/5150338562","source":"osm","name":null,"fee":"yes","charge":null,"access":"yes","wheelchair":"no","opening_hours":"Th-Su 18:00-07:00","operator":null,"description":"15.30 - 18.00 transfer to aboveground. Between 07.00 - 09:00 transfer to underground.  type: Urilift: https://nl.wikipedia.org/wiki/Bestand:Urilift,_G%C3%B6teborg,_Kungsportsplatsen.webm","password":null}},{"type":"Feature","geometry":{"type":"Point","coordinates":[4.9116715,52.3702179]},"properties":{"id":"node/5157106093","source":"osm","name":null,"fee":"no","charge":null,"access":"yes","wheelchair":"no","opening_hours":null,"operator":null,"description":null,"password":null}},{"type":"Feature","geometry":{"type":"Point","coordinates":[4.8814945,52.3622128]},"properties":{"id":"node/5157501203","source":"osm","name":null,"fee":null,"charge":null,"access":null,"wheelchair":"yes","opening_hours":null,"operator":null,"description":"Permanently out of order. Will be removed soon.","password":null}},{"type":"Feature","geometry":{"type":"Point","coordinates":[4.8819097,52.3634451]},"properties":{"id":"node/5157501204","source":"osm","name":"Leidseplein","fee":"yes","charge":null,"access":"yes","wheelchair":"yes","opening_hours":null,"operator":null,"description":null,"password":null}},{"type":"Feature","geometry":{"type":"Point","coordinates":[4.8836936,52.3624019]},"properties":{"id":"node/5157501205","source":"osm","name":null,"fee":"no","charge":null,"access":null,"wheelchair":"no","opening_hours":null,"operator":null,"description":null,"password":null}},{"type":"Feature","geometry":{"type":"Point","coordinates":[4.8828792,52.3638657]},"properties":{"id":"node/5157501206","source":"osm","name":null,"fee":"no","charge":null,"access":"yes","wheelchair":"no","opening_hours":"Th-Su 18:00-07:00","operator":null,"description":"15.30 - 18.00 transfer to aboveground. Between 07.00 - 09:00 transfer to underground. type: Urilift: https://nl.wikipedia.org/wiki/Bestand:Urilift,_G%C3%B6teborg,_Kungsportsplatsen.webm","password":null}},{"type":"Feature","geometry":{"type":"Point","coordinates":[4.9191396,52.3604629]},"properties":{"id":"node/5160950376","source":"osm","name":null,"fee":"no","charge":null,"access":"yes","wheelchair":"no","opening_hours":null,"operator":null,"description":null,"password":null}},{"type":"Feature","geometry":{"type":"Point","coordinates":[4.91093,52.3632341]},"properties":{"id":"node/5161028316","source":"osm","name":null,"fee":"no","charge":null,"access":"yes","wheelchair":"no","opening_hours":"24/7","operator":null,"description":null,"password":null}},{"type":"Feature","geometry":{"type":"Point","coordinates":[4.9036613,52.3823004]},"properties":{"id":"node/5176026775","source":"osm","name":null,"fee":"no","charge":null,"access":"yes","wheelchair":"no","opening_hours":null,"operator":null,"description":null,"password":null}},{"type":"Feature","geometry":{"type":"Point","coordinates":[4.9005903,52.3732175]},"properties":{"id":"node/5674495856","source":"osm","name":null,"fee":"no","charge":null,"access":null,"wheelchair":"no","opening_hours":"24/7","operator":null,"description":null,"password":null}},{"type":"Feature","geometry":{"type":"Point","coordinates":[4.8840375,52.3746732]},"properties":{"id":"node/5831919166","source":"osm","name":"Westerkerk WC","fee":"yes","charge":null,"access":null,"wheelchair":"yes","opening_hours":null,"operator":null,"description":null,"password":null}},{"type":"Feature","geometry":{"type":"Point","coordinates":[4.8678505,52.3671797]},"properties":{"id":"node/5836531585","source":"osm","name":null,"fee":"no","charge":null,"access":"yes","wheelchair":"designated","opening_hours":"Mo-Su 11:00-23:30","operator":null,"description":null,"password":null}},{"type":"Feature","geometry":{"type":"Point","coordinates":[4.9116854,52.3763537]},"properties":{"id":"node/5887936984","source":"osm","name":null,"fee":null,"charge":null,"access":"customers","wheelchair":null,"opening_hours":null,"operator":null,"description":null,"password":null}},{"type":"Feature","geometry":{"type":"Point","coordinates":[4.8940572,52.3790157]},"properties":{"id":"node/6051664830","source":"osm","name":null,"fee":"no","charge":null,"access":"yes","wheelchair":"no","opening_hours":null,"operator":null,"description":null,"password":null}},{"type":"Feature","geometry":{"type":"Point","coordinates":[4.918093,52.3467189]},"properties":{"id":"node/6305581943","source":"osm","name":null,"fee":"yes","charge":null,"access":null,"wheelchair":"yes","opening_hours":null,"operator":"Sanifair Ecotoilet","description":null,"password":null}},{"type":"Feature","geometry":{"type":"Point","coordinates":[4.8895707,52.3743473]},"properties":{"id":"node/6432933994","source":"osm","name":null,"fee":"no","charge":null,"access":null,"wheelchair":"no","opening_hours":null,"operator":null,"description":null,"password":null}},{"type":"Feature","geometry":{"type":"Point","coordinates":[4.8864354,52.357746]},"properties":{"id":"node/6433896185","source":"osm","name":null,"fee":null,"charge":null,"access":null,"wheelchair":null,"opening_hours":"24/7","operator":null,"description":null,"password":null}},{"type":"Feature","geometry":{"type":"Point","coordinates":[4.8909411,52.3727445]},"properties":{"id":"node/6681608785","source":"osm","name":null,"fee":null,"charge":null,"access":"yes","wheelchair":"limited","opening_hours":"Th-Sa 18:00-0:700","operator":null,"description":"Urilift combi: 2 male & 1 female urinal toilets\nAutomatic flushing 6 x per hour\nTo be operational lifts up: Th-Sa 15.30 - 18.00 and  sinks down in pavement: Fr-Su 7.00 - 9.00","password":null}},{"type":"Feature","geometry":{"type":"Point","coordinates":[4.8932824,52.3295572]},"properties":{"id":"node/6732041228","source":"osm","name":null,"fee":"no","charge":null,"access":null,"wheelchair":"yes","opening_hours":null,"operator":null,"description":null,"password":null}},{"type":"Feature","geometry":{"type":"Point","coordinates":[4.8924004,52.3647624]},"properties":{"id":"node/6759162076","source":"osm","name":null,"fee":"no","charge":null,"access":null,"wheelchair":"no","opening_hours":null,"operator":null,"description":"Inside, up, right at the reception, through the restaurant, downstairs.","password":null}},{"type":"Feature","geometry":{"type":"Point","coordinates":[4.959417,52.3544827]},"properties":{"id":"node/6761981940","source":"osm","name":null,"fee":null,"charge":null,"access":"permissive","wheelchair":"no","opening_hours":null,"operator":null,"description":null,"password":null}},{"type":"Feature","geometry":{"type":"Point","coordinates":[4.9589463,52.3544609]},"properties":{"id":"node/6761981952","source":"osm","name":null,"fee":"no","charge":null,"access":"yes","wheelchair":"no","opening_hours":null,"operator":null,"description":null,"password":null}},{"type":"Feature","geometry":{"type":"Point","coordinates":[4.8863629,52.3619952]},"properties":{"id":"node/7084369908","source":"osm","name":null,"fee":"no","charge":null,"access":"yes","wheelchair":"no","opening_hours":null,"operator":null,"description":null,"password":null}},{"type":"Feature","geometry":{"type":"Point","coordinates":[4.8836785,52.384326]},"properties":{"id":"node/7314904704","source":"osm","name":null,"fee":"no","charge":null,"access":"yes","wheelchair":"no","opening_hours":null,"operator":null,"description":null,"password":null}},{"type":"Feature","geometry":{"type":"Point","coordinates":[4.8770791,52.3687571]},"properties":{"id":"node/7324609934","source":"osm","name":null,"fee":"no","charge":null,"access":"yes","wheelchair":"no","opening_hours":null,"operator":null,"description":null,"password":null}},{"type":"Feature","geometry":{"type":"Point","coordinates":[4.9590206,52.3544145]},"properties":{"id":"node/7922353383","source":"osm","name":null,"fee":"no","charge":null,"access":"yes","wheelchair":"no","opening_hours":null,"operator":null,"description":null,"password":null}},{"type":"Feature","geometry":{"type":"Point","coordinates":[4.8905212,52.3405954]},"properties":{"id":"node/7960010535","source":"osm","name":null,"fee":null,"charge":null,"access":"yes","wheelchair":null,"opening_hours":null,"operator":null,"description":null,"password":null}},{"type":"Feature","geometry":{"type":"Point","coordinates":[4.8841739,52.3435595]},"properties":{"id":"node/8214050815","source":"osm","name":null,"fee":null,"charge":null,"access":null,"wheelchair":null,"opening_hours":null,"operator":null,"description":null,"password":null}},{"type":"Feature","geometry":{"type":"Point","coordinates":[4.8920625,52.3324741]},"properties":{"id":"node/8259620723","source":"osm","name":null,"fee":"no","charge":null,"access":null,"wheelchair":null,"opening_hours":null,"operator":null,"description":null,"password":null}},{"type":"Feature","geometry":{"type":"Point","coordinates":[4.9300593,52.3432509]},"properties":{"id":"node/8345350457","source":"osm","name":null,"fee":"no","charge":null,"access":null,"wheelchair":"yes","opening_hours":null,"operator":null,"description":null,"password":null}},{"type":"Feature","geometry":{"type":"Point","coordinates":[4.9434438,52.3462714]},"properties":{"id":"node/8518451372","source":"osm","name":null,"fee":null,"charge":null,"access":"yes","wheelchair":"no","opening_hours":null,"operator":null,"description":null,"password":null}},{"type":"Feature","geometry":{"type":"Point","coordinates":[4.9131343,52.3766345]},"properties":{"id":"node/8743741416","source":"osm","name":null,"fee":"no","charge":null,"access":"yes","wheelchair":"no","opening_hours":null,"operator":null,"description":null,"password":null}},{"type":"Feature","geometry":{"type":"Point","coordinates":[4.9963715,52.3031396]},"properties":{"id":"node/8809068604","source":"osm","name":null,"fee":"no","charge":null,"access":null,"wheelchair":"yes","opening_hours":null,"operator":null,"description":null,"password":null}},{"type":"Feature","geometry":{"type":"Point","coordinates":[4.8522727,52.3739488]},"properties":{"id":"node/8869953566","source":"osm","name":null,"fee":"no","charge":null,"access":null,"wheelchair":"no","opening_hours":null,"operator":null,"description":null,"password":null}},{"type":"Feature","geometry":{"type":"Point","coordinates":[4.9011161,52.3843131]},"properties":{"id":"node/8930620557","source":"osm","name":null,"fee":null,"charge":null,"access":"customers","wheelchair":"yes","opening_hours":null,"operator":null,"description":null,"password":null}},{"type":"Feature","geometry":{"type":"Point","coordinates":[4.9189118,52.3608796]},"properties":{"id":"node/8932559979","source":"osm","name":null,"fee":null,"charge":null,"access":"customers","wheelchair":"yes","opening_hours":null,"operator":null,"description":null,"password":null}},{"type":"Feature","geometry":{"type":"Point","coordinates":[4.8935023,52.3244219]},"properties":{"id":"node/8988114101","source":"osm","name":null,"fee":null,"charge":null,"access":null,"wheelchair":null,"opening_hours":null,"operator":null,"description":null,"password":null}},{"type":"Feature","geometry":{"type":"Point","coordinates":[4.9228505,52.3902894]},"properties":{"id":"node/9047493760","source":"osm","name":null,"fee":null,"charge":null,"access":"yes","wheelchair":null,"opening_hours":null,"operator":null,"description":null,"password":null}},{"type":"Feature","geometry":{"type":"Point","coordinates":[4.8801888,52.3812918]},"properties":{"id":"node/9175306854","source":"osm","name":null,"fee":"no","charge":null,"access":null,"wheelchair":"no","opening_hours":null,"operator":null,"description":null,"password":null}},{"type":"Feature","geometry":{"type":"Point","coordinates":[4.8981589,52.3726058]},"properties":{"id":"node/9206573720","source":"osm","name":null,"fee":"no","charge":null,"access":"yes","wheelchair":"no","opening_hours":"24/7","operator":null,"description":null,"password":null}},{"type":"Feature","geometry":{"type":"Point","coordinates":[4.941923,52.3134154]},"properties":{"id":"node/9240649722","source":"osm","name":null,"fee":"no","charge":null,"access":"yes","wheelchair":null,"opening_hours":null,"operator":null,"description":null,"password":null}},{"type":"Feature","geometry":{"type":"Point","coordinates":[4.9191754,52.3665465]},"properties":{"id":"node/9680130397","source":"osm","name":null,"fee":"no","charge":null,"access":null,"wheelchair":"yes","opening_hours":null,"operator":null,"description":null,"password":null}},{"type":"Feature","geometry":{"type":"Point","coordinates":[4.9131558,52.367256]},"properties":{"id":"node/9680130834","source":"osm","name":null,"fee":"no","charge":null,"access":null,"wheelchair":null,"opening_hours":null,"operator":null,"description":null,"password":null}},{"type":"Feature","geometry":{"type":"Point","coordinates":[4.9961507,52.4071288]},"properties":{"id":"node/9740252393","source":"osm","name":null,"fee":"no","charge":null,"access":"customers","wheelchair":"no","opening_hours":"24/7","operator":null,"description":null,"password":null}},{"type":"Feature","geometry":{"type":"Point","coordinates":[4.9084177,52.3664754]},"properties":{"id":"node/9874469444","source":"osm","name":null,"fee":null,"charge":null,"access":"customers","wheelchair":null,"opening_hours":null,"operator":null,"description":null,"password":null}},{"type":"Feature","geometry":{"type":"Point","coordinates":[4.9072472,52.3670577]},"properties":{"id":"node/9874469445","source":"osm","name":null,"fee":null,"charge":null,"access":"customers","wheelchair":"yes","opening_hours":null,"operator":null,"description":null,"password":null}},{"type":"Feature","geometry":{"type":"Point","coordinates":[4.8704375,52.386836]},"properties":{"id":"node/9876844904","source":"osm","name":null,"fee":null,"charge":null,"access":null,"wheelchair":null,"opening_hours":null,"operator":null,"description":null,"password":null}},{"type":"Feature","geometry":{"type":"Point","coordinates":[5.0146239,52.3590283]},"properties":{"id":"node/9907706126","source":"osm","name":null,"fee":"no","charge":null,"access":null,"wheelchair":"no","opening_hours":null,"operator":null,"description":null,"password":null}},{"type":"Feature","geometry":{"type":"Point","coordinates":[5.014891,52.3586485]},"properties":{"id":"node/9908817562","source":"osm","name":null,"fee":null,"charge":null,"access":null,"wheelchair":null,"opening_hours":null,"operator":null,"description":null,"password":null}},{"type":"Feature","geometry":{"type":"Point","coordinates":[4.8962625,52.3327337]},"properties":{"id":"node/9920833849","source":"osm","name":null,"fee":null,"charge":null,"access":null,"wheelchair":null,"opening_hours":null,"operator":null,"description":null,"password":null}},{"type":"Feature","geometry":{"type":"Point","coordinates":[4.9929569,52.3129483]},"properties":{"id":"node/9994539012","source":"osm","name":null,"fee":"no","charge":null,"access":null,"wheelchair":null,"opening_hours":null,"operator":null,"description":null,"password":null}},{"type":"Feature","geometry":{"type":"Point","coordinates":[4.9932439,52.3129813]},"properties":{"id":"node/9994539013","source":"osm","name":null,"fee":"no","charge":null,"access":null,"wheelchair":"no","opening_hours":null,"operator":null,"description":null,"password":null}},{"type":"Feature","geometry":{"type":"Point","coordinates":[4.8883648,52.3703866]},"properties":{"id":"node/10031800274","source":"osm","name":null,"fee":"no","charge":null,"access":"yes","wheelchair":"no","opening_hours":null,"operator":null,"description":null,"password":null}},{"type":"Feature","geometry":{"type":"Point","coordinates":[4.9924833,52.3118255]},"properties":{"id":"node/10275741790","source":"osm","name":null,"fee":null,"charge":null,"access":null,"wheelchair":null,"opening_hours":null,"operator":null,"description":null,"password":null}},{"type":"Feature","geometry":{"type":"Point","coordinates":[4.9922563,52.3117114]},"properties":{"id":"node/10275741791","source":"osm","name":null,"fee":null,"charge":null,"access":null,"wheelchair":"yes","opening_hours":null,"operator":null,"description":null,"password":null}},{"type":"Feature","geometry":{"type":"Point","coordinates":[4.9204525,52.3653163]},"properties":{"id":"node/10300899369","source":"osm","name":null,"fee":"no","charge":null,"access":null,"wheelchair":null,"opening_hours":null,"operator":null,"description":null,"password":null}},{"type":"Feature","geometry":{"type":"Point","coordinates":[4.9158514,52.3663854]},"properties":{"id":"node/10300929537","source":"osm","name":null,"fee":"no","charge":null,"access":null,"wheelchair":null,"opening_hours":null,"operator":null,"description":null,"password":null}},{"type":"Feature","geometry":{"type":"Point","coordinates":[4.872699,52.3588523]},"properties":{"id":"node/10300953652","source":"osm","name":null,"fee":null,"charge":null,"access":"customers","wheelchair":"no","opening_hours":null,"operator":null,"description":null,"password":null}},{"type":"Feature","geometry":{"type":"Point","coordinates":[4.8754892,52.3586567]},"properties":{"id":"node/10300953653","source":"osm","name":null,"fee":null,"charge":null,"access":"customers","wheelchair":null,"opening_hours":null,"operator":null,"description":null,"password":null}},{"type":"Feature","geometry":{"type":"Point","coordinates":[4.8683614,52.3585834]},"properties":{"id":"node/10300953655","source":"osm","name":null,"fee":"yes","charge":null,"access":"yes","wheelchair":"yes","opening_hours":null,"operator":null,"description":null,"password":null}},{"type":"Feature","geometry":{"type":"Point","coordinates":[4.856549,52.3549048]},"properties":{"id":"node/10300953656","source":"osm","name":null,"fee":null,"charge":null,"access":"customers","wheelchair":"no","opening_hours":null,"operator":null,"description":null,"password":null}},{"type":"Feature","geometry":{"type":"Point","coordinates":[4.9447747,52.3539358]},"properties":{"id":"node/10537665230","source":"osm","name":null,"fee":null,"charge":null,"access":null,"wheelchair":null,"opening_hours":null,"operator":null,"description":null,"password":null}},{"type":"Feature","geometry":{"type":"Point","coordinates":[4.9363198,52.3979778]},"properties":{"id":"node/10589808289","source":"osm","name":null,"fee":null,"charge":null,"access":"yes","wheelchair":null,"opening_hours":null,"operator":null,"description":null,"password":null}},{"type":"Feature","geometry":{"type":"Point","coordinates":[4.8563592,52.3593676]},"properties":{"id":"node/10693958754","source":"osm","name":null,"fee":"no","charge":null,"access":"yes","wheelchair":"no","opening_hours":null,"operator":null,"description":null,"password":null}},{"type":"Feature","geometry":{"type":"Point","coordinates":[4.7821204,52.3604706]},"properties":{"id":"node/10775555716","source":"osm","name":null,"fee":null,"charge":null,"access":"yes","wheelchair":null,"opening_hours":null,"operator":null,"description":null,"password":null}},{"type":"Feature","geometry":{"type":"Point","coordinates":[4.7827205,52.3600863]},"properties":{"id":"node/10775555717","source":"osm","name":null,"fee":null,"charge":null,"access":"yes","wheelchair":null,"opening_hours":null,"operator":null,"description":null,"password":null}},{"type":"Feature","geometry":{"type":"Point","coordinates":[4.8928524,52.3995301]},"properties":{"id":"node/10793225593","source":"osm","name":null,"fee":"no","charge":null,"access":null,"wheelchair":null,"opening_hours":null,"operator":null,"description":null,"password":null}},{"type":"Feature","geometry":{"type":"Point","coordinates":[4.9135569,52.3660059]},"properties":{"id":"node/10824517341","source":"osm","name":null,"fee":null,"charge":null,"access":null,"wheelchair":null,"opening_hours":null,"operator":null,"description":null,"password":null}},{"type":"Feature","geometry":{"type":"Point","coordinates":[4.8806671,52.3796353]},"properties":{"id":"node/11021752154","source":"osm","name":null,"fee":"no","charge":null,"access":"yes","wheelchair":"no","opening_hours":null,"operator":null,"description":null,"password":null}},{"type":"Feature","geometry":{"type":"Point","coordinates":[4.892189,52.3737445]},"properties":{"id":"node/11119002205","source":"osm","name":null,"fee":null,"charge":null,"access":null,"wheelchair":null,"opening_hours":null,"operator":null,"description":null,"password":null}},{"type":"Feature","geometry":{"type":"Point","coordinates":[4.9559305,52.3591124]},"properties":{"id":"node/11197595227","source":"osm","name":null,"fee":"no","charge":null,"access":null,"wheelchair":null,"opening_hours":null,"operator":null,"description":null,"password":null}},{"type":"Feature","geometry":{"type":"Point","coordinates":[4.9622478,52.3827711]},"properties":{"id":"node/11369305574","source":"osm","name":null,"fee":"no","charge":null,"access":"customers","wheelchair":null,"opening_hours":null,"operator":"WSV de Zuiderzee","description":null,"password":null}},{"type":"Feature","geometry":{"type":"Point","coordinates":[4.9156353,52.3724746]},"properties":{"id":"node/11849590237","source":"osm","name":null,"fee":"yes","charge":"1.00 EUR","access":"customers","wheelchair":"no","opening_hours":null,"operator":null,"description":"Toilethokjes naast barretje bij zwemgelegenheid, alleen toegankelijk bij open bar.","password":null}},{"type":"Feature","geometry":{"type":"Point","coordinates":[4.8754735,52.3873267]},"properties":{"id":"node/11962269644","source":"osm","name":null,"fee":"no","charge":null,"access":"yes","wheelchair":"no","opening_hours":null,"operator":null,"description":null,"password":null}},{"type":"Feature","geometry":{"type":"Point","coordinates":[4.965181,52.3836263]},"properties":{"id":"node/11964167211","source":"osm","name":null,"fee":null,"charge":null,"access":null,"wheelchair":null,"opening_hours":null,"operator":null,"description":null,"password":null}},{"type":"Feature","geometry":{"type":"Point","coordinates":[4.946028,52.3121414]},"properties":{"id":"node/11966145629","source":"osm","name":null,"fee":"no","charge":null,"access":null,"wheelchair":null,"opening_hours":null,"operator":null,"description":null,"password":null}},{"type":"Feature","geometry":{"type":"Point","coordinates":[4.8969828,52.366141]},"properties":{"id":"node/12088755869","source":"osm","name":null,"fee":null,"charge":null,"access":null,"wheelchair":"no","opening_hours":null,"operator":null,"description":null,"password":null}},{"type":"Feature","geometry":{"type":"Point","coordinates":[4.8841061,52.3628294]},"properties":{"id":"node/12088843046","source":"osm","name":null,"fee":"no","charge":null,"access":null,"wheelchair":"no","opening_hours":null,"operator":null,"description":null,"password":null}},{"type":"Feature","geometry":{"type":"Point","coordinates":[4.9791455,52.3112402]},"properties":{"id":"node/12149643578","source":"osm","name":null,"fee":"no","charge":null,"access":"yes","wheelchair":"limited","opening_hours":null,"operator":null,"description":null,"password":null}},{"type":"Feature","geometry":{"type":"Point","coordinates":[4.9579943,52.3031692]},"properties":{"id":"node/12149643580","source":"osm","name":null,"fee":null,"charge":null,"access":"yes","wheelchair":null,"opening_hours":null,"operator":null,"description":null,"password":null}},{"type":"Feature","geometry":{"type":"Point","coordinates":[4.8898477,52.3823276]},"properties":{"id":"node/12181926516","source":"osm","name":null,"fee":"no","charge":null,"access":null,"wheelchair":"no","opening_hours":null,"operator":null,"description":null,"password":null}},{"type":"Feature","geometry":{"type":"Point","coordinates":[4.8936168,52.3485241]},"properties":{"id":"node/12227989629","source":"osm","name":null,"fee":null,"charge":null,"access":null,"wheelchair":null,"opening_hours":null,"operator":null,"description":"right hand side just after the entrance","password":null}},{"type":"Feature","geometry":{"type":"Point","coordinates":[4.8896831,52.3686797]},"properties":{"id":"node/12405415473","source":"osm","name":null,"fee":null,"charge":null,"access":"yes","wheelchair":"no","opening_hours":"Th-Su 18:00-07:00","operator":null,"description":"Urilift:\n1. has automatic flush 6x per hour\n2. to be operational lifts up: Th-Su 15.30 - 18.00 and  sinks down in pavement: Fr-Mo 7.00 - 9.00","password":null}},{"type":"Feature","geometry":{"type":"Point","coordinates":[4.9268271,52.3887047]},"properties":{"id":"node/12498221945","source":"osm","name":null,"fee":null,"charge":null,"access":"private","wheelchair":null,"opening_hours":null,"operator":null,"description":null,"password":null}},{"type":"Feature","geometry":{"type":"Point","coordinates":[4.9323914,52.3866217]},"properties":{"id":"node/12498221946","source":"osm","name":null,"fee":null,"charge":null,"access":"private","wheelchair":null,"opening_hours":null,"operator":null,"description":null,"password":null}},{"type":"Feature","geometry":{"type":"Point","coordinates":[4.8985958,52.3731725]},"properties":{"id":"node/12559958381","source":"osm","name":null,"fee":"no","charge":null,"access":"yes","wheelchair":"no","opening_hours":"24/7","operator":null,"description":null,"password":null}},{"type":"Feature","geometry":{"type":"Point","coordinates":[4.9645637,52.3105209]},"properties":{"id":"node/12661003845","source":"osm","name":null,"fee":null,"charge":null,"access":"private","wheelchair":null,"opening_hours":null,"operator":null,"description":null,"password":null}},{"type":"Feature","geometry":{"type":"Point","coordinates":[4.9646382,52.3104389]},"properties":{"id":"node/12661003846","source":"osm","name":null,"fee":null,"charge":null,"access":"private","wheelchair":null,"opening_hours":null,"operator":null,"description":null,"password":null}},{"type":"Feature","geometry":{"type":"Point","coordinates":[4.9617192,52.3159538]},"properties":{"id":"node/12772858328","source":"osm","name":null,"fee":"no","charge":null,"access":"yes","wheelchair":"limited","opening_hours":null,"operator":"Gemeente Amsterdam","description":null,"password":null}},{"type":"Feature","geometry":{"type":"Point","coordinates":[4.8476269,52.3324419]},"properties":{"id":"node/12823710198","source":"osm","name":null,"fee":null,"charge":null,"access":null,"wheelchair":null,"opening_hours":null,"operator":null,"description":null,"password":null}},{"type":"Feature","geometry":{"type":"Point","coordinates":[4.9386737,52.3122207]},"properties":{"id":"node/12857314096","source":"osm","name":null,"fee":null,"charge":null,"access":"permissive","wheelchair":null,"opening_hours":null,"operator":null,"description":null,"password":null}},{"type":"Feature","geometry":{"type":"Point","coordinates":[4.981261,52.3171144]},"properties":{"id":"node/12862534334","source":"osm","name":null,"fee":"no","charge":null,"access":null,"wheelchair":"no","opening_hours":null,"operator":null,"description":null,"password":null}},{"type":"Feature","geometry":{"type":"Point","coordinates":[4.8869907,52.3540456]},"properties":{"id":"node/12925484412","source":"osm","name":null,"fee":"no","charge":null,"access":"yes","wheelchair":"no","opening_hours":null,"operator":null,"description":null,"password":null}},{"type":"Feature","geometry":{"type":"Point","coordinates":[4.9182855,52.3654384]},"properties":{"id":"node/12970714121","source":"osm","name":null,"fee":null,"charge":null,"access":null,"wheelchair":null,"opening_hours":null,"operator":null,"description":null,"password":null}},{"type":"Feature","geometry":{"type":"Point","coordinates":[4.9426824,52.3134004]},"properties":{"id":"node/12977236478","source":"osm","name":null,"fee":null,"charge":null,"access":null,"wheelchair":null,"opening_hours":null,"operator":null,"description":null,"password":null}},{"type":"Feature","geometry":{"type":"Point","coordinates":[4.8506708,52.3316013]},"properties":{"id":"node/13008983320","source":"osm","name":null,"fee":null,"charge":null,"access":"customers","wheelchair":null,"opening_hours":null,"operator":null,"description":null,"password":null}},{"type":"Feature","geometry":{"type":"Point","coordinates":[4.8506822,52.3314366]},"properties":{"id":"node/13008983321","source":"osm","name":null,"fee":null,"charge":null,"access":"customers","wheelchair":null,"opening_hours":null,"operator":null,"description":null,"password":null}},{"type":"Feature","geometry":{"type":"Point","coordinates":[4.8958856,52.3652162]},"properties":{"id":"node/13032101656","source":"osm","name":null,"fee":"no","charge":null,"access":null,"wheelchair":null,"opening_hours":null,"operator":null,"description":null,"password":null}},{"type":"Feature","geometry":{"type":"Point","coordinates":[4.9399457,52.3462971]},"properties":{"id":"node/13041249563","source":"osm","name":null,"fee":"no","charge":null,"access":null,"wheelchair":"yes","opening_hours":null,"operator":null,"description":null,"password":null}},{"type":"Feature","geometry":{"type":"Point","coordinates":[4.8921846,52.3886826]},"properties":{"id":"node/13064057294","source":"osm","name":null,"fee":null,"charge":null,"access":null,"wheelchair":null,"opening_hours":null,"operator":null,"description":null,"password":null}},{"type":"Feature","geometry":{"type":"Point","coordinates":[4.8820528,52.3634947]},"properties":{"id":"node/13081350405","source":"osm","name":null,"fee":null,"charge":null,"access":null,"wheelchair":null,"opening_hours":null,"operator":null,"description":null,"password":null}},{"type":"Feature","geometry":{"type":"Point","coordinates":[4.9791204,52.3176996]},"properties":{"id":"node/13431110188","source":"osm","name":null,"fee":null,"charge":null,"access":"customers","wheelchair":null,"opening_hours":null,"operator":null,"description":null,"password":null}},{"type":"Feature","geometry":{"type":"Point","coordinates":[4.8869909,52.3540721]},"properties":{"id":"node/13514424253","source":"osm","name":null,"fee":"no","charge":null,"access":"yes","wheelchair":"no","opening_hours":null,"operator":null,"description":null,"password":null}},{"type":"Feature","geometry":{"type":"Point","coordinates":[4.8900956,52.3672781]},"properties":{"id":"node/13650972146","source":"osm","name":null,"fee":"no","charge":null,"access":null,"wheelchair":"no","opening_hours":null,"operator":null,"description":null,"password":null}},{"type":"Feature","geometry":{"type":"Point","coordinates":[4.8850628,52.3676122]},"properties":{"id":"node/13672141875","source":"osm","name":null,"fee":null,"charge":null,"access":"customers","wheelchair":null,"opening_hours":null,"operator":null,"description":null,"password":null}},{"type":"Feature","geometry":{"type":"Point","coordinates":[4.9663738,52.3733593]},"properties":{"id":"node/13688662579","source":"osm","name":null,"fee":"no","charge":null,"access":"yes","wheelchair":null,"opening_hours":null,"operator":null,"description":null,"password":null}},{"type":"Feature","geometry":{"type":"Point","coordinates":[4.9476134,52.3122184]},"properties":{"id":"node/13840563405","source":"osm","name":null,"fee":"yes","charge":"1.10 EUR","access":"yes","wheelchair":null,"opening_hours":"24/7","operator":"SANIFAIR GmbH","description":null,"password":null}},{"type":"Feature","geometry":{"type":"Point","coordinates":[4.9488353,52.358835]},"properties":{"id":"node/13876660902","source":"osm","name":null,"fee":null,"charge":null,"access":null,"wheelchair":null,"opening_hours":null,"operator":null,"description":null,"password":null}},{"type":"Feature","geometry":{"type":"Point","coordinates":[4.9512332,52.3599366]},"properties":{"id":"node/13876681701","source":"osm","name":null,"fee":null,"charge":null,"access":null,"wheelchair":null,"opening_hours":null,"operator":null,"description":null,"password":null}},{"type":"Feature","geometry":{"type":"Point","coordinates":[4.860558,52.3324922]},"properties":{"id":"node/13901622501","source":"osm","name":null,"fee":null,"charge":null,"access":null,"wheelchair":null,"opening_hours":"Mo-Su 09:00-17:00","operator":null,"description":null,"password":null}},{"type":"Feature","geometry":{"type":"Point","coordinates":[4.7716973,52.397914]},"properties":{"id":"node/13951992197","source":"osm","name":null,"fee":null,"charge":null,"access":null,"wheelchair":null,"opening_hours":null,"operator":null,"description":null,"password":null}},{"type":"Feature","geometry":{"type":"Point","coordinates":[4.9128128,52.3487727]},"properties":{"id":"node/14000697191","source":"osm","name":null,"fee":"no","charge":null,"access":null,"wheelchair":null,"opening_hours":null,"operator":null,"description":null,"password":null}},{"type":"Feature","geometry":{"type":"Point","coordinates":[4.8916608,52.3673254]},"properties":{"id":"node/14014908101","source":"osm","name":null,"fee":null,"charge":null,"access":null,"wheelchair":null,"opening_hours":null,"operator":null,"description":null,"password":null}},{"type":"Feature","geometry":{"type":"Point","coordinates":[4.8952901,52.3332853]},"properties":{"id":"node/14066301840","source":"osm","name":"Toilet","fee":null,"charge":null,"access":null,"wheelchair":null,"opening_hours":null,"operator":null,"description":null,"password":null}},{"type":"Feature","geometry":{"type":"Point","coordinates":[4.8714274,52.35857]},"properties":{"id":"way/222007696","source":"osm","name":null,"fee":"yes","charge":null,"access":"yes","wheelchair":"yes","opening_hours":null,"operator":null,"description":null,"password":null}},{"type":"Feature","geometry":{"type":"Point","coordinates":[4.9322961,52.3910249]},"properties":{"id":"way/280804531","source":"osm","name":null,"fee":"no","charge":null,"access":null,"wheelchair":"limited","opening_hours":null,"operator":null,"description":null,"password":null}},{"type":"Feature","geometry":{"type":"Point","coordinates":[4.8985867,52.3639178]},"properties":{"id":"way/307863111","source":"osm","name":null,"fee":"no","charge":null,"access":null,"wheelchair":"no","opening_hours":null,"operator":null,"description":null,"password":null}},{"type":"Feature","geometry":{"type":"Point","coordinates":[4.9851117,52.3107322]},"properties":{"id":"way/1122615804","source":"osm","name":null,"fee":"no","charge":null,"access":"yes","wheelchair":"no","opening_hours":null,"operator":null,"description":"Plaskrul","password":null}},{"type":"Feature","geometry":{"type":"Point","coordinates":[4.9053499,52.383852]},"properties":{"id":"way/1206944876","source":"osm","name":null,"fee":"no","charge":null,"access":"yes","wheelchair":"yes","opening_hours":null,"operator":null,"description":null,"password":null}}]}