{"type":"FeatureCollection","attribution":"© OpenStreetMap contributors (ODbL)","generated_at":"2026-08-21T09:46:53.469Z","features":[{"type":"Feature","geometry":{"type":"Point","coordinates":[4.2624993,52.0960561]},"properties":{"id":"node/1415482013","source":"osm","name":null,"fee":null,"charge":null,"access":null,"wheelchair":"yes","opening_hours":null,"operator":null,"description":null,"password":null}},{"type":"Feature","geometry":{"type":"Point","coordinates":[4.3172552,52.0775391]},"properties":{"id":"node/1525256407","source":"osm","name":null,"fee":null,"charge":null,"access":"customers","wheelchair":null,"opening_hours":null,"operator":null,"description":null,"password":null}},{"type":"Feature","geometry":{"type":"Point","coordinates":[4.3176166,52.0782189]},"properties":{"id":"node/1525256430","source":"osm","name":null,"fee":"no","charge":null,"access":"yes","wheelchair":null,"opening_hours":null,"operator":null,"description":null,"password":null}},{"type":"Feature","geometry":{"type":"Point","coordinates":[4.2785843,52.1118709]},"properties":{"id":"node/1850283155","source":"osm","name":null,"fee":"yes","charge":"1.00€","access":"yes","wheelchair":"yes","opening_hours":null,"operator":null,"description":null,"password":null}},{"type":"Feature","geometry":{"type":"Point","coordinates":[4.2983189,52.0998311]},"properties":{"id":"node/1976145941","source":"osm","name":null,"fee":"no","charge":null,"access":null,"wheelchair":"yes","opening_hours":null,"operator":null,"description":null,"password":null}},{"type":"Feature","geometry":{"type":"Point","coordinates":[4.2984998,52.0989324]},"properties":{"id":"node/1976145942","source":"osm","name":null,"fee":"no","charge":null,"access":null,"wheelchair":null,"opening_hours":null,"operator":null,"description":null,"password":null}},{"type":"Feature","geometry":{"type":"Point","coordinates":[4.3502146,52.0543243]},"properties":{"id":"node/2391480624","source":"osm","name":null,"fee":null,"charge":null,"access":null,"wheelchair":null,"opening_hours":null,"operator":null,"description":null,"password":null}},{"type":"Feature","geometry":{"type":"Point","coordinates":[4.3492431,52.0558649]},"properties":{"id":"node/2391481115","source":"osm","name":null,"fee":null,"charge":null,"access":null,"wheelchair":null,"opening_hours":null,"operator":"Drievliet","description":null,"password":null}},{"type":"Feature","geometry":{"type":"Point","coordinates":[4.3176429,52.0653998]},"properties":{"id":"node/2726142923","source":"osm","name":"2theloo","fee":"yes","charge":null,"access":null,"wheelchair":null,"opening_hours":null,"operator":null,"description":null,"password":null}},{"type":"Feature","geometry":{"type":"Point","coordinates":[4.2170884,52.0353719]},"properties":{"id":"node/2731472326","source":"osm","name":null,"fee":null,"charge":null,"access":null,"wheelchair":null,"opening_hours":"Apr-Oct 00:00-24:00; Nov-Mar off","operator":null,"description":null,"password":null}},{"type":"Feature","geometry":{"type":"Point","coordinates":[4.2269499,52.0388047]},"properties":{"id":"node/2731485647","source":"osm","name":null,"fee":null,"charge":null,"access":null,"wheelchair":null,"opening_hours":"Apr-Oct 00:00-24:00; Nov-Mar off","operator":null,"description":null,"password":null}},{"type":"Feature","geometry":{"type":"Point","coordinates":[4.2256213,52.058617]},"properties":{"id":"node/2731534095","source":"osm","name":null,"fee":null,"charge":null,"access":"key","wheelchair":null,"opening_hours":null,"operator":null,"description":null,"password":null}},{"type":"Feature","geometry":{"type":"Point","coordinates":[4.2808941,52.1168025]},"properties":{"id":"node/4895902421","source":"osm","name":null,"fee":"yes","charge":null,"access":null,"wheelchair":"no","opening_hours":null,"operator":null,"description":null,"password":null}},{"type":"Feature","geometry":{"type":"Point","coordinates":[4.2819702,52.1162044]},"properties":{"id":"node/4895959822","source":"osm","name":null,"fee":"yes","charge":null,"access":null,"wheelchair":"no","opening_hours":null,"operator":null,"description":null,"password":null}},{"type":"Feature","geometry":{"type":"Point","coordinates":[4.3340647,52.0649763]},"properties":{"id":"node/4915445155","source":"osm","name":null,"fee":null,"charge":null,"access":null,"wheelchair":null,"opening_hours":null,"operator":null,"description":null,"password":null}},{"type":"Feature","geometry":{"type":"Point","coordinates":[4.2973719,52.0663102]},"properties":{"id":"node/5175044509","source":"osm","name":null,"fee":null,"charge":null,"access":null,"wheelchair":null,"opening_hours":null,"operator":null,"description":null,"password":null}},{"type":"Feature","geometry":{"type":"Point","coordinates":[4.2708839,52.1068322]},"properties":{"id":"node/5424619831","source":"osm","name":null,"fee":"no","charge":null,"access":"yes","wheelchair":"yes","opening_hours":null,"operator":"Sanitronics Self Cleaning Openbaar Toilet","description":null,"password":null}},{"type":"Feature","geometry":{"type":"Point","coordinates":[4.2996939,52.02677]},"properties":{"id":"node/5939560749","source":"osm","name":null,"fee":null,"charge":null,"access":null,"wheelchair":null,"opening_hours":null,"operator":null,"description":null,"password":null}},{"type":"Feature","geometry":{"type":"Point","coordinates":[4.2991559,52.0648973]},"properties":{"id":"node/5959784736","source":"osm","name":null,"fee":"yes","charge":"0.50 EUR","access":null,"wheelchair":null,"opening_hours":null,"operator":null,"description":null,"password":null}},{"type":"Feature","geometry":{"type":"Point","coordinates":[4.3106747,52.0788854]},"properties":{"id":"node/7896899771","source":"osm","name":null,"fee":"50 cent","charge":null,"access":null,"wheelchair":"yes","opening_hours":null,"operator":null,"description":"mit wickeltisch","password":null}},{"type":"Feature","geometry":{"type":"Point","coordinates":[4.3429684,52.079184]},"properties":{"id":"node/8507541418","source":"osm","name":null,"fee":"yes","charge":null,"access":"yes","wheelchair":"yes","opening_hours":"24/7","operator":null,"description":null,"password":null}},{"type":"Feature","geometry":{"type":"Point","coordinates":[4.3193644,52.0731611]},"properties":{"id":"node/9177082901","source":"osm","name":null,"fee":"no","charge":null,"access":null,"wheelchair":"yes","opening_hours":null,"operator":null,"description":null,"password":null}},{"type":"Feature","geometry":{"type":"Point","coordinates":[4.3242179,52.0815237]},"properties":{"id":"node/9543746808","source":"osm","name":null,"fee":"yes","charge":"0.70 EUR","access":"yes","wheelchair":"yes","opening_hours":null,"operator":null,"description":"onderaan de trap","password":null}},{"type":"Feature","geometry":{"type":"Point","coordinates":[4.2863687,52.0529684]},"properties":{"id":"node/10871172505","source":"osm","name":null,"fee":null,"charge":null,"access":null,"wheelchair":null,"opening_hours":null,"operator":null,"description":null,"password":null}},{"type":"Feature","geometry":{"type":"Point","coordinates":[4.324923,52.0794937]},"properties":{"id":"node/11137752505","source":"osm","name":null,"fee":"no","charge":null,"access":"yes","wheelchair":"no","opening_hours":"24/7","operator":null,"description":null,"password":null}},{"type":"Feature","geometry":{"type":"Point","coordinates":[4.2853515,52.0603633]},"properties":{"id":"node/11141981906","source":"osm","name":null,"fee":null,"charge":null,"access":null,"wheelchair":null,"opening_hours":"24/7","operator":null,"description":null,"password":null}},{"type":"Feature","geometry":{"type":"Point","coordinates":[4.2837874,52.0598972]},"properties":{"id":"node/11141981907","source":"osm","name":null,"fee":null,"charge":null,"access":null,"wheelchair":null,"opening_hours":"24/7","operator":null,"description":null,"password":null}},{"type":"Feature","geometry":{"type":"Point","coordinates":[4.2807796,52.0584218]},"properties":{"id":"node/11141981908","source":"osm","name":null,"fee":null,"charge":null,"access":null,"wheelchair":null,"opening_hours":"24/7","operator":null,"description":null,"password":null}},{"type":"Feature","geometry":{"type":"Point","coordinates":[4.3239334,52.0742709]},"properties":{"id":"node/11196259664","source":"osm","name":null,"fee":null,"charge":null,"access":"yes","wheelchair":"no","opening_hours":null,"operator":null,"description":null,"password":null}},{"type":"Feature","geometry":{"type":"Point","coordinates":[4.3119866,52.0725289]},"properties":{"id":"node/11225324199","source":"osm","name":null,"fee":"no","charge":null,"access":null,"wheelchair":"no","opening_hours":null,"operator":null,"description":null,"password":null}},{"type":"Feature","geometry":{"type":"Point","coordinates":[4.2885496,52.0550117]},"properties":{"id":"node/11473330088","source":"osm","name":null,"fee":null,"charge":null,"access":"customers","wheelchair":null,"opening_hours":null,"operator":null,"description":null,"password":null}},{"type":"Feature","geometry":{"type":"Point","coordinates":[4.284559,52.1149734]},"properties":{"id":"node/11763944864","source":"osm","name":"Toilette","fee":"yes","charge":null,"access":null,"wheelchair":null,"opening_hours":null,"operator":null,"description":null,"password":null}},{"type":"Feature","geometry":{"type":"Point","coordinates":[4.3226648,52.0698416]},"properties":{"id":"node/11964556324","source":"osm","name":"Sanifair","fee":"yes","charge":"1.10 EUR","access":"yes","wheelchair":"yes","opening_hours":"Mo-Su 07:00-21:00","operator":"SANIFAIR GmbH","description":null,"password":null}},{"type":"Feature","geometry":{"type":"Point","coordinates":[4.2832905,52.1145991]},"properties":{"id":"node/12592937337","source":"osm","name":null,"fee":null,"charge":null,"access":null,"wheelchair":null,"opening_hours":null,"operator":null,"description":null,"password":null}},{"type":"Feature","geometry":{"type":"Point","coordinates":[4.282366,52.1153845]},"properties":{"id":"node/12592942411","source":"osm","name":null,"fee":null,"charge":null,"access":null,"wheelchair":null,"opening_hours":null,"operator":null,"description":null,"password":null}},{"type":"Feature","geometry":{"type":"Point","coordinates":[4.2972435,52.0865777]},"properties":{"id":"node/12873177001","source":"osm","name":null,"fee":null,"charge":null,"access":null,"wheelchair":null,"opening_hours":null,"operator":null,"description":null,"password":null}},{"type":"Feature","geometry":{"type":"Point","coordinates":[4.2842573,52.1165321]},"properties":{"id":"node/12943600204","source":"osm","name":null,"fee":null,"charge":null,"access":null,"wheelchair":null,"opening_hours":null,"operator":null,"description":null,"password":null}},{"type":"Feature","geometry":{"type":"Point","coordinates":[4.3062343,52.1175466]},"properties":{"id":"node/13037178671","source":"osm","name":null,"fee":"no","charge":null,"access":null,"wheelchair":"no","opening_hours":"Mar-Oct 24/7","operator":null,"description":null,"password":null}},{"type":"Feature","geometry":{"type":"Point","coordinates":[4.3134471,52.0768166]},"properties":{"id":"node/13058261335","source":"osm","name":null,"fee":"yes","charge":null,"access":"yes","wheelchair":null,"opening_hours":null,"operator":"HEMA","description":null,"password":null}},{"type":"Feature","geometry":{"type":"Point","coordinates":[4.293926,52.1217289]},"properties":{"id":"node/13115882802","source":"osm","name":null,"fee":null,"charge":null,"access":null,"wheelchair":null,"opening_hours":"Mo-Su 11:00-19:00","operator":null,"description":null,"password":null}},{"type":"Feature","geometry":{"type":"Point","coordinates":[4.2213662,52.0687756]},"properties":{"id":"node/13482408874","source":"osm","name":null,"fee":"yes","charge":null,"access":null,"wheelchair":null,"opening_hours":null,"operator":null,"description":null,"password":null}},{"type":"Feature","geometry":{"type":"Point","coordinates":[4.2625765,52.1011976]},"properties":{"id":"node/13710949107","source":"osm","name":null,"fee":null,"charge":null,"access":null,"wheelchair":null,"opening_hours":null,"operator":null,"description":null,"password":null}},{"type":"Feature","geometry":{"type":"Point","coordinates":[4.2708786,52.1068118]},"properties":{"id":"node/13714553832","source":"osm","name":null,"fee":null,"charge":null,"access":null,"wheelchair":null,"opening_hours":null,"operator":null,"description":null,"password":null}},{"type":"Feature","geometry":{"type":"Point","coordinates":[4.3143615,52.0775821]},"properties":{"id":"node/14006033860","source":"osm","name":null,"fee":"yes","charge":null,"access":"yes","wheelchair":null,"opening_hours":null,"operator":"McDonald's","description":null,"password":null}},{"type":"Feature","geometry":{"type":"Point","coordinates":[4.3095928,52.0762759]},"properties":{"id":"node/14006052083","source":"osm","name":null,"fee":"yes","charge":null,"access":"yes","wheelchair":null,"opening_hours":null,"operator":"McDonald's","description":null,"password":null}},{"type":"Feature","geometry":{"type":"Point","coordinates":[4.3026249,52.0826577]},"properties":{"id":"node/14082116726","source":"osm","name":null,"fee":null,"charge":null,"access":"customers","wheelchair":null,"opening_hours":null,"operator":null,"description":null,"password":null}},{"type":"Feature","geometry":{"type":"Point","coordinates":[4.2843766,52.1136712]},"properties":{"id":"way/250685021","source":"osm","name":null,"fee":"yes","charge":null,"access":null,"wheelchair":null,"opening_hours":null,"operator":null,"description":"Open for public, cost 50cent, rollchair ok","password":null}},{"type":"Feature","geometry":{"type":"Point","coordinates":[4.2842725,52.1137335]},"properties":{"id":"way/250686389","source":"osm","name":null,"fee":"yes","charge":null,"access":null,"wheelchair":null,"opening_hours":null,"operator":null,"description":"Open for public, cost 50cent, rollchair ok","password":null}},{"type":"Feature","geometry":{"type":"Point","coordinates":[4.2890452,52.1165751]},"properties":{"id":"way/1290390413","source":"osm","name":null,"fee":"no","charge":null,"access":"yes","wheelchair":"yes","opening_hours":"24/7","operator":null,"description":null,"password":null}}]}