{"type":"FeatureCollection","attribution":"© OpenStreetMap contributors (ODbL)","generated_at":"2026-08-24T09:47:58.203Z","features":[{"type":"Feature","geometry":{"type":"Point","coordinates":[11.2647746,43.7609927]},"properties":{"id":"node/468096585","source":"osm","name":null,"fee":"yes","charge":"1 EUR","access":"yes","wheelchair":"yes","opening_hours":null,"operator":null,"description":null,"password":null}},{"type":"Feature","geometry":{"type":"Point","coordinates":[11.250232,43.7642082]},"properties":{"id":"node/468096599","source":"osm","name":null,"fee":"no","charge":null,"access":"permit","wheelchair":"no","opening_hours":null,"operator":null,"description":null,"password":null}},{"type":"Feature","geometry":{"type":"Point","coordinates":[11.2511452,43.7623828]},"properties":{"id":"node/468096601","source":"osm","name":null,"fee":"no","charge":null,"access":"customers","wheelchair":"yes","opening_hours":null,"operator":null,"description":null,"password":null}},{"type":"Feature","geometry":{"type":"Point","coordinates":[11.2888312,43.75748]},"properties":{"id":"node/937492356","source":"osm","name":null,"fee":null,"charge":null,"access":null,"wheelchair":null,"opening_hours":null,"operator":null,"description":null,"password":null}},{"type":"Feature","geometry":{"type":"Point","coordinates":[11.2503453,43.7675221]},"properties":{"id":"node/1107371906","source":"osm","name":null,"fee":"yes","charge":"1€","access":null,"wheelchair":null,"opening_hours":"Oct 01-Mar 20 10:00-18:00;Mar 21-May 31 10:00-19:00;Jun 01-Sep 30 09:00-19:00","operator":"Comune di Firenze","description":null,"password":null}},{"type":"Feature","geometry":{"type":"Point","coordinates":[11.2288106,43.819644]},"properties":{"id":"node/1460287945","source":"osm","name":null,"fee":null,"charge":null,"access":null,"wheelchair":null,"opening_hours":null,"operator":null,"description":null,"password":null}},{"type":"Feature","geometry":{"type":"Point","coordinates":[11.2550042,43.77356]},"properties":{"id":"node/2724221264","source":"osm","name":null,"fee":"yes","charge":"1 EUR","access":"yes","wheelchair":null,"opening_hours":null,"operator":null,"description":null,"password":null}},{"type":"Feature","geometry":{"type":"Point","coordinates":[11.3218149,43.7826837]},"properties":{"id":"node/3080842395","source":"osm","name":null,"fee":null,"charge":null,"access":null,"wheelchair":null,"opening_hours":null,"operator":null,"description":null,"password":null}},{"type":"Feature","geometry":{"type":"Point","coordinates":[11.22054,43.7312961]},"properties":{"id":"node/3303927069","source":"osm","name":null,"fee":null,"charge":null,"access":null,"wheelchair":null,"opening_hours":null,"operator":null,"description":null,"password":null}},{"type":"Feature","geometry":{"type":"Point","coordinates":[11.2614052,43.7682398]},"properties":{"id":"node/3426380435","source":"osm","name":null,"fee":"yes","charge":"1.00 EUR","access":"yes","wheelchair":"yes","opening_hours":null,"operator":null,"description":null,"password":null}},{"type":"Feature","geometry":{"type":"Point","coordinates":[11.247201,43.7765106]},"properties":{"id":"node/3426416071","source":"osm","name":null,"fee":"yes","charge":"1 EUR","access":"customers","wheelchair":"yes","opening_hours":"07:00-21:00","operator":null,"description":null,"password":null}},{"type":"Feature","geometry":{"type":"Point","coordinates":[11.258834,43.7696102]},"properties":{"id":"node/3426422284","source":"osm","name":null,"fee":"yes","charge":"1 EUR","access":"yes","wheelchair":"yes","opening_hours":"Mo-Su,PH 09:30-19:30","operator":null,"description":null,"password":null}},{"type":"Feature","geometry":{"type":"Point","coordinates":[11.2490809,43.7740429]},"properties":{"id":"node/3426437563","source":"osm","name":null,"fee":"1.00","charge":null,"access":null,"wheelchair":"yes","opening_hours":"09:00-20:00","operator":null,"description":null,"password":null}},{"type":"Feature","geometry":{"type":"Point","coordinates":[11.2511926,43.7816467]},"properties":{"id":"node/3426440786","source":"osm","name":null,"fee":"no","charge":null,"access":null,"wheelchair":"yes","opening_hours":null,"operator":null,"description":null,"password":null}},{"type":"Feature","geometry":{"type":"Point","coordinates":[11.2643813,43.7707503]},"properties":{"id":"node/3426464890","source":"osm","name":null,"fee":"yes","charge":null,"access":null,"wheelchair":"limited","opening_hours":null,"operator":null,"description":null,"password":null}},{"type":"Feature","geometry":{"type":"Point","coordinates":[11.2568055,43.7697103]},"properties":{"id":"node/4354490790","source":"osm","name":null,"fee":null,"charge":null,"access":null,"wheelchair":"yes","opening_hours":null,"operator":"Gucci Museum Coffee House","description":null,"password":null}},{"type":"Feature","geometry":{"type":"Point","coordinates":[11.3074097,43.7653511]},"properties":{"id":"node/4445201890","source":"osm","name":null,"fee":null,"charge":null,"access":null,"wheelchair":null,"opening_hours":null,"operator":null,"description":null,"password":null}},{"type":"Feature","geometry":{"type":"Point","coordinates":[11.2555157,43.7752151]},"properties":{"id":"node/4579832392","source":"osm","name":null,"fee":"no","charge":null,"access":"yes","wheelchair":null,"opening_hours":null,"operator":null,"description":null,"password":null}},{"type":"Feature","geometry":{"type":"Point","coordinates":[11.1970438,43.7653148]},"properties":{"id":"node/4674451989","source":"osm","name":null,"fee":"no","charge":null,"access":"yes","wheelchair":"yes","opening_hours":null,"operator":null,"description":null,"password":null}},{"type":"Feature","geometry":{"type":"Point","coordinates":[11.2867243,43.8275298]},"properties":{"id":"node/4676728597","source":"osm","name":null,"fee":"no","charge":null,"access":"yes","wheelchair":null,"opening_hours":null,"operator":null,"description":null,"password":null}},{"type":"Feature","geometry":{"type":"Point","coordinates":[11.2398845,43.7958209]},"properties":{"id":"node/4789950196","source":"osm","name":null,"fee":"yes","charge":null,"access":"yes","wheelchair":null,"opening_hours":null,"operator":"Comune di Firenze","description":null,"password":null}},{"type":"Feature","geometry":{"type":"Point","coordinates":[11.2621914,43.7684032]},"properties":{"id":"node/5087034422","source":"osm","name":null,"fee":"no","charge":null,"access":null,"wheelchair":"no","opening_hours":null,"operator":null,"description":null,"password":null}},{"type":"Feature","geometry":{"type":"Point","coordinates":[11.2527064,43.7766392]},"properties":{"id":"node/5849217286","source":"osm","name":null,"fee":"yes","charge":"1.00 EUR","access":null,"wheelchair":"no","opening_hours":null,"operator":null,"description":null,"password":null}},{"type":"Feature","geometry":{"type":"Point","coordinates":[11.2474553,43.7669822]},"properties":{"id":"node/5881518117","source":"osm","name":"Santo Spirito Toilet","fee":"yes","charge":"1€","access":null,"wheelchair":null,"opening_hours":"Mo-Su 09:30-19:30","operator":null,"description":null,"password":null}},{"type":"Feature","geometry":{"type":"Point","coordinates":[11.2465609,43.7668314]},"properties":{"id":"node/6304538578","source":"osm","name":"Bagno Comunale","fee":"yes","charge":null,"access":null,"wheelchair":null,"opening_hours":null,"operator":null,"description":null,"password":null}},{"type":"Feature","geometry":{"type":"Point","coordinates":[11.2531494,43.7762247]},"properties":{"id":"node/6318213167","source":"osm","name":null,"fee":"no","charge":null,"access":null,"wheelchair":"yes","opening_hours":null,"operator":null,"description":null,"password":null}},{"type":"Feature","geometry":{"type":"Point","coordinates":[11.2409321,43.766501]},"properties":{"id":"node/6397792847","source":"osm","name":null,"fee":"yes","charge":"1 EUR","access":null,"wheelchair":"yes","opening_hours":null,"operator":null,"description":null,"password":null}},{"type":"Feature","geometry":{"type":"Point","coordinates":[11.2651985,43.7596499]},"properties":{"id":"node/6436830644","source":"osm","name":null,"fee":null,"charge":null,"access":"yes","wheelchair":null,"opening_hours":null,"operator":null,"description":null,"password":null}},{"type":"Feature","geometry":{"type":"Point","coordinates":[11.2653127,43.7598225]},"properties":{"id":"node/6436830649","source":"osm","name":null,"fee":"yes","charge":null,"access":null,"wheelchair":null,"opening_hours":null,"operator":null,"description":null,"password":null}},{"type":"Feature","geometry":{"type":"Point","coordinates":[11.268358,43.7864982]},"properties":{"id":"node/7285437454","source":"osm","name":null,"fee":"yes","charge":null,"access":null,"wheelchair":"no","opening_hours":null,"operator":null,"description":null,"password":null}},{"type":"Feature","geometry":{"type":"Point","coordinates":[11.2758186,43.7779436]},"properties":{"id":"node/8479866980","source":"osm","name":null,"fee":"yes","charge":null,"access":null,"wheelchair":null,"opening_hours":null,"operator":null,"description":null,"password":null}},{"type":"Feature","geometry":{"type":"Point","coordinates":[11.2756845,43.7781555]},"properties":{"id":"node/8479866995","source":"osm","name":null,"fee":"yes","charge":null,"access":null,"wheelchair":"no","opening_hours":null,"operator":null,"description":null,"password":null}},{"type":"Feature","geometry":{"type":"Point","coordinates":[11.2010936,43.8024294]},"properties":{"id":"node/8601765522","source":"osm","name":null,"fee":"no","charge":null,"access":null,"wheelchair":"yes","opening_hours":null,"operator":null,"description":null,"password":null}},{"type":"Feature","geometry":{"type":"Point","coordinates":[11.1999392,43.8020789]},"properties":{"id":"node/8601941518","source":"osm","name":null,"fee":"no","charge":null,"access":null,"wheelchair":"yes","opening_hours":null,"operator":null,"description":null,"password":null}},{"type":"Feature","geometry":{"type":"Point","coordinates":[11.1997776,43.8021824]},"properties":{"id":"node/8601941521","source":"osm","name":null,"fee":"no","charge":null,"access":null,"wheelchair":"yes","opening_hours":null,"operator":null,"description":null,"password":null}},{"type":"Feature","geometry":{"type":"Point","coordinates":[11.2639122,43.7630419]},"properties":{"id":"node/9966248060","source":"osm","name":null,"fee":"yes","charge":null,"access":"yes","wheelchair":"no","opening_hours":null,"operator":null,"description":null,"password":null}},{"type":"Feature","geometry":{"type":"Point","coordinates":[11.2632934,43.7625033]},"properties":{"id":"node/9978720792","source":"osm","name":null,"fee":"yes","charge":"1 EUR","access":null,"wheelchair":null,"opening_hours":null,"operator":null,"description":null,"password":null}},{"type":"Feature","geometry":{"type":"Point","coordinates":[11.2638382,43.7630502]},"properties":{"id":"node/10003945739","source":"osm","name":null,"fee":"yes","charge":null,"access":null,"wheelchair":null,"opening_hours":null,"operator":null,"description":null,"password":null}},{"type":"Feature","geometry":{"type":"Point","coordinates":[11.2675976,43.7706424]},"properties":{"id":"node/10048632117","source":"osm","name":null,"fee":null,"charge":null,"access":null,"wheelchair":null,"opening_hours":"Mo-Su 08:00-20:00","operator":null,"description":null,"password":null}},{"type":"Feature","geometry":{"type":"Point","coordinates":[11.2550654,43.7735116]},"properties":{"id":"node/10123185317","source":"osm","name":null,"fee":"yes","charge":"1 EUR","access":"yes","wheelchair":null,"opening_hours":null,"operator":null,"description":null,"password":null}},{"type":"Feature","geometry":{"type":"Point","coordinates":[11.2671456,43.7706798]},"properties":{"id":"node/11090486294","source":"osm","name":"Sant'Ambrogio Toilet","fee":"yes","charge":"1.00 EUR","access":"yes","wheelchair":"yes","opening_hours":null,"operator":null,"description":null,"password":null}},{"type":"Feature","geometry":{"type":"Point","coordinates":[11.2470796,43.7766512]},"properties":{"id":"node/11094141733","source":"osm","name":null,"fee":"yes","charge":null,"access":null,"wheelchair":"yes","opening_hours":null,"operator":null,"description":null,"password":null}},{"type":"Feature","geometry":{"type":"Point","coordinates":[11.2499829,43.7649281]},"properties":{"id":"node/11143914430","source":"osm","name":null,"fee":null,"charge":null,"access":"permit","wheelchair":null,"opening_hours":null,"operator":null,"description":null,"password":null}},{"type":"Feature","geometry":{"type":"Point","coordinates":[11.2455083,43.8013546]},"properties":{"id":"node/11993686827","source":"osm","name":null,"fee":"no","charge":null,"access":null,"wheelchair":"yes","opening_hours":null,"operator":null,"description":null,"password":null}},{"type":"Feature","geometry":{"type":"Point","coordinates":[11.2700661,43.7655763]},"properties":{"id":"node/12031702501","source":"osm","name":null,"fee":null,"charge":null,"access":null,"wheelchair":null,"opening_hours":null,"operator":null,"description":null,"password":null}},{"type":"Feature","geometry":{"type":"Point","coordinates":[11.2495193,43.7754724]},"properties":{"id":"node/12469091900","source":"osm","name":null,"fee":"yes","charge":"1","access":"yes","wheelchair":"limited","opening_hours":null,"operator":null,"description":null,"password":null}},{"type":"Feature","geometry":{"type":"Point","coordinates":[11.2495714,43.7754829]},"properties":{"id":"node/12469099701","source":"osm","name":null,"fee":"yes","charge":"1","access":"yes","wheelchair":"limited","opening_hours":null,"operator":null,"description":null,"password":null}},{"type":"Feature","geometry":{"type":"Point","coordinates":[11.2796511,43.7862977]},"properties":{"id":"node/12471491704","source":"osm","name":null,"fee":null,"charge":null,"access":null,"wheelchair":null,"opening_hours":null,"operator":null,"description":null,"password":null}},{"type":"Feature","geometry":{"type":"Point","coordinates":[11.2449206,43.8028362]},"properties":{"id":"node/12765823112","source":"osm","name":null,"fee":"no","charge":null,"access":"customers","wheelchair":"no","opening_hours":"24/7","operator":null,"description":null,"password":null}},{"type":"Feature","geometry":{"type":"Point","coordinates":[11.2622777,43.7784527]},"properties":{"id":"node/12896639629","source":"osm","name":null,"fee":"no","charge":null,"access":"customers","wheelchair":"yes","opening_hours":null,"operator":null,"description":null,"password":null}},{"type":"Feature","geometry":{"type":"Point","coordinates":[11.2797761,43.7862886]},"properties":{"id":"node/13059293901","source":"osm","name":null,"fee":null,"charge":null,"access":null,"wheelchair":null,"opening_hours":null,"operator":null,"description":null,"password":null}},{"type":"Feature","geometry":{"type":"Point","coordinates":[11.2575609,43.7647998]},"properties":{"id":"node/13139319292","source":"osm","name":null,"fee":null,"charge":null,"access":"customers","wheelchair":"no","opening_hours":null,"operator":null,"description":null,"password":null}},{"type":"Feature","geometry":{"type":"Point","coordinates":[11.2687855,43.7689584]},"properties":{"id":"node/13232528420","source":"osm","name":null,"fee":"yes","charge":null,"access":"yes","wheelchair":null,"opening_hours":"24/7","operator":null,"description":null,"password":null}},{"type":"Feature","geometry":{"type":"Point","coordinates":[11.2446604,43.8022979]},"properties":{"id":"node/13287691101","source":"osm","name":null,"fee":"no","charge":null,"access":null,"wheelchair":"no","opening_hours":null,"operator":null,"description":null,"password":null}},{"type":"Feature","geometry":{"type":"Point","coordinates":[11.21004,43.7708456]},"properties":{"id":"node/13723066000","source":"osm","name":null,"fee":"no","charge":null,"access":null,"wheelchair":null,"opening_hours":null,"operator":null,"description":null,"password":null}},{"type":"Feature","geometry":{"type":"Point","coordinates":[11.2313744,43.8031935]},"properties":{"id":"node/13765868842","source":"osm","name":null,"fee":null,"charge":null,"access":null,"wheelchair":null,"opening_hours":null,"operator":null,"description":null,"password":null}},{"type":"Feature","geometry":{"type":"Point","coordinates":[11.2405708,43.7721722]},"properties":{"id":"node/13866527601","source":"osm","name":null,"fee":null,"charge":null,"access":null,"wheelchair":null,"opening_hours":null,"operator":null,"description":null,"password":null}},{"type":"Feature","geometry":{"type":"Point","coordinates":[11.2571877,43.7632277]},"properties":{"id":"node/13868927006","source":"osm","name":null,"fee":null,"charge":null,"access":null,"wheelchair":null,"opening_hours":null,"operator":null,"description":null,"password":null}},{"type":"Feature","geometry":{"type":"Point","coordinates":[11.3156996,43.7654773]},"properties":{"id":"node/13963471045","source":"osm","name":null,"fee":"no","charge":null,"access":"customers","wheelchair":"yes","opening_hours":null,"operator":null,"description":null,"password":null}},{"type":"Feature","geometry":{"type":"Point","coordinates":[11.3167608,43.7655803]},"properties":{"id":"node/13963471055","source":"osm","name":null,"fee":"no","charge":null,"access":"customers","wheelchair":"yes","opening_hours":null,"operator":null,"description":null,"password":null}},{"type":"Feature","geometry":{"type":"Point","coordinates":[11.2444319,43.7517602]},"properties":{"id":"node/13998078301","source":"osm","name":null,"fee":null,"charge":null,"access":null,"wheelchair":null,"opening_hours":"24/7","operator":null,"description":null,"password":null}},{"type":"Feature","geometry":{"type":"Point","coordinates":[11.2456205,43.7636714]},"properties":{"id":"way/305128785","source":"osm","name":null,"fee":"no","charge":null,"access":"customers","wheelchair":"no","opening_hours":null,"operator":"MiBAC","description":null,"password":null}},{"type":"Feature","geometry":{"type":"Point","coordinates":[11.2863165,43.8313808]},"properties":{"id":"way/473593966","source":"osm","name":null,"fee":"no","charge":null,"access":"yes","wheelchair":null,"opening_hours":null,"operator":null,"description":null,"password":null}},{"type":"Feature","geometry":{"type":"Point","coordinates":[11.2195944,43.7806313]},"properties":{"id":"way/473821025","source":"osm","name":null,"fee":"yes","charge":null,"access":"yes","wheelchair":"yes","opening_hours":null,"operator":"Comune di Firenze","description":null,"password":null}},{"type":"Feature","geometry":{"type":"Point","coordinates":[11.2377822,43.7787824]},"properties":{"id":"way/478232047","source":"osm","name":"Parcheggio Leopolda","fee":"yes","charge":null,"access":"customers","wheelchair":null,"opening_hours":null,"operator":"Firenze Parcheggi","description":null,"password":null}},{"type":"Feature","geometry":{"type":"Point","coordinates":[11.2364902,43.8005688]},"properties":{"id":"way/733070865","source":"osm","name":null,"fee":"yes","charge":null,"access":null,"wheelchair":"limited","opening_hours":"24/7","operator":null,"description":null,"password":null}},{"type":"Feature","geometry":{"type":"Point","coordinates":[11.2453581,43.80034]},"properties":{"id":"way/1087494261","source":"osm","name":null,"fee":"no","charge":null,"access":null,"wheelchair":"yes","opening_hours":null,"operator":null,"description":null,"password":null}},{"type":"Feature","geometry":{"type":"Point","coordinates":[11.2454083,43.8003255]},"properties":{"id":"way/1087494262","source":"osm","name":null,"fee":"no","charge":null,"access":"permissive","wheelchair":"yes","opening_hours":null,"operator":null,"description":null,"password":null}},{"type":"Feature","geometry":{"type":"Point","coordinates":[11.2455766,43.8008128]},"properties":{"id":"way/1087494265","source":"osm","name":null,"fee":"no","charge":null,"access":null,"wheelchair":"yes","opening_hours":null,"operator":null,"description":null,"password":null}},{"type":"Feature","geometry":{"type":"Point","coordinates":[11.2455311,43.8008258]},"properties":{"id":"way/1087494266","source":"osm","name":null,"fee":"no","charge":null,"access":null,"wheelchair":"yes","opening_hours":null,"operator":null,"description":null,"password":null}},{"type":"Feature","geometry":{"type":"Point","coordinates":[11.2454325,43.8005313]},"properties":{"id":"way/1087494271","source":"osm","name":null,"fee":"no","charge":null,"access":null,"wheelchair":"no","opening_hours":null,"operator":null,"description":null,"password":null}},{"type":"Feature","geometry":{"type":"Point","coordinates":[11.2453857,43.8005466]},"properties":{"id":"way/1087494272","source":"osm","name":null,"fee":"no","charge":null,"access":"customers","wheelchair":"no","opening_hours":"Mo-Fr 07:30-14:30","operator":null,"description":null,"password":null}},{"type":"Feature","geometry":{"type":"Point","coordinates":[11.245185,43.8006029]},"properties":{"id":"way/1087494274","source":"osm","name":null,"fee":"no","charge":null,"access":"yes","wheelchair":"yes","opening_hours":null,"operator":null,"description":null,"password":null}},{"type":"Feature","geometry":{"type":"Point","coordinates":[11.2451382,43.8006183]},"properties":{"id":"way/1087494275","source":"osm","name":null,"fee":"no","charge":null,"access":"yes","wheelchair":"no","opening_hours":null,"operator":null,"description":null,"password":null}},{"type":"Feature","geometry":{"type":"Point","coordinates":[11.2538248,43.7791912]},"properties":{"id":"way/1192826626","source":"osm","name":null,"fee":"yes","charge":null,"access":null,"wheelchair":"limited","opening_hours":null,"operator":null,"description":null,"password":null}},{"type":"Feature","geometry":{"type":"Point","coordinates":[11.2526171,43.7766923]},"properties":{"id":"way/1444363388","source":"osm","name":null,"fee":"yes","charge":"1.5 EUR","access":"yes","wheelchair":"no","opening_hours":null,"operator":null,"description":null,"password":null}},{"type":"Feature","geometry":{"type":"Point","coordinates":[11.222385,43.8213868]},"properties":{"id":"way/1509234833","source":"osm","name":null,"fee":"no","charge":null,"access":"key","wheelchair":"yes","opening_hours":"24/7","operator":null,"description":null,"password":null}},{"type":"Feature","geometry":{"type":"Point","coordinates":[11.2229437,43.8213779]},"properties":{"id":"way/1509239765","source":"osm","name":null,"fee":"no","charge":null,"access":"key","wheelchair":"no","opening_hours":"24/7","operator":null,"description":null,"password":null}},{"type":"Feature","geometry":{"type":"Point","coordinates":[11.248,43.7757]},"properties":{"id":"xhs/mcdonald-s-smn-station","source":"xhs","name":"McDonald's (SMN station)","fee":"yes","charge":null,"access":null,"wheelchair":null,"opening_hours":null,"operator":null,"description":"","password":"1234A","code_confirmed_at":null,"cleanliness":null,"city":"italy/florence"}},{"type":"Feature","geometry":{"type":"Point","coordinates":[11.2558,43.7696]},"properties":{"id":"xhs/mcdonald-s-piazza-della-signoria","source":"xhs","name":"McDonald's (Piazza della Signoria)","fee":"yes","charge":null,"access":null,"wheelchair":null,"opening_hours":null,"operator":null,"description":"领主广场店：看墙上临时密码","password":null,"code_confirmed_at":null,"cleanliness":null,"city":"italy/florence"}},{"type":"Feature","geometry":{"type":"Point","coordinates":[11.248516,43.776953]},"properties":{"id":"xhs/mcdonald-s-opposite-smn","source":"xhs","name":"McDonald's (opposite SMN)","fee":"yes","charge":null,"access":null,"wheelchair":null,"opening_hours":null,"operator":null,"description":"","password":"5123","code_confirmed_at":null,"cleanliness":null,"city":"italy/florence"}},{"type":"Feature","geometry":{"type":"Point","coordinates":[11.264993,43.762828]},"properties":{"id":"xhs/piazzale-michelangelo-stairs-base","source":"xhs","name":"Piazzale Michelangelo (stairs base)","fee":"no","charge":null,"access":null,"wheelchair":null,"opening_hours":null,"operator":null,"description":"台阶底免费厕所","password":null,"code_confirmed_at":null,"cleanliness":null,"city":"italy/florence"}},{"type":"Feature","geometry":{"type":"Point","coordinates":[11.253,43.7725]},"properties":{"id":"xhs/starbucks-near-duomo","source":"xhs","name":"Starbucks (near Duomo)","fee":"no","charge":null,"access":null,"wheelchair":null,"opening_hours":null,"operator":null,"description":"圣母百花教堂旁","password":null,"code_confirmed_at":null,"cleanliness":null,"city":"italy/florence"}},{"type":"Feature","geometry":{"type":"Point","coordinates":[11.254586,43.7713]},"properties":{"id":"xhs/la-rinascente-4f","source":"xhs","name":"la Rinascente (4F)","fee":"no","charge":null,"access":null,"wheelchair":null,"opening_hours":null,"operator":null,"description":"4 楼顶楼右转","password":null,"code_confirmed_at":null,"cleanliness":null,"city":"italy/florence"}},{"type":"Feature","geometry":{"type":"Point","coordinates":[11.253209,43.776585]},"properties":{"id":"xhs/mercato-centrale-2f","source":"xhs","name":"Mercato Centrale (2F)","fee":"no","charge":null,"access":null,"wheelchair":null,"opening_hours":null,"operator":null,"description":"中央市场二楼","password":null,"code_confirmed_at":null,"cleanliness":null,"city":"italy/florence"}}]}