{"type":"FeatureCollection","attribution":"© OpenStreetMap contributors (ODbL)","generated_at":"2026-08-24T09:48:19.553Z","features":[{"type":"Feature","geometry":{"type":"Point","coordinates":[9.6546403,44.1457937]},"properties":{"id":"node/288142877","source":"osm","name":null,"fee":"yes","charge":"1 EUR","access":"yes","wheelchair":"no","opening_hours":null,"operator":null,"description":null,"password":null}},{"type":"Feature","geometry":{"type":"Point","coordinates":[9.6642023,44.1599119]},"properties":{"id":"node/330290422","source":"osm","name":null,"fee":null,"charge":null,"access":null,"wheelchair":null,"opening_hours":"Mo 00:00-00:00, 24:00-00:00","operator":null,"description":null,"password":null}},{"type":"Feature","geometry":{"type":"Point","coordinates":[9.6486182,44.145521]},"properties":{"id":"node/330291265","source":"osm","name":null,"fee":"yes","charge":"1 EUR","access":null,"wheelchair":"no","opening_hours":null,"operator":null,"description":null,"password":null}},{"type":"Feature","geometry":{"type":"Point","coordinates":[9.8906859,44.083534]},"properties":{"id":"node/418885904","source":"osm","name":null,"fee":null,"charge":null,"access":null,"wheelchair":null,"opening_hours":null,"operator":null,"description":null,"password":null}},{"type":"Feature","geometry":{"type":"Point","coordinates":[9.7308356,44.2271647]},"properties":{"id":"node/942829870","source":"osm","name":null,"fee":null,"charge":null,"access":null,"wheelchair":null,"opening_hours":null,"operator":null,"description":null,"password":null}},{"type":"Feature","geometry":{"type":"Point","coordinates":[9.8332974,44.0489187]},"properties":{"id":"node/1939364367","source":"osm","name":null,"fee":"yes","charge":null,"access":null,"wheelchair":null,"opening_hours":null,"operator":null,"description":null,"password":null}},{"type":"Feature","geometry":{"type":"Point","coordinates":[9.5510919,44.2247507]},"properties":{"id":"node/2085142666","source":"osm","name":null,"fee":null,"charge":null,"access":null,"wheelchair":null,"opening_hours":null,"operator":null,"description":null,"password":null}},{"type":"Feature","geometry":{"type":"Point","coordinates":[9.5828766,44.1829729]},"properties":{"id":"node/2177741987","source":"osm","name":null,"fee":"no","charge":null,"access":null,"wheelchair":"yes","opening_hours":null,"operator":null,"description":null,"password":null}},{"type":"Feature","geometry":{"type":"Point","coordinates":[9.8244521,44.1021455]},"properties":{"id":"node/2337633428","source":"osm","name":null,"fee":"no","charge":null,"access":null,"wheelchair":"yes","opening_hours":null,"operator":null,"description":null,"password":null}},{"type":"Feature","geometry":{"type":"Point","coordinates":[9.7260726,44.1075541]},"properties":{"id":"node/2699776203","source":"osm","name":null,"fee":"yes","charge":null,"access":null,"wheelchair":"no","opening_hours":null,"operator":null,"description":null,"password":null}},{"type":"Feature","geometry":{"type":"Point","coordinates":[9.7300092,44.2260442]},"properties":{"id":"node/2844185698","source":"osm","name":null,"fee":"no","charge":null,"access":null,"wheelchair":null,"opening_hours":null,"operator":null,"description":null,"password":null}},{"type":"Feature","geometry":{"type":"Point","coordinates":[10.0186449,44.0633136]},"properties":{"id":"node/3359545818","source":"osm","name":null,"fee":null,"charge":null,"access":null,"wheelchair":null,"opening_hours":null,"operator":null,"description":null,"password":null}},{"type":"Feature","geometry":{"type":"Point","coordinates":[9.9072347,44.0733297]},"properties":{"id":"node/3622471291","source":"osm","name":null,"fee":null,"charge":null,"access":"yes","wheelchair":null,"opening_hours":null,"operator":null,"description":null,"password":null}},{"type":"Feature","geometry":{"type":"Point","coordinates":[9.7165159,44.1185626]},"properties":{"id":"node/3831664246","source":"osm","name":null,"fee":"yes","charge":null,"access":"yes","wheelchair":null,"opening_hours":null,"operator":null,"description":null,"password":null}},{"type":"Feature","geometry":{"type":"Point","coordinates":[9.9674735,44.041636]},"properties":{"id":"node/4081254334","source":"osm","name":null,"fee":null,"charge":null,"access":null,"wheelchair":null,"opening_hours":null,"operator":null,"description":null,"password":null}},{"type":"Feature","geometry":{"type":"Point","coordinates":[9.7402993,44.100059]},"properties":{"id":"node/4088753390","source":"osm","name":null,"fee":"yes","charge":null,"access":"yes","wheelchair":"no","opening_hours":"24/7","operator":null,"description":"1€","password":null}},{"type":"Feature","geometry":{"type":"Point","coordinates":[9.6848144,44.1348613]},"properties":{"id":"node/4271543804","source":"osm","name":null,"fee":"yes","charge":null,"access":null,"wheelchair":null,"opening_hours":"24/7","operator":null,"description":null,"password":null}},{"type":"Feature","geometry":{"type":"Point","coordinates":[9.7087721,44.1204457]},"properties":{"id":"node/4345333497","source":"osm","name":null,"fee":"yes","charge":"1.00 €","access":null,"wheelchair":"limited","opening_hours":null,"operator":null,"description":null,"password":null}},{"type":"Feature","geometry":{"type":"Point","coordinates":[9.8395137,44.0486976]},"properties":{"id":"node/4360608391","source":"osm","name":null,"fee":"no","charge":null,"access":null,"wheelchair":null,"opening_hours":null,"operator":null,"description":null,"password":null}},{"type":"Feature","geometry":{"type":"Point","coordinates":[9.7381317,44.099269]},"properties":{"id":"node/4366392792","source":"osm","name":null,"fee":null,"charge":null,"access":null,"wheelchair":null,"opening_hours":null,"operator":null,"description":null,"password":null}},{"type":"Feature","geometry":{"type":"Point","coordinates":[9.8127593,44.1116234]},"properties":{"id":"node/4806140921","source":"osm","name":null,"fee":"yes","charge":null,"access":null,"wheelchair":null,"opening_hours":"Mo-Su 07:00-21:00","operator":null,"description":null,"password":null}},{"type":"Feature","geometry":{"type":"Point","coordinates":[9.5553955,44.2018208]},"properties":{"id":"node/4897516748","source":"osm","name":null,"fee":"no","charge":null,"access":null,"wheelchair":null,"opening_hours":null,"operator":null,"description":null,"password":null}},{"type":"Feature","geometry":{"type":"Point","coordinates":[9.6156126,44.1741347]},"properties":{"id":"node/4897516750","source":"osm","name":null,"fee":"no","charge":null,"access":null,"wheelchair":"yes","opening_hours":null,"operator":null,"description":null,"password":null}},{"type":"Feature","geometry":{"type":"Point","coordinates":[9.648481,44.1457408]},"properties":{"id":"node/4922269821","source":"osm","name":null,"fee":"yes","charge":"1 EUR, free with cinque terre card","access":"private","wheelchair":null,"opening_hours":"08:30-19:15","operator":null,"description":null,"password":null}},{"type":"Feature","geometry":{"type":"Point","coordinates":[9.7240996,44.2317461]},"properties":{"id":"node/4958021424","source":"osm","name":null,"fee":null,"charge":null,"access":null,"wheelchair":null,"opening_hours":null,"operator":null,"description":null,"password":null}},{"type":"Feature","geometry":{"type":"Point","coordinates":[9.7255863,44.2307392]},"properties":{"id":"node/4958047861","source":"osm","name":null,"fee":null,"charge":null,"access":null,"wheelchair":null,"opening_hours":null,"operator":null,"description":null,"password":null}},{"type":"Feature","geometry":{"type":"Point","coordinates":[9.6341722,44.1756465]},"properties":{"id":"node/4986419603","source":"osm","name":null,"fee":null,"charge":null,"access":"customers","wheelchair":null,"opening_hours":null,"operator":"SanMichele","description":null,"password":null}},{"type":"Feature","geometry":{"type":"Point","coordinates":[9.8347629,44.0520459]},"properties":{"id":"node/5115119120","source":"osm","name":null,"fee":"yes","charge":null,"access":null,"wheelchair":null,"opening_hours":null,"operator":null,"description":null,"password":null}},{"type":"Feature","geometry":{"type":"Point","coordinates":[9.9170557,44.1380463]},"properties":{"id":"node/5308131222","source":"osm","name":null,"fee":null,"charge":null,"access":null,"wheelchair":null,"opening_hours":null,"operator":null,"description":null,"password":null}},{"type":"Feature","geometry":{"type":"Point","coordinates":[9.8126065,44.1110308]},"properties":{"id":"node/5531909049","source":"osm","name":null,"fee":null,"charge":null,"access":null,"wheelchair":null,"opening_hours":null,"operator":null,"description":null,"password":null}},{"type":"Feature","geometry":{"type":"Point","coordinates":[9.7379306,44.0989266]},"properties":{"id":"node/5710831323","source":"osm","name":null,"fee":"yes","charge":null,"access":null,"wheelchair":null,"opening_hours":null,"operator":null,"description":null,"password":null}},{"type":"Feature","geometry":{"type":"Point","coordinates":[9.8117394,44.1118857]},"properties":{"id":"node/5713151421","source":"osm","name":null,"fee":null,"charge":null,"access":null,"wheelchair":null,"opening_hours":null,"operator":null,"description":null,"password":null}},{"type":"Feature","geometry":{"type":"Point","coordinates":[9.8965925,44.0823657]},"properties":{"id":"node/6305541785","source":"osm","name":null,"fee":"yes","charge":null,"access":"no","wheelchair":"yes","opening_hours":null,"operator":null,"description":null,"password":null}},{"type":"Feature","geometry":{"type":"Point","coordinates":[9.8135724,44.1060116]},"properties":{"id":"node/6325545643","source":"osm","name":null,"fee":"yes","charge":null,"access":null,"wheelchair":"yes","opening_hours":null,"operator":null,"description":null,"password":null}},{"type":"Feature","geometry":{"type":"Point","coordinates":[9.6046992,44.1727036]},"properties":{"id":"node/6359993657","source":"osm","name":null,"fee":"no","charge":null,"access":null,"wheelchair":null,"opening_hours":null,"operator":null,"description":null,"password":null}},{"type":"Feature","geometry":{"type":"Point","coordinates":[9.5507174,44.2270149]},"properties":{"id":"node/6662174356","source":"osm","name":null,"fee":"no","charge":null,"access":null,"wheelchair":null,"opening_hours":null,"operator":null,"description":null,"password":null}},{"type":"Feature","geometry":{"type":"Point","coordinates":[9.6087351,44.1697425]},"properties":{"id":"node/7715662537","source":"osm","name":null,"fee":"no","charge":null,"access":"yes","wheelchair":"yes","opening_hours":null,"operator":null,"description":null,"password":null}},{"type":"Feature","geometry":{"type":"Point","coordinates":[9.8396086,44.0660311]},"properties":{"id":"node/10007505907","source":"osm","name":null,"fee":null,"charge":null,"access":null,"wheelchair":null,"opening_hours":null,"operator":null,"description":null,"password":null}},{"type":"Feature","geometry":{"type":"Point","coordinates":[9.839642,44.0660456]},"properties":{"id":"node/10007505908","source":"osm","name":null,"fee":null,"charge":null,"access":null,"wheelchair":null,"opening_hours":null,"operator":null,"description":null,"password":null}},{"type":"Feature","geometry":{"type":"Point","coordinates":[9.8396682,44.0660574]},"properties":{"id":"node/10007505909","source":"osm","name":null,"fee":null,"charge":null,"access":null,"wheelchair":null,"opening_hours":null,"operator":null,"description":null,"password":null}},{"type":"Feature","geometry":{"type":"Point","coordinates":[9.5189618,44.2175861]},"properties":{"id":"node/10016078593","source":"osm","name":null,"fee":null,"charge":null,"access":null,"wheelchair":"yes","opening_hours":null,"operator":null,"description":null,"password":null}},{"type":"Feature","geometry":{"type":"Point","coordinates":[9.5189843,44.2175689]},"properties":{"id":"node/10016091139","source":"osm","name":null,"fee":null,"charge":null,"access":null,"wheelchair":"no","opening_hours":null,"operator":null,"description":null,"password":null}},{"type":"Feature","geometry":{"type":"Point","coordinates":[9.8280198,44.0999434]},"properties":{"id":"node/10108054885","source":"osm","name":null,"fee":"no","charge":null,"access":null,"wheelchair":"yes","opening_hours":null,"operator":null,"description":null,"password":null}},{"type":"Feature","geometry":{"type":"Point","coordinates":[9.9589982,44.1140562]},"properties":{"id":"node/11230815391","source":"osm","name":null,"fee":null,"charge":null,"access":null,"wheelchair":null,"opening_hours":null,"operator":null,"description":null,"password":null}},{"type":"Feature","geometry":{"type":"Point","coordinates":[9.8303685,44.1070197]},"properties":{"id":"node/11678919605","source":"osm","name":null,"fee":null,"charge":null,"access":null,"wheelchair":null,"opening_hours":null,"operator":null,"description":null,"password":null}},{"type":"Feature","geometry":{"type":"Point","coordinates":[9.8176237,44.105862]},"properties":{"id":"node/11878709485","source":"osm","name":null,"fee":"no","charge":null,"access":null,"wheelchair":"yes","opening_hours":null,"operator":null,"description":null,"password":null}},{"type":"Feature","geometry":{"type":"Point","coordinates":[9.5249244,44.2109027]},"properties":{"id":"node/12219043240","source":"osm","name":null,"fee":null,"charge":null,"access":"customers","wheelchair":"no","opening_hours":null,"operator":null,"description":null,"password":null}},{"type":"Feature","geometry":{"type":"Point","coordinates":[9.5260572,44.2099819]},"properties":{"id":"node/12219043254","source":"osm","name":null,"fee":null,"charge":null,"access":"customers","wheelchair":null,"opening_hours":null,"operator":null,"description":null,"password":null}},{"type":"Feature","geometry":{"type":"Point","coordinates":[9.7876414,44.1888699]},"properties":{"id":"node/12296467868","source":"osm","name":null,"fee":null,"charge":null,"access":null,"wheelchair":null,"opening_hours":null,"operator":null,"description":null,"password":null}},{"type":"Feature","geometry":{"type":"Point","coordinates":[9.8217183,44.1036593]},"properties":{"id":"node/12504946335","source":"osm","name":null,"fee":"no","charge":null,"access":"yes","wheelchair":null,"opening_hours":"Mo-Fr 10:00-20:00, Sa 10:00-00:00, Su 10:00-22:00","operator":null,"description":null,"password":null}},{"type":"Feature","geometry":{"type":"Point","coordinates":[9.9174172,44.1378517]},"properties":{"id":"node/12786504802","source":"osm","name":null,"fee":"no","charge":null,"access":"yes","wheelchair":"yes","opening_hours":null,"operator":null,"description":null,"password":null}},{"type":"Feature","geometry":{"type":"Point","coordinates":[9.8323292,44.1194015]},"properties":{"id":"node/13022606201","source":"osm","name":null,"fee":"no","charge":null,"access":"yes","wheelchair":"yes","opening_hours":"Mo-Su 09:00-21:00","operator":null,"description":null,"password":null}},{"type":"Feature","geometry":{"type":"Point","coordinates":[9.623548,44.1746173]},"properties":{"id":"node/13159859475","source":"osm","name":null,"fee":"no","charge":null,"access":"customers","wheelchair":null,"opening_hours":null,"operator":null,"description":null,"password":null}},{"type":"Feature","geometry":{"type":"Point","coordinates":[9.6235268,44.174554]},"properties":{"id":"node/13159859476","source":"osm","name":null,"fee":"no","charge":null,"access":"customers","wheelchair":null,"opening_hours":null,"operator":null,"description":null,"password":null}},{"type":"Feature","geometry":{"type":"Point","coordinates":[9.5211461,44.2164521]},"properties":{"id":"node/13180700301","source":"osm","name":null,"fee":"no","charge":null,"access":"customers","wheelchair":null,"opening_hours":null,"operator":null,"description":null,"password":null}},{"type":"Feature","geometry":{"type":"Point","coordinates":[9.8470268,44.121286]},"properties":{"id":"node/13197266597","source":"osm","name":null,"fee":null,"charge":null,"access":null,"wheelchair":null,"opening_hours":null,"operator":null,"description":null,"password":null}},{"type":"Feature","geometry":{"type":"Point","coordinates":[9.8327422,44.1194852]},"properties":{"id":"node/13198521312","source":"osm","name":null,"fee":null,"charge":null,"access":null,"wheelchair":"yes","opening_hours":null,"operator":null,"description":null,"password":null}},{"type":"Feature","geometry":{"type":"Point","coordinates":[9.9473962,44.1180775]},"properties":{"id":"node/13416805799","source":"osm","name":"WC per Bambini","fee":"no","charge":null,"access":null,"wheelchair":null,"opening_hours":null,"operator":"Centro Commerciale \"Centro Luna\"","description":null,"password":null}},{"type":"Feature","geometry":{"type":"Point","coordinates":[9.9474373,44.1180556]},"properties":{"id":"node/13416805800","source":"osm","name":"WC per Maschi","fee":"no","charge":null,"access":null,"wheelchair":null,"opening_hours":null,"operator":"Centro Commerciale \"Centro Luna\"","description":null,"password":null}},{"type":"Feature","geometry":{"type":"Point","coordinates":[9.9474169,44.1180672]},"properties":{"id":"node/13416805801","source":"osm","name":"WC per Donne","fee":"no","charge":null,"access":null,"wheelchair":null,"opening_hours":null,"operator":"Centro Commerciale \"Centro Luna\"","description":null,"password":null}},{"type":"Feature","geometry":{"type":"Point","coordinates":[9.9474569,44.1180739]},"properties":{"id":"node/13416805802","source":"osm","name":"WC per persone con mobilità ridotta","fee":null,"charge":null,"access":null,"wheelchair":"yes","opening_hours":null,"operator":null,"description":null,"password":null}},{"type":"Feature","geometry":{"type":"Point","coordinates":[9.7298946,44.1082496]},"properties":{"id":"node/13861662612","source":"osm","name":null,"fee":null,"charge":null,"access":null,"wheelchair":null,"opening_hours":null,"operator":null,"description":null,"password":null}},{"type":"Feature","geometry":{"type":"Point","coordinates":[9.7324282,44.1088664]},"properties":{"id":"node/13861666401","source":"osm","name":null,"fee":null,"charge":null,"access":null,"wheelchair":null,"opening_hours":null,"operator":null,"description":null,"password":null}},{"type":"Feature","geometry":{"type":"Point","coordinates":[9.7087987,44.1205442]},"properties":{"id":"node/13861666719","source":"osm","name":null,"fee":null,"charge":null,"access":null,"wheelchair":null,"opening_hours":null,"operator":null,"description":null,"password":null}},{"type":"Feature","geometry":{"type":"Point","coordinates":[9.6825515,44.1344423]},"properties":{"id":"node/14048967301","source":"osm","name":null,"fee":null,"charge":null,"access":null,"wheelchair":null,"opening_hours":null,"operator":null,"description":null,"password":null}},{"type":"Feature","geometry":{"type":"Point","coordinates":[9.9120383,44.0823717]},"properties":{"id":"node/14072139683","source":"osm","name":null,"fee":null,"charge":null,"access":"yes","wheelchair":null,"opening_hours":null,"operator":null,"description":null,"password":null}},{"type":"Feature","geometry":{"type":"Point","coordinates":[9.7292507,44.1051622]},"properties":{"id":"way/204991385","source":"osm","name":null,"fee":"yes","charge":"1 EUR","access":"yes","wheelchair":"designated","opening_hours":"08:30-19:20","operator":"Rete Ferroviaria Italiana","description":null,"password":null}},{"type":"Feature","geometry":{"type":"Point","coordinates":[9.7360572,44.1007968]},"properties":{"id":"way/351837370","source":"osm","name":null,"fee":"yes","charge":null,"access":"yes","wheelchair":null,"opening_hours":"Mo-Fr 09:00-12:50; Sa,Su 09:00-16:50","operator":"Rete Ferroviaria Italiana","description":null,"password":null}},{"type":"Feature","geometry":{"type":"Point","coordinates":[9.5168028,44.2150628]},"properties":{"id":"way/679602078","source":"osm","name":null,"fee":null,"charge":null,"access":null,"wheelchair":null,"opening_hours":null,"operator":null,"description":null,"password":null}},{"type":"Feature","geometry":{"type":"Point","coordinates":[9.5544457,44.3506862]},"properties":{"id":"way/954179230","source":"osm","name":null,"fee":null,"charge":null,"access":"customers","wheelchair":"no","opening_hours":null,"operator":null,"description":null,"password":null}},{"type":"Feature","geometry":{"type":"Point","coordinates":[9.9047481,44.088081]},"properties":{"id":"way/1220068773","source":"osm","name":null,"fee":null,"charge":null,"access":null,"wheelchair":null,"opening_hours":null,"operator":null,"description":null,"password":null}},{"type":"Feature","geometry":{"type":"Point","coordinates":[9.9066711,44.1036151]},"properties":{"id":"way/1316394589","source":"osm","name":null,"fee":null,"charge":null,"access":"customers","wheelchair":null,"opening_hours":null,"operator":null,"description":null,"password":null}},{"type":"Feature","geometry":{"type":"Point","coordinates":[9.8315869,44.1068059]},"properties":{"id":"way/1317207038","source":"osm","name":null,"fee":null,"charge":null,"access":null,"wheelchair":null,"opening_hours":null,"operator":null,"description":null,"password":null}},{"type":"Feature","geometry":{"type":"Point","coordinates":[9.8324334,44.1068106]},"properties":{"id":"way/1317207046","source":"osm","name":null,"fee":null,"charge":null,"access":null,"wheelchair":null,"opening_hours":null,"operator":null,"description":null,"password":null}},{"type":"Feature","geometry":{"type":"Point","coordinates":[9.8148,44.1066]},"properties":{"id":"xhs/mcdonald-s-la-spezia-station","source":"xhs","name":"McDonald's (La Spezia station)","fee":"yes","charge":null,"access":null,"wheelchair":null,"opening_hours":null,"operator":null,"description":"五渔村门户；各村游客中心可能免费","password":"2020A","code_confirmed_at":null,"cleanliness":null,"city":"italy/la-spezia"}}]}