{"type":"FeatureCollection","attribution":"© OpenStreetMap contributors (ODbL)","generated_at":"2026-08-24T09:43:11.195Z","features":[{"type":"Feature","geometry":{"type":"Point","coordinates":[12.3458915,45.4279172]},"properties":{"id":"node/390069348","source":"osm","name":null,"fee":null,"charge":null,"access":"restricted","wheelchair":null,"opening_hours":null,"operator":null,"description":null,"password":null}},{"type":"Feature","geometry":{"type":"Point","coordinates":[12.1948004,45.4852308]},"properties":{"id":"node/712964698","source":"osm","name":null,"fee":null,"charge":null,"access":null,"wheelchair":null,"opening_hours":null,"operator":null,"description":null,"password":null}},{"type":"Feature","geometry":{"type":"Point","coordinates":[12.3269834,45.4435448]},"properties":{"id":"node/1681386250","source":"osm","name":null,"fee":"yes","charge":"1.5€","access":"yes","wheelchair":"no","opening_hours":"Mo-Su 11:00-16:30","operator":"Comune di Venezia","description":"toilets for disabled people are not available","password":null}},{"type":"Feature","geometry":{"type":"Point","coordinates":[12.337142,45.4379798]},"properties":{"id":"node/1681395357","source":"osm","name":null,"fee":"yes","charge":"1,5 €","access":null,"wheelchair":"no","opening_hours":"Mo-Su 09:00-21:00","operator":"Comune di Venezia","description":null,"password":null}},{"type":"Feature","geometry":{"type":"Point","coordinates":[12.3346848,45.4383886]},"properties":{"id":"node/1681395362","source":"osm","name":null,"fee":"yes","charge":"1,5 €","access":"yes","wheelchair":"yes","opening_hours":"Mo-Su 09:00-19:30","operator":"Comune di Venezia","description":null,"password":null}},{"type":"Feature","geometry":{"type":"Point","coordinates":[12.3481325,45.4341191]},"properties":{"id":"node/1854966424","source":"osm","name":null,"fee":"yes","charge":null,"access":"yes","wheelchair":"no","opening_hours":"Mo-Su 10:00-19:00; PH off","operator":"Comune di Venezia","description":null,"password":null}},{"type":"Feature","geometry":{"type":"Point","coordinates":[12.3207973,45.4419223]},"properties":{"id":"node/2055779987","source":"osm","name":null,"fee":"yes","charge":"1.20 EUR","access":null,"wheelchair":"yes","opening_hours":null,"operator":"Grandi Stazioni Retail","description":null,"password":null}},{"type":"Feature","geometry":{"type":"Point","coordinates":[12.3367684,45.4335265]},"properties":{"id":"node/2830828621","source":"osm","name":null,"fee":"yes","charge":null,"access":"yes","wheelchair":"no","opening_hours":"Mo-Su 09:30-20:00","operator":null,"description":null,"password":null}},{"type":"Feature","geometry":{"type":"Point","coordinates":[12.3481608,45.4514618]},"properties":{"id":"node/2917327207","source":"osm","name":null,"fee":"yes","charge":"1,5 EUR","access":"yes","wheelchair":"yes","opening_hours":"Mo-Su 09:30-17:00","operator":null,"description":null,"password":null}},{"type":"Feature","geometry":{"type":"Point","coordinates":[12.3287249,45.4314086]},"properties":{"id":"node/2917330057","source":"osm","name":null,"fee":"yes","charge":"1.50 EUR","access":"yes","wheelchair":"limited","opening_hours":"Mo-Su 09:30-18:30","operator":null,"description":null,"password":null}},{"type":"Feature","geometry":{"type":"Point","coordinates":[12.3847595,45.4315169]},"properties":{"id":"node/3738592127","source":"osm","name":null,"fee":null,"charge":null,"access":"customers","wheelchair":null,"opening_hours":null,"operator":null,"description":null,"password":null}},{"type":"Feature","geometry":{"type":"Point","coordinates":[12.3597646,45.4281404]},"properties":{"id":"node/3791996512","source":"osm","name":null,"fee":"no","charge":null,"access":"yes","wheelchair":"no","opening_hours":null,"operator":null,"description":null,"password":null}},{"type":"Feature","geometry":{"type":"Point","coordinates":[12.3582393,45.4298227]},"properties":{"id":"node/3791996556","source":"osm","name":null,"fee":"no","charge":null,"access":"yes","wheelchair":"yes","opening_hours":null,"operator":null,"description":null,"password":null}},{"type":"Feature","geometry":{"type":"Point","coordinates":[12.2583262,45.4188696]},"properties":{"id":"node/3804561058","source":"osm","name":null,"fee":"yes","charge":"1 EUR","access":"yes","wheelchair":null,"opening_hours":null,"operator":null,"description":null,"password":null}},{"type":"Feature","geometry":{"type":"Point","coordinates":[12.2325134,45.4822773]},"properties":{"id":"node/3883935967","source":"osm","name":null,"fee":"yes","charge":null,"access":null,"wheelchair":"yes","opening_hours":"24/7","operator":null,"description":null,"password":null}},{"type":"Feature","geometry":{"type":"Point","coordinates":[12.2829177,45.4839645]},"properties":{"id":"node/4334112416","source":"osm","name":null,"fee":"no","charge":null,"access":"customers","wheelchair":null,"opening_hours":null,"operator":null,"description":null,"password":null}},{"type":"Feature","geometry":{"type":"Point","coordinates":[12.3461714,45.4484904]},"properties":{"id":"node/4341227690","source":"osm","name":null,"fee":"no","charge":null,"access":"yes","wheelchair":"yes","opening_hours":null,"operator":null,"description":null,"password":null}},{"type":"Feature","geometry":{"type":"Point","coordinates":[12.3740462,45.435292]},"properties":{"id":"node/4432665266","source":"osm","name":null,"fee":null,"charge":null,"access":null,"wheelchair":null,"opening_hours":null,"operator":null,"description":null,"password":null}},{"type":"Feature","geometry":{"type":"Point","coordinates":[12.3697691,45.4333116]},"properties":{"id":"node/4432665268","source":"osm","name":null,"fee":null,"charge":null,"access":null,"wheelchair":null,"opening_hours":null,"operator":null,"description":null,"password":null}},{"type":"Feature","geometry":{"type":"Point","coordinates":[12.3563863,45.4303743]},"properties":{"id":"node/4468054470","source":"osm","name":null,"fee":"yes","charge":"1 EUR","access":"yes","wheelchair":"yes","opening_hours":"Mo-Su 10:00-19:00; PH closed","operator":"Citta di Venezia","description":null,"password":null}},{"type":"Feature","geometry":{"type":"Point","coordinates":[12.4181181,45.484519]},"properties":{"id":"node/4844601916","source":"osm","name":null,"fee":"yes","charge":"1 €","access":"yes","wheelchair":"yes","opening_hours":"Mo-Su 10:30-17:00","operator":"Comune di Burano","description":null,"password":null}},{"type":"Feature","geometry":{"type":"Point","coordinates":[12.4055428,45.4840373]},"properties":{"id":"node/4853863910","source":"osm","name":null,"fee":null,"charge":null,"access":null,"wheelchair":null,"opening_hours":null,"operator":null,"description":null,"password":null}},{"type":"Feature","geometry":{"type":"Point","coordinates":[12.3076933,45.4423107]},"properties":{"id":"node/4878855338","source":"osm","name":null,"fee":"yes","charge":null,"access":null,"wheelchair":"yes","opening_hours":null,"operator":null,"description":null,"password":null}},{"type":"Feature","geometry":{"type":"Point","coordinates":[12.3101199,45.4388029]},"properties":{"id":"node/4878856750","source":"osm","name":null,"fee":"yes","charge":null,"access":null,"wheelchair":null,"opening_hours":null,"operator":null,"description":null,"password":null}},{"type":"Feature","geometry":{"type":"Point","coordinates":[12.3113022,45.4356451]},"properties":{"id":"node/4878856751","source":"osm","name":null,"fee":"yes","charge":null,"access":null,"wheelchair":"yes","opening_hours":null,"operator":null,"description":null,"password":null}},{"type":"Feature","geometry":{"type":"Point","coordinates":[12.3071716,45.4345821]},"properties":{"id":"node/4878856752","source":"osm","name":null,"fee":"yes","charge":null,"access":null,"wheelchair":null,"opening_hours":null,"operator":null,"description":null,"password":null}},{"type":"Feature","geometry":{"type":"Point","coordinates":[12.309548,45.4335371]},"properties":{"id":"node/4878856753","source":"osm","name":null,"fee":"yes","charge":null,"access":null,"wheelchair":null,"opening_hours":null,"operator":null,"description":null,"password":null}},{"type":"Feature","geometry":{"type":"Point","coordinates":[12.3073883,45.4374805]},"properties":{"id":"node/4878856754","source":"osm","name":null,"fee":"yes","charge":null,"access":null,"wheelchair":null,"opening_hours":null,"operator":null,"description":null,"password":null}},{"type":"Feature","geometry":{"type":"Point","coordinates":[12.3056771,45.4353831]},"properties":{"id":"node/4878856755","source":"osm","name":null,"fee":"yes","charge":null,"access":null,"wheelchair":null,"opening_hours":null,"operator":null,"description":null,"password":null}},{"type":"Feature","geometry":{"type":"Point","coordinates":[12.309407,45.4379942]},"properties":{"id":"node/4878856756","source":"osm","name":null,"fee":"yes","charge":null,"access":null,"wheelchair":null,"opening_hours":null,"operator":null,"description":null,"password":null}},{"type":"Feature","geometry":{"type":"Point","coordinates":[12.3084312,45.4357558]},"properties":{"id":"node/4878856757","source":"osm","name":null,"fee":"yes","charge":null,"access":null,"wheelchair":null,"opening_hours":null,"operator":null,"description":null,"password":null}},{"type":"Feature","geometry":{"type":"Point","coordinates":[12.3120326,45.4387856]},"properties":{"id":"node/4878856758","source":"osm","name":null,"fee":"yes","charge":null,"access":null,"wheelchair":null,"opening_hours":null,"operator":null,"description":null,"password":null}},{"type":"Feature","geometry":{"type":"Point","coordinates":[12.3554334,45.4337157]},"properties":{"id":"node/4878963010","source":"osm","name":null,"fee":"no","charge":null,"access":null,"wheelchair":"yes","opening_hours":null,"operator":null,"description":null,"password":null}},{"type":"Feature","geometry":{"type":"Point","coordinates":[12.1839385,45.4535833]},"properties":{"id":"node/4969103626","source":"osm","name":null,"fee":null,"charge":null,"access":null,"wheelchair":null,"opening_hours":null,"operator":null,"description":null,"password":null}},{"type":"Feature","geometry":{"type":"Point","coordinates":[12.1839036,45.4534864]},"properties":{"id":"node/4969103629","source":"osm","name":null,"fee":null,"charge":null,"access":null,"wheelchair":null,"opening_hours":null,"operator":null,"description":null,"password":null}},{"type":"Feature","geometry":{"type":"Point","coordinates":[12.305851,45.4412929]},"properties":{"id":"node/4991893447","source":"osm","name":null,"fee":"yes","charge":null,"access":null,"wheelchair":"yes","opening_hours":null,"operator":null,"description":null,"password":null}},{"type":"Feature","geometry":{"type":"Point","coordinates":[12.269324,45.4762185]},"properties":{"id":"node/5036157121","source":"osm","name":null,"fee":"no","charge":null,"access":null,"wheelchair":"yes","opening_hours":"Mo-Su 09:15-19:00","operator":null,"description":null,"password":null}},{"type":"Feature","geometry":{"type":"Point","coordinates":[12.3265377,45.4312742]},"properties":{"id":"node/5121239022","source":"osm","name":null,"fee":null,"charge":null,"access":"private","wheelchair":null,"opening_hours":null,"operator":"University","description":null,"password":null}},{"type":"Feature","geometry":{"type":"Point","coordinates":[12.3770783,45.4144223]},"properties":{"id":"node/5959791237","source":"osm","name":null,"fee":null,"charge":null,"access":null,"wheelchair":null,"opening_hours":null,"operator":null,"description":"1 euro coin","password":null}},{"type":"Feature","geometry":{"type":"Point","coordinates":[12.2118316,45.4719373]},"properties":{"id":"node/6527825438","source":"osm","name":null,"fee":"no","charge":null,"access":"customers","wheelchair":null,"opening_hours":null,"operator":null,"description":null,"password":null}},{"type":"Feature","geometry":{"type":"Point","coordinates":[12.3048872,45.4349932]},"properties":{"id":"node/6656178546","source":"osm","name":null,"fee":null,"charge":null,"access":null,"wheelchair":null,"opening_hours":null,"operator":null,"description":null,"password":null}},{"type":"Feature","geometry":{"type":"Point","coordinates":[12.3522272,45.4333626]},"properties":{"id":"node/6660544287","source":"osm","name":null,"fee":"no","charge":null,"access":null,"wheelchair":"yes","opening_hours":null,"operator":null,"description":null,"password":null}},{"type":"Feature","geometry":{"type":"Point","coordinates":[12.3410855,45.4352047]},"properties":{"id":"node/7133830587","source":"osm","name":null,"fee":"yes","charge":"1.5 EUR","access":"yes","wheelchair":"designated","opening_hours":"Mo-Th 09:30-19:30; Fr-Sa 09:30-21:00; Su 09:30-20:30","operator":"Veritas","description":null,"password":null}},{"type":"Feature","geometry":{"type":"Point","coordinates":[12.4169235,45.4739215]},"properties":{"id":"node/8928742982","source":"osm","name":null,"fee":"no","charge":null,"access":null,"wheelchair":"yes","opening_hours":null,"operator":null,"description":null,"password":null}},{"type":"Feature","geometry":{"type":"Point","coordinates":[12.2829483,45.4839309]},"properties":{"id":"node/9024385260","source":"osm","name":null,"fee":"no","charge":null,"access":"customers","wheelchair":null,"opening_hours":null,"operator":null,"description":null,"password":null}},{"type":"Feature","geometry":{"type":"Point","coordinates":[12.3082337,45.4424254]},"properties":{"id":"node/9024385261","source":"osm","name":null,"fee":"yes","charge":null,"access":"yes","wheelchair":"designated","opening_hours":null,"operator":null,"description":null,"password":null}},{"type":"Feature","geometry":{"type":"Point","coordinates":[12.3679652,45.4171851]},"properties":{"id":"node/9024385265","source":"osm","name":null,"fee":"yes","charge":"1,5 EUR","access":"yes","wheelchair":"yes","opening_hours":"Mo-Su 10:00-19:00","operator":"Citta di Venezia","description":null,"password":null}},{"type":"Feature","geometry":{"type":"Point","coordinates":[12.3813331,45.4189705]},"properties":{"id":"node/9032267050","source":"osm","name":null,"fee":"yes","charge":"2 EUR","access":null,"wheelchair":"limited","opening_hours":"09:10-13:30,14:00-18:45","operator":"Venezia Spiagge S.p.a.","description":null,"password":null}},{"type":"Feature","geometry":{"type":"Point","coordinates":[12.3600741,45.4265108]},"properties":{"id":"node/9172121275","source":"osm","name":null,"fee":"yes","charge":null,"access":null,"wheelchair":"yes","opening_hours":null,"operator":null,"description":null,"password":null}},{"type":"Feature","geometry":{"type":"Point","coordinates":[12.2615448,45.476193]},"properties":{"id":"node/9198079133","source":"osm","name":null,"fee":"no","charge":null,"access":null,"wheelchair":null,"opening_hours":null,"operator":null,"description":null,"password":null}},{"type":"Feature","geometry":{"type":"Point","coordinates":[12.3868588,45.4560535]},"properties":{"id":"node/9237826005","source":"osm","name":null,"fee":"no","charge":null,"access":null,"wheelchair":"yes","opening_hours":null,"operator":null,"description":null,"password":null}},{"type":"Feature","geometry":{"type":"Point","coordinates":[12.3428551,45.4405442]},"properties":{"id":"node/10079458058","source":"osm","name":null,"fee":"no","charge":null,"access":"yes","wheelchair":"yes","opening_hours":null,"operator":"Ospedale","description":null,"password":null}},{"type":"Feature","geometry":{"type":"Point","coordinates":[12.3578577,45.4359989]},"properties":{"id":"node/10130327414","source":"osm","name":null,"fee":null,"charge":null,"access":"customers","wheelchair":null,"opening_hours":null,"operator":null,"description":null,"password":null}},{"type":"Feature","geometry":{"type":"Point","coordinates":[12.3587223,45.4298953]},"properties":{"id":"node/10180960705","source":"osm","name":null,"fee":"no","charge":null,"access":"yes","wheelchair":"yes","opening_hours":null,"operator":null,"description":null,"password":null}},{"type":"Feature","geometry":{"type":"Point","coordinates":[12.3578847,45.4296122]},"properties":{"id":"node/10180960708","source":"osm","name":null,"fee":"no","charge":null,"access":"yes","wheelchair":"yes","opening_hours":null,"operator":null,"description":null,"password":null}},{"type":"Feature","geometry":{"type":"Point","coordinates":[12.3566256,45.4198717]},"properties":{"id":"node/10586893093","source":"osm","name":null,"fee":"no","charge":null,"access":"permissive","wheelchair":"designated","opening_hours":null,"operator":null,"description":null,"password":null}},{"type":"Feature","geometry":{"type":"Point","coordinates":[12.3558051,45.4197839]},"properties":{"id":"node/10586893094","source":"osm","name":null,"fee":"no","charge":null,"access":"permissive","wheelchair":"yes","opening_hours":null,"operator":null,"description":null,"password":null}},{"type":"Feature","geometry":{"type":"Point","coordinates":[12.3375015,45.4328134]},"properties":{"id":"node/10611341982","source":"osm","name":null,"fee":"yes","charge":null,"access":"yes","wheelchair":"designated","opening_hours":"Mo-Su 09:30-17:30; PH closed","operator":null,"description":null,"password":null}},{"type":"Feature","geometry":{"type":"Point","coordinates":[12.3214748,45.4307252]},"properties":{"id":"node/10689287205","source":"osm","name":null,"fee":null,"charge":null,"access":null,"wheelchair":null,"opening_hours":null,"operator":null,"description":null,"password":null}},{"type":"Feature","geometry":{"type":"Point","coordinates":[12.4166833,45.4871161]},"properties":{"id":"node/10922232083","source":"osm","name":null,"fee":"yes","charge":"1 €","access":"yes","wheelchair":"yes","opening_hours":"Mo-Su 11:00-19:00","operator":null,"description":null,"password":null}},{"type":"Feature","geometry":{"type":"Point","coordinates":[12.3405588,45.505286]},"properties":{"id":"node/11285404469","source":"osm","name":null,"fee":"no","charge":null,"access":"yes","wheelchair":"yes","opening_hours":null,"operator":null,"description":null,"password":null}},{"type":"Feature","geometry":{"type":"Point","coordinates":[12.3406485,45.5052809]},"properties":{"id":"node/11285404470","source":"osm","name":null,"fee":"no","charge":null,"access":null,"wheelchair":"yes","opening_hours":null,"operator":null,"description":null,"password":null}},{"type":"Feature","geometry":{"type":"Point","coordinates":[12.3403962,45.5040996]},"properties":{"id":"node/11285424338","source":"osm","name":null,"fee":"no","charge":null,"access":null,"wheelchair":"yes","opening_hours":null,"operator":null,"description":null,"password":null}},{"type":"Feature","geometry":{"type":"Point","coordinates":[12.341079,45.5055002]},"properties":{"id":"node/11286906973","source":"osm","name":null,"fee":"no","charge":null,"access":null,"wheelchair":"yes","opening_hours":null,"operator":null,"description":null,"password":null}},{"type":"Feature","geometry":{"type":"Point","coordinates":[12.3402222,45.5052487]},"properties":{"id":"node/11286972652","source":"osm","name":null,"fee":"no","charge":null,"access":"yes","wheelchair":"yes","opening_hours":null,"operator":null,"description":null,"password":null}},{"type":"Feature","geometry":{"type":"Point","coordinates":[12.341057,45.5049936]},"properties":{"id":"node/11286978294","source":"osm","name":null,"fee":"no","charge":null,"access":"yes","wheelchair":"yes","opening_hours":null,"operator":null,"description":null,"password":null}},{"type":"Feature","geometry":{"type":"Point","coordinates":[12.3412709,45.5043575]},"properties":{"id":"node/11287085785","source":"osm","name":null,"fee":"no","charge":null,"access":"yes","wheelchair":"yes","opening_hours":null,"operator":null,"description":null,"password":null}},{"type":"Feature","geometry":{"type":"Point","coordinates":[12.2767247,45.4699667]},"properties":{"id":"node/11327898940","source":"osm","name":null,"fee":"no","charge":null,"access":null,"wheelchair":"yes","opening_hours":null,"operator":null,"description":null,"password":null}},{"type":"Feature","geometry":{"type":"Point","coordinates":[12.4098607,45.4587063]},"properties":{"id":"node/11932657597","source":"osm","name":null,"fee":"yes","charge":null,"access":null,"wheelchair":"yes","opening_hours":null,"operator":null,"description":null,"password":null}},{"type":"Feature","geometry":{"type":"Point","coordinates":[12.33658,45.5013617]},"properties":{"id":"node/12066031087","source":"osm","name":null,"fee":null,"charge":null,"access":"yes","wheelchair":"yes","opening_hours":null,"operator":null,"description":null,"password":null}},{"type":"Feature","geometry":{"type":"Point","coordinates":[12.3371137,45.5010149]},"properties":{"id":"node/12066031090","source":"osm","name":null,"fee":null,"charge":null,"access":"yes","wheelchair":null,"opening_hours":null,"operator":null,"description":null,"password":null}},{"type":"Feature","geometry":{"type":"Point","coordinates":[12.2784139,45.4676974]},"properties":{"id":"node/12200282202","source":"osm","name":null,"fee":null,"charge":null,"access":null,"wheelchair":"yes","opening_hours":null,"operator":null,"description":null,"password":null}},{"type":"Feature","geometry":{"type":"Point","coordinates":[12.334265,45.4412656]},"properties":{"id":"node/12848507801","source":"osm","name":null,"fee":null,"charge":null,"access":"customers","wheelchair":null,"opening_hours":"Mo-Su 08:00-23:00","operator":"McDonald's","description":null,"password":null}},{"type":"Feature","geometry":{"type":"Point","coordinates":[12.2567386,45.4208648]},"properties":{"id":"node/12892576720","source":"osm","name":null,"fee":null,"charge":null,"access":"customers","wheelchair":"no","opening_hours":null,"operator":"Camping Fusina","description":null,"password":null}},{"type":"Feature","geometry":{"type":"Point","coordinates":[12.2570582,45.4203183]},"properties":{"id":"node/12892576724","source":"osm","name":null,"fee":null,"charge":null,"access":"customers","wheelchair":"yes","opening_hours":null,"operator":"Camping Fusina","description":null,"password":null}},{"type":"Feature","geometry":{"type":"Point","coordinates":[12.2571652,45.4209251]},"properties":{"id":"node/12892576732","source":"osm","name":null,"fee":null,"charge":null,"access":"customers","wheelchair":"no","opening_hours":null,"operator":"Camping Fusina","description":null,"password":null}},{"type":"Feature","geometry":{"type":"Point","coordinates":[12.2570146,45.4205532]},"properties":{"id":"node/12892576733","source":"osm","name":null,"fee":null,"charge":null,"access":"customers","wheelchair":"no","opening_hours":null,"operator":"Camping Fusina","description":null,"password":null}},{"type":"Feature","geometry":{"type":"Point","coordinates":[12.3398292,45.5057562]},"properties":{"id":"node/12944800236","source":"osm","name":null,"fee":"no","charge":null,"access":null,"wheelchair":"yes","opening_hours":null,"operator":null,"description":null,"password":null}},{"type":"Feature","geometry":{"type":"Point","coordinates":[12.3597216,45.4354357]},"properties":{"id":"node/12991040801","source":"osm","name":null,"fee":null,"charge":null,"access":null,"wheelchair":null,"opening_hours":null,"operator":null,"description":null,"password":null}},{"type":"Feature","geometry":{"type":"Point","coordinates":[12.2310351,45.496088]},"properties":{"id":"node/13037305346","source":"osm","name":null,"fee":null,"charge":null,"access":null,"wheelchair":null,"opening_hours":null,"operator":null,"description":null,"password":null}},{"type":"Feature","geometry":{"type":"Point","coordinates":[12.274449,45.4805452]},"properties":{"id":"node/13041957388","source":"osm","name":null,"fee":null,"charge":null,"access":"customers","wheelchair":null,"opening_hours":null,"operator":null,"description":null,"password":null}},{"type":"Feature","geometry":{"type":"Point","coordinates":[12.2424434,45.4904345]},"properties":{"id":"node/13051694543","source":"osm","name":null,"fee":"no","charge":null,"access":"customers","wheelchair":null,"opening_hours":null,"operator":null,"description":"key available from parking personel","password":null}},{"type":"Feature","geometry":{"type":"Point","coordinates":[12.3371229,45.4380549]},"properties":{"id":"node/13052178401","source":"osm","name":null,"fee":null,"charge":null,"access":null,"wheelchair":null,"opening_hours":"Mo-Su 09:00-21:00","operator":null,"description":null,"password":null}},{"type":"Feature","geometry":{"type":"Point","coordinates":[12.3448912,45.4291001]},"properties":{"id":"node/13147676902","source":"osm","name":null,"fee":null,"charge":null,"access":null,"wheelchair":null,"opening_hours":"Th-Tu 10:00-19:00","operator":null,"description":null,"password":null}},{"type":"Feature","geometry":{"type":"Point","coordinates":[12.3144772,45.3162725]},"properties":{"id":"node/13359772430","source":"osm","name":null,"fee":null,"charge":null,"access":"customers","wheelchair":null,"opening_hours":null,"operator":"Gelateria Laguna","description":"Ask Gelateria Laguna for the keys","password":null}},{"type":"Feature","geometry":{"type":"Point","coordinates":[12.3087208,45.4370951]},"properties":{"id":"node/13692067217","source":"osm","name":null,"fee":null,"charge":null,"access":"customers","wheelchair":null,"opening_hours":null,"operator":null,"description":null,"password":null}},{"type":"Feature","geometry":{"type":"Point","coordinates":[12.3514615,45.4593249]},"properties":{"id":"node/14063932201","source":"osm","name":null,"fee":null,"charge":null,"access":null,"wheelchair":null,"opening_hours":null,"operator":null,"description":null,"password":null}},{"type":"Feature","geometry":{"type":"Point","coordinates":[12.3316925,45.4993602]},"properties":{"id":"way/38581848","source":"osm","name":null,"fee":null,"charge":null,"access":null,"wheelchair":null,"opening_hours":null,"operator":null,"description":null,"password":null}},{"type":"Feature","geometry":{"type":"Point","coordinates":[12.3325999,45.4983242]},"properties":{"id":"way/74354941","source":"osm","name":null,"fee":null,"charge":null,"access":null,"wheelchair":null,"opening_hours":null,"operator":null,"description":null,"password":null}},{"type":"Feature","geometry":{"type":"Point","coordinates":[12.418348,45.4987266]},"properties":{"id":"way/132937418","source":"osm","name":null,"fee":"yes","charge":"1.50 EUR","access":"yes","wheelchair":"yes","opening_hours":null,"operator":null,"description":null,"password":null}},{"type":"Feature","geometry":{"type":"Point","coordinates":[12.3663411,45.4281666]},"properties":{"id":"way/138800763","source":"osm","name":null,"fee":"no","charge":null,"access":null,"wheelchair":null,"opening_hours":null,"operator":null,"description":null,"password":null}},{"type":"Feature","geometry":{"type":"Point","coordinates":[12.3195667,45.4374935]},"properties":{"id":"way/138843031","source":"osm","name":null,"fee":"yes","charge":"1,50 €","access":null,"wheelchair":"yes","opening_hours":"08:30-20:00","operator":null,"description":null,"password":null}},{"type":"Feature","geometry":{"type":"Point","coordinates":[12.2796125,45.4702258]},"properties":{"id":"way/350633575","source":"osm","name":null,"fee":"no","charge":null,"access":null,"wheelchair":"yes","opening_hours":null,"operator":null,"description":null,"password":null}},{"type":"Feature","geometry":{"type":"Point","coordinates":[12.248855,45.4968248]},"properties":{"id":"way/453375354","source":"osm","name":null,"fee":null,"charge":null,"access":null,"wheelchair":null,"opening_hours":null,"operator":null,"description":null,"password":null}},{"type":"Feature","geometry":{"type":"Point","coordinates":[12.2487766,45.4968979]},"properties":{"id":"way/453375373","source":"osm","name":null,"fee":null,"charge":null,"access":null,"wheelchair":null,"opening_hours":null,"operator":null,"description":null,"password":null}},{"type":"Feature","geometry":{"type":"Point","coordinates":[12.2488194,45.496783]},"properties":{"id":"way/453375378","source":"osm","name":null,"fee":null,"charge":null,"access":null,"wheelchair":null,"opening_hours":null,"operator":null,"description":null,"password":null}},{"type":"Feature","geometry":{"type":"Point","coordinates":[12.2488227,45.4968781]},"properties":{"id":"way/453375382","source":"osm","name":null,"fee":null,"charge":null,"access":null,"wheelchair":null,"opening_hours":null,"operator":null,"description":null,"password":null}},{"type":"Feature","geometry":{"type":"Point","coordinates":[12.2476585,45.4967511]},"properties":{"id":"way/453375390","source":"osm","name":null,"fee":"no","charge":null,"access":null,"wheelchair":null,"opening_hours":null,"operator":null,"description":null,"password":null}},{"type":"Feature","geometry":{"type":"Point","coordinates":[12.2476585,45.4967511]},"properties":{"id":"way/453375392","source":"osm","name":null,"fee":"no","charge":null,"access":null,"wheelchair":null,"opening_hours":null,"operator":null,"description":null,"password":null}},{"type":"Feature","geometry":{"type":"Point","coordinates":[12.2476338,45.4967225]},"properties":{"id":"way/453375394","source":"osm","name":null,"fee":"no","charge":null,"access":null,"wheelchair":null,"opening_hours":null,"operator":null,"description":null,"password":null}},{"type":"Feature","geometry":{"type":"Point","coordinates":[12.2476338,45.4967225]},"properties":{"id":"way/453375397","source":"osm","name":null,"fee":"no","charge":null,"access":null,"wheelchair":null,"opening_hours":null,"operator":null,"description":null,"password":null}},{"type":"Feature","geometry":{"type":"Point","coordinates":[12.2484135,45.4964234]},"properties":{"id":"way/453375401","source":"osm","name":null,"fee":"no","charge":null,"access":null,"wheelchair":null,"opening_hours":null,"operator":null,"description":null,"password":null}},{"type":"Feature","geometry":{"type":"Point","coordinates":[12.2483888,45.4963942]},"properties":{"id":"way/453375406","source":"osm","name":null,"fee":"no","charge":null,"access":null,"wheelchair":null,"opening_hours":null,"operator":null,"description":null,"password":null}},{"type":"Feature","geometry":{"type":"Point","coordinates":[12.2483888,45.4963942]},"properties":{"id":"way/453375412","source":"osm","name":null,"fee":"no","charge":null,"access":null,"wheelchair":null,"opening_hours":null,"operator":null,"description":null,"password":null}},{"type":"Feature","geometry":{"type":"Point","coordinates":[12.2484135,45.4964234]},"properties":{"id":"way/453375415","source":"osm","name":null,"fee":"no","charge":null,"access":null,"wheelchair":null,"opening_hours":null,"operator":null,"description":null,"password":null}},{"type":"Feature","geometry":{"type":"Point","coordinates":[12.2483888,45.4963942]},"properties":{"id":"way/453375428","source":"osm","name":null,"fee":"no","charge":null,"access":null,"wheelchair":null,"opening_hours":null,"operator":null,"description":null,"password":null}},{"type":"Feature","geometry":{"type":"Point","coordinates":[12.2484135,45.4964234]},"properties":{"id":"way/453375429","source":"osm","name":null,"fee":"no","charge":null,"access":null,"wheelchair":null,"opening_hours":null,"operator":null,"description":null,"password":null}},{"type":"Feature","geometry":{"type":"Point","coordinates":[12.2476585,45.4967511]},"properties":{"id":"way/453375430","source":"osm","name":null,"fee":"no","charge":null,"access":null,"wheelchair":null,"opening_hours":null,"operator":null,"description":null,"password":null}},{"type":"Feature","geometry":{"type":"Point","coordinates":[12.2476338,45.4967225]},"properties":{"id":"way/453375431","source":"osm","name":null,"fee":"no","charge":null,"access":null,"wheelchair":null,"opening_hours":null,"operator":null,"description":null,"password":null}},{"type":"Feature","geometry":{"type":"Point","coordinates":[12.2282672,45.4900664]},"properties":{"id":"way/453560916","source":"osm","name":null,"fee":null,"charge":null,"access":null,"wheelchair":null,"opening_hours":null,"operator":null,"description":null,"password":null}},{"type":"Feature","geometry":{"type":"Point","coordinates":[12.2276162,45.4901042]},"properties":{"id":"way/453560918","source":"osm","name":null,"fee":null,"charge":null,"access":null,"wheelchair":"yes","opening_hours":null,"operator":null,"description":null,"password":null}},{"type":"Feature","geometry":{"type":"Point","coordinates":[12.2276162,45.4901042]},"properties":{"id":"way/453560920","source":"osm","name":null,"fee":null,"charge":null,"access":null,"wheelchair":"yes","opening_hours":null,"operator":null,"description":null,"password":null}},{"type":"Feature","geometry":{"type":"Point","coordinates":[12.2275971,45.4901509]},"properties":{"id":"way/453560925","source":"osm","name":null,"fee":null,"charge":null,"access":null,"wheelchair":null,"opening_hours":null,"operator":null,"description":null,"password":null}},{"type":"Feature","geometry":{"type":"Point","coordinates":[12.2282263,45.4901333]},"properties":{"id":"way/453560926","source":"osm","name":null,"fee":null,"charge":null,"access":"private","wheelchair":null,"opening_hours":null,"operator":null,"description":null,"password":null}},{"type":"Feature","geometry":{"type":"Point","coordinates":[12.2275971,45.4901509]},"properties":{"id":"way/453560929","source":"osm","name":null,"fee":null,"charge":null,"access":null,"wheelchair":null,"opening_hours":null,"operator":null,"description":null,"password":null}},{"type":"Feature","geometry":{"type":"Point","coordinates":[12.2282311,45.4901444]},"properties":{"id":"way/453560932","source":"osm","name":null,"fee":null,"charge":null,"access":"private","wheelchair":null,"opening_hours":null,"operator":null,"description":null,"password":null}},{"type":"Feature","geometry":{"type":"Point","coordinates":[12.2282356,45.4901562]},"properties":{"id":"way/453560934","source":"osm","name":null,"fee":null,"charge":null,"access":"private","wheelchair":null,"opening_hours":null,"operator":null,"description":null,"password":null}},{"type":"Feature","geometry":{"type":"Point","coordinates":[12.2282402,45.490168]},"properties":{"id":"way/453560938","source":"osm","name":null,"fee":null,"charge":null,"access":"private","wheelchair":null,"opening_hours":null,"operator":null,"description":null,"password":null}},{"type":"Feature","geometry":{"type":"Point","coordinates":[12.2275839,45.4901163]},"properties":{"id":"way/453560952","source":"osm","name":null,"fee":null,"charge":null,"access":null,"wheelchair":null,"opening_hours":null,"operator":null,"description":null,"password":null}},{"type":"Feature","geometry":{"type":"Point","coordinates":[12.2275856,45.4900892]},"properties":{"id":"way/453560953","source":"osm","name":null,"fee":null,"charge":null,"access":"private","wheelchair":null,"opening_hours":null,"operator":null,"description":null,"password":null}},{"type":"Feature","geometry":{"type":"Point","coordinates":[12.227582,45.4901106]},"properties":{"id":"way/453560954","source":"osm","name":null,"fee":null,"charge":null,"access":null,"wheelchair":null,"opening_hours":null,"operator":null,"description":null,"password":null}},{"type":"Feature","geometry":{"type":"Point","coordinates":[12.2420315,45.4869681]},"properties":{"id":"way/453601521","source":"osm","name":null,"fee":null,"charge":null,"access":null,"wheelchair":null,"opening_hours":null,"operator":null,"description":null,"password":null}},{"type":"Feature","geometry":{"type":"Point","coordinates":[12.2420315,45.4869681]},"properties":{"id":"way/453601523","source":"osm","name":null,"fee":null,"charge":null,"access":null,"wheelchair":null,"opening_hours":null,"operator":null,"description":null,"password":null}},{"type":"Feature","geometry":{"type":"Point","coordinates":[12.2421083,45.4868571]},"properties":{"id":"way/453601534","source":"osm","name":null,"fee":null,"charge":null,"access":null,"wheelchair":null,"opening_hours":null,"operator":null,"description":null,"password":null}},{"type":"Feature","geometry":{"type":"Point","coordinates":[12.2418564,45.4867031]},"properties":{"id":"way/453601535","source":"osm","name":null,"fee":null,"charge":null,"access":null,"wheelchair":null,"opening_hours":null,"operator":null,"description":null,"password":null}},{"type":"Feature","geometry":{"type":"Point","coordinates":[12.2417331,45.4866417]},"properties":{"id":"way/453601536","source":"osm","name":null,"fee":null,"charge":null,"access":"private","wheelchair":null,"opening_hours":null,"operator":null,"description":null,"password":null}},{"type":"Feature","geometry":{"type":"Point","coordinates":[12.2421083,45.4868571]},"properties":{"id":"way/453601537","source":"osm","name":null,"fee":null,"charge":null,"access":null,"wheelchair":null,"opening_hours":null,"operator":null,"description":null,"password":null}},{"type":"Feature","geometry":{"type":"Point","coordinates":[12.2418564,45.4867031]},"properties":{"id":"way/453601540","source":"osm","name":null,"fee":null,"charge":null,"access":null,"wheelchair":null,"opening_hours":null,"operator":null,"description":null,"password":null}},{"type":"Feature","geometry":{"type":"Point","coordinates":[12.2421083,45.4868571]},"properties":{"id":"way/453601541","source":"osm","name":null,"fee":null,"charge":null,"access":null,"wheelchair":null,"opening_hours":null,"operator":null,"description":null,"password":null}},{"type":"Feature","geometry":{"type":"Point","coordinates":[12.2419407,45.4869922]},"properties":{"id":"way/453601564","source":"osm","name":null,"fee":null,"charge":null,"access":null,"wheelchair":null,"opening_hours":null,"operator":null,"description":null,"password":null}},{"type":"Feature","geometry":{"type":"Point","coordinates":[12.242029,45.4869681]},"properties":{"id":"way/453601568","source":"osm","name":null,"fee":null,"charge":null,"access":null,"wheelchair":null,"opening_hours":null,"operator":null,"description":null,"password":null}},{"type":"Feature","geometry":{"type":"Point","coordinates":[12.2607885,45.5031519]},"properties":{"id":"way/453792592","source":"osm","name":null,"fee":null,"charge":null,"access":null,"wheelchair":null,"opening_hours":null,"operator":null,"description":null,"password":null}},{"type":"Feature","geometry":{"type":"Point","coordinates":[12.2607183,45.5031615]},"properties":{"id":"way/453792593","source":"osm","name":null,"fee":null,"charge":null,"access":null,"wheelchair":null,"opening_hours":null,"operator":null,"description":null,"password":null}},{"type":"Feature","geometry":{"type":"Point","coordinates":[12.2606747,45.5031673]},"properties":{"id":"way/453792594","source":"osm","name":null,"fee":null,"charge":null,"access":null,"wheelchair":null,"opening_hours":null,"operator":null,"description":null,"password":null}},{"type":"Feature","geometry":{"type":"Point","coordinates":[12.2606443,45.5030567]},"properties":{"id":"way/453792597","source":"osm","name":null,"fee":null,"charge":null,"access":null,"wheelchair":null,"opening_hours":null,"operator":null,"description":null,"password":null}},{"type":"Feature","geometry":{"type":"Point","coordinates":[12.2606404,45.5030421]},"properties":{"id":"way/453792598","source":"osm","name":null,"fee":null,"charge":null,"access":null,"wheelchair":null,"opening_hours":null,"operator":null,"description":null,"password":null}},{"type":"Feature","geometry":{"type":"Point","coordinates":[12.2608631,45.503204]},"properties":{"id":"way/453792600","source":"osm","name":null,"fee":null,"charge":null,"access":null,"wheelchair":null,"opening_hours":null,"operator":null,"description":null,"password":null}},{"type":"Feature","geometry":{"type":"Point","coordinates":[12.2606418,45.5030474]},"properties":{"id":"way/453792606","source":"osm","name":null,"fee":null,"charge":null,"access":null,"wheelchair":null,"opening_hours":null,"operator":null,"description":null,"password":null}},{"type":"Feature","geometry":{"type":"Point","coordinates":[12.2609018,45.5029958]},"properties":{"id":"way/453792609","source":"osm","name":null,"fee":null,"charge":null,"access":null,"wheelchair":null,"opening_hours":null,"operator":null,"description":null,"password":null}},{"type":"Feature","geometry":{"type":"Point","coordinates":[12.2601568,45.5032544]},"properties":{"id":"way/453792610","source":"osm","name":null,"fee":null,"charge":null,"access":null,"wheelchair":null,"opening_hours":null,"operator":null,"description":null,"password":null}},{"type":"Feature","geometry":{"type":"Point","coordinates":[12.2608467,45.503144]},"properties":{"id":"way/453792611","source":"osm","name":null,"fee":null,"charge":null,"access":null,"wheelchair":null,"opening_hours":null,"operator":null,"description":null,"password":null}},{"type":"Feature","geometry":{"type":"Point","coordinates":[12.2601568,45.5032544]},"properties":{"id":"way/453792612","source":"osm","name":null,"fee":null,"charge":null,"access":null,"wheelchair":null,"opening_hours":null,"operator":null,"description":null,"password":null}},{"type":"Feature","geometry":{"type":"Point","coordinates":[12.2608549,45.5030032]},"properties":{"id":"way/453792613","source":"osm","name":null,"fee":null,"charge":null,"access":null,"wheelchair":null,"opening_hours":null,"operator":null,"description":null,"password":null}},{"type":"Feature","geometry":{"type":"Point","coordinates":[12.2608549,45.5030032]},"properties":{"id":"way/453792614","source":"osm","name":null,"fee":null,"charge":null,"access":null,"wheelchair":null,"opening_hours":null,"operator":null,"description":null,"password":null}},{"type":"Feature","geometry":{"type":"Point","coordinates":[12.2602033,45.5032471]},"properties":{"id":"way/453792616","source":"osm","name":null,"fee":null,"charge":null,"access":null,"wheelchair":null,"opening_hours":null,"operator":null,"description":null,"password":null}},{"type":"Feature","geometry":{"type":"Point","coordinates":[12.2602033,45.5032471]},"properties":{"id":"way/453792619","source":"osm","name":null,"fee":null,"charge":null,"access":null,"wheelchair":null,"opening_hours":null,"operator":null,"description":null,"password":null}},{"type":"Feature","geometry":{"type":"Point","coordinates":[12.3214482,45.4334611]},"properties":{"id":"way/453826554","source":"osm","name":null,"fee":"yes","charge":null,"access":"private","wheelchair":null,"opening_hours":null,"operator":null,"description":null,"password":null}},{"type":"Feature","geometry":{"type":"Point","coordinates":[12.3214815,45.4335036]},"properties":{"id":"way/453826556","source":"osm","name":null,"fee":null,"charge":null,"access":"private","wheelchair":null,"opening_hours":null,"operator":null,"description":null,"password":null}},{"type":"Feature","geometry":{"type":"Point","coordinates":[12.3214719,45.4334335]},"properties":{"id":"way/453826557","source":"osm","name":null,"fee":null,"charge":null,"access":null,"wheelchair":null,"opening_hours":null,"operator":null,"description":null,"password":null}},{"type":"Feature","geometry":{"type":"Point","coordinates":[12.3215794,45.4330426]},"properties":{"id":"way/453826581","source":"osm","name":null,"fee":"yes","charge":null,"access":"private","wheelchair":"yes","opening_hours":null,"operator":null,"description":null,"password":null}},{"type":"Feature","geometry":{"type":"Point","coordinates":[12.3215033,45.4330099]},"properties":{"id":"way/453826588","source":"osm","name":null,"fee":"yes","charge":null,"access":"private","wheelchair":"yes","opening_hours":null,"operator":null,"description":null,"password":null}},{"type":"Feature","geometry":{"type":"Point","coordinates":[12.3218569,45.4335477]},"properties":{"id":"way/453826592","source":"osm","name":null,"fee":null,"charge":null,"access":"private","wheelchair":null,"opening_hours":null,"operator":null,"description":null,"password":null}},{"type":"Feature","geometry":{"type":"Point","coordinates":[12.3217309,45.4336061]},"properties":{"id":"way/453826593","source":"osm","name":null,"fee":null,"charge":null,"access":"private","wheelchair":null,"opening_hours":null,"operator":null,"description":null,"password":null}},{"type":"Feature","geometry":{"type":"Point","coordinates":[12.3216852,45.4334867]},"properties":{"id":"way/453826597","source":"osm","name":null,"fee":null,"charge":null,"access":null,"wheelchair":null,"opening_hours":null,"operator":null,"description":null,"password":null}},{"type":"Feature","geometry":{"type":"Point","coordinates":[12.3217095,45.4334863]},"properties":{"id":"way/453826600","source":"osm","name":null,"fee":null,"charge":null,"access":"private","wheelchair":null,"opening_hours":null,"operator":null,"description":null,"password":null}},{"type":"Feature","geometry":{"type":"Point","coordinates":[12.3219381,45.4330476]},"properties":{"id":"way/453826602","source":"osm","name":null,"fee":"yes","charge":null,"access":"private","wheelchair":"yes","opening_hours":null,"operator":null,"description":null,"password":null}},{"type":"Feature","geometry":{"type":"Point","coordinates":[12.3461423,45.4385666]},"properties":{"id":"way/454526849","source":"osm","name":null,"fee":null,"charge":null,"access":"private","wheelchair":null,"opening_hours":null,"operator":null,"description":null,"password":null}},{"type":"Feature","geometry":{"type":"Point","coordinates":[12.3459435,45.4375986]},"properties":{"id":"way/454534527","source":"osm","name":null,"fee":"yes","charge":null,"access":null,"wheelchair":null,"opening_hours":null,"operator":null,"description":null,"password":null}},{"type":"Feature","geometry":{"type":"Point","coordinates":[12.3459423,45.4375987]},"properties":{"id":"way/454534530","source":"osm","name":null,"fee":"yes","charge":null,"access":null,"wheelchair":null,"opening_hours":null,"operator":null,"description":null,"password":null}},{"type":"Feature","geometry":{"type":"Point","coordinates":[12.3776123,45.4149072]},"properties":{"id":"way/505665774","source":"osm","name":null,"fee":"yes","charge":null,"access":"permissive","wheelchair":null,"opening_hours":null,"operator":null,"description":null,"password":null}},{"type":"Feature","geometry":{"type":"Point","coordinates":[12.2667602,45.467075]},"properties":{"id":"way/660424589","source":"osm","name":null,"fee":"yes","charge":null,"access":"yes","wheelchair":null,"opening_hours":null,"operator":null,"description":null,"password":null}},{"type":"Feature","geometry":{"type":"Point","coordinates":[12.2666501,45.4671404]},"properties":{"id":"way/1198412580","source":"osm","name":null,"fee":"yes","charge":null,"access":"yes","wheelchair":"yes","opening_hours":null,"operator":null,"description":null,"password":null}},{"type":"Feature","geometry":{"type":"Point","coordinates":[12.2638618,45.4743213]},"properties":{"id":"way/1331581851","source":"osm","name":null,"fee":"yes","charge":null,"access":"yes","wheelchair":null,"opening_hours":null,"operator":null,"description":null,"password":null}},{"type":"Feature","geometry":{"type":"Point","coordinates":[12.2628666,45.4764207]},"properties":{"id":"way/1379174533","source":"osm","name":null,"fee":null,"charge":null,"access":null,"wheelchair":null,"opening_hours":null,"operator":null,"description":null,"password":null}},{"type":"Feature","geometry":{"type":"Point","coordinates":[12.222737,45.5139823]},"properties":{"id":"way/1533206308","source":"osm","name":null,"fee":"no","charge":null,"access":"yes","wheelchair":null,"opening_hours":null,"operator":null,"description":null,"password":null}},{"type":"Feature","geometry":{"type":"Point","coordinates":[12.3327,45.4434]},"properties":{"id":"xhs/mcdonald-s-ca-d-oro-strada-nova","source":"xhs","name":"McDonald's (Ca' d'Oro / Strada Nova)","fee":"yes","charge":null,"access":null,"wheelchair":null,"opening_hours":null,"operator":null,"description":"黄金宫附近","password":"6789#","code_confirmed_at":null,"cleanliness":null,"city":"italy/venice"}},{"type":"Feature","geometry":{"type":"Point","coordinates":[12.3209,45.4409]},"properties":{"id":"xhs/burger-king-santa-lucia-station","source":"xhs","name":"Burger King (Santa Lucia station)","fee":"yes","charge":null,"access":null,"wheelchair":null,"opening_hours":null,"operator":null,"description":"","password":"8787#","code_confirmed_at":null,"cleanliness":null,"city":"italy/venice"}},{"type":"Feature","geometry":{"type":"Point","coordinates":[12.2349,45.4823]},"properties":{"id":"xhs/mcdonald-s-mestre-station","source":"xhs","name":"McDonald's (Mestre station)","fee":"yes","charge":null,"access":null,"wheelchair":null,"opening_hours":null,"operator":null,"description":"","password":"3474#","code_confirmed_at":null,"cleanliness":null,"city":"italy/venice"}},{"type":"Feature","geometry":{"type":"Point","coordinates":[12.336686,45.438254]},"properties":{"id":"xhs/dfs-t-fondaco-ground-floor","source":"xhs","name":"DFS T Fondaco (Ground floor)","fee":"no","charge":null,"access":null,"wheelchair":null,"opening_hours":null,"operator":null,"description":"DFS 商场 0 楼（国内 1 楼）","password":null,"code_confirmed_at":null,"cleanliness":null,"city":"italy/venice"}}]}