{"type":"FeatureCollection","attribution":"© OpenStreetMap contributors (ODbL)","generated_at":"2026-08-21T09:47:53.531Z","features":[{"type":"Feature","geometry":{"type":"Point","coordinates":[-6.2616051,53.3397223]},"properties":{"id":"node/451893601","source":"osm","name":null,"fee":"yes","charge":null,"access":null,"wheelchair":"yes","opening_hours":null,"operator":null,"description":null,"password":null}},{"type":"Feature","geometry":{"type":"Point","coordinates":[-6.2069951,53.3253821]},"properties":{"id":"node/909489328","source":"osm","name":null,"fee":"yes","charge":null,"access":"yes","wheelchair":"no","opening_hours":null,"operator":null,"description":null,"password":null}},{"type":"Feature","geometry":{"type":"Point","coordinates":[-6.2827219,53.324001]},"properties":{"id":"node/917206684","source":"osm","name":null,"fee":null,"charge":null,"access":null,"wheelchair":"no","opening_hours":null,"operator":null,"description":null,"password":null}},{"type":"Feature","geometry":{"type":"Point","coordinates":[-6.2930784,53.3462485]},"properties":{"id":"node/966872658","source":"osm","name":null,"fee":"no","charge":null,"access":null,"wheelchair":"yes","opening_hours":null,"operator":null,"description":null,"password":null}},{"type":"Feature","geometry":{"type":"Point","coordinates":[-6.3310922,53.3658411]},"properties":{"id":"node/1237906950","source":"osm","name":null,"fee":"no","charge":null,"access":"yes","wheelchair":"yes","opening_hours":null,"operator":null,"description":null,"password":null}},{"type":"Feature","geometry":{"type":"Point","coordinates":[-6.2298804,53.3272258]},"properties":{"id":"node/1393762638","source":"osm","name":null,"fee":null,"charge":null,"access":null,"wheelchair":"yes","opening_hours":null,"operator":null,"description":null,"password":null}},{"type":"Feature","geometry":{"type":"Point","coordinates":[-6.2296788,53.327659]},"properties":{"id":"node/1393762645","source":"osm","name":null,"fee":null,"charge":null,"access":null,"wheelchair":"yes","opening_hours":null,"operator":null,"description":null,"password":null}},{"type":"Feature","geometry":{"type":"Point","coordinates":[-6.2296721,53.3282973]},"properties":{"id":"node/1393762650","source":"osm","name":null,"fee":null,"charge":null,"access":null,"wheelchair":"yes","opening_hours":null,"operator":null,"description":null,"password":null}},{"type":"Feature","geometry":{"type":"Point","coordinates":[-6.2250536,53.3222877]},"properties":{"id":"node/1393801911","source":"osm","name":null,"fee":null,"charge":null,"access":null,"wheelchair":"yes","opening_hours":null,"operator":null,"description":null,"password":null}},{"type":"Feature","geometry":{"type":"Point","coordinates":[-6.2260469,53.3226598]},"properties":{"id":"node/1393801912","source":"osm","name":null,"fee":null,"charge":null,"access":null,"wheelchair":null,"opening_hours":null,"operator":null,"description":null,"password":null}},{"type":"Feature","geometry":{"type":"Point","coordinates":[-6.2258939,53.3234631]},"properties":{"id":"node/1393801913","source":"osm","name":null,"fee":null,"charge":null,"access":null,"wheelchair":"yes","opening_hours":null,"operator":null,"description":null,"password":null}},{"type":"Feature","geometry":{"type":"Point","coordinates":[-6.2251914,53.3233173]},"properties":{"id":"node/1393801914","source":"osm","name":null,"fee":null,"charge":null,"access":null,"wheelchair":"yes","opening_hours":null,"operator":null,"description":null,"password":null}},{"type":"Feature","geometry":{"type":"Point","coordinates":[-6.2286198,53.3259217]},"properties":{"id":"node/1393801917","source":"osm","name":null,"fee":null,"charge":null,"access":null,"wheelchair":null,"opening_hours":null,"operator":null,"description":null,"password":null}},{"type":"Feature","geometry":{"type":"Point","coordinates":[-6.2289821,53.326909]},"properties":{"id":"node/1393801925","source":"osm","name":null,"fee":null,"charge":null,"access":null,"wheelchair":"yes","opening_hours":null,"operator":null,"description":null,"password":null}},{"type":"Feature","geometry":{"type":"Point","coordinates":[-6.2289167,53.3279384]},"properties":{"id":"node/1393801927","source":"osm","name":null,"fee":null,"charge":null,"access":null,"wheelchair":"yes","opening_hours":null,"operator":null,"description":null,"password":null}},{"type":"Feature","geometry":{"type":"Point","coordinates":[-6.2308787,53.325185]},"properties":{"id":"node/1393805065","source":"osm","name":null,"fee":null,"charge":null,"access":null,"wheelchair":null,"opening_hours":null,"operator":null,"description":null,"password":null}},{"type":"Feature","geometry":{"type":"Point","coordinates":[-6.2490025,53.3514329]},"properties":{"id":"node/1534008732","source":"osm","name":"Connolly Train Station","fee":"no","charge":null,"access":"permissive","wheelchair":"yes","opening_hours":"24/7","operator":"Irish Rail","description":null,"password":null}},{"type":"Feature","geometry":{"type":"Point","coordinates":[-6.2573394,53.3432194]},"properties":{"id":"node/1583772069","source":"osm","name":null,"fee":"no","charge":null,"access":"permissive","wheelchair":"yes","opening_hours":null,"operator":null,"description":null,"password":null}},{"type":"Feature","geometry":{"type":"Point","coordinates":[-6.2285925,53.3276717]},"properties":{"id":"node/1785370031","source":"osm","name":null,"fee":null,"charge":null,"access":null,"wheelchair":"yes","opening_hours":null,"operator":null,"description":null,"password":null}},{"type":"Feature","geometry":{"type":"Point","coordinates":[-6.3071749,53.3571099]},"properties":{"id":"node/2448527364","source":"osm","name":null,"fee":null,"charge":null,"access":"customers","wheelchair":null,"opening_hours":null,"operator":null,"description":null,"password":null}},{"type":"Feature","geometry":{"type":"Point","coordinates":[-6.257979,53.3452266]},"properties":{"id":"node/3197337264","source":"osm","name":null,"fee":null,"charge":null,"access":null,"wheelchair":null,"opening_hours":null,"operator":null,"description":null,"password":null}},{"type":"Feature","geometry":{"type":"Point","coordinates":[-6.2505186,53.3426654]},"properties":{"id":"node/3198918308","source":"osm","name":null,"fee":null,"charge":null,"access":null,"wheelchair":null,"opening_hours":null,"operator":null,"description":null,"password":null}},{"type":"Feature","geometry":{"type":"Point","coordinates":[-6.250335,53.3432759]},"properties":{"id":"node/3198918309","source":"osm","name":null,"fee":"no","charge":null,"access":null,"wheelchair":"yes","opening_hours":null,"operator":null,"description":null,"password":null}},{"type":"Feature","geometry":{"type":"Point","coordinates":[-6.2558829,53.3436709]},"properties":{"id":"node/3198918310","source":"osm","name":null,"fee":"no","charge":null,"access":null,"wheelchair":"yes","opening_hours":null,"operator":null,"description":null,"password":null}},{"type":"Feature","geometry":{"type":"Point","coordinates":[-6.2994549,53.3428189]},"properties":{"id":"node/3309529330","source":"osm","name":null,"fee":"no","charge":null,"access":null,"wheelchair":"yes","opening_hours":null,"operator":null,"description":null,"password":null}},{"type":"Feature","geometry":{"type":"Point","coordinates":[-6.2504349,53.344207]},"properties":{"id":"node/3393654319","source":"osm","name":null,"fee":"no","charge":null,"access":null,"wheelchair":null,"opening_hours":null,"operator":null,"description":null,"password":null}},{"type":"Feature","geometry":{"type":"Point","coordinates":[-6.2504017,53.3441606]},"properties":{"id":"node/3393654320","source":"osm","name":null,"fee":"no","charge":null,"access":null,"wheelchair":null,"opening_hours":null,"operator":null,"description":null,"password":null}},{"type":"Feature","geometry":{"type":"Point","coordinates":[-6.2628307,53.3488526]},"properties":{"id":"node/3651398817","source":"osm","name":null,"fee":null,"charge":null,"access":null,"wheelchair":null,"opening_hours":null,"operator":null,"description":null,"password":null}},{"type":"Feature","geometry":{"type":"Point","coordinates":[-6.2140484,53.3187814]},"properties":{"id":"node/3731529233","source":"osm","name":null,"fee":"no","charge":null,"access":null,"wheelchair":"yes","opening_hours":null,"operator":null,"description":null,"password":null}},{"type":"Feature","geometry":{"type":"Point","coordinates":[-6.2594612,53.3422605]},"properties":{"id":"node/3731538536","source":"osm","name":null,"fee":"no","charge":null,"access":"permissive","wheelchair":null,"opening_hours":null,"operator":null,"description":null,"password":null}},{"type":"Feature","geometry":{"type":"Point","coordinates":[-6.2598919,53.3424515]},"properties":{"id":"node/3731538537","source":"osm","name":null,"fee":"no","charge":null,"access":"permissive","wheelchair":"no","opening_hours":null,"operator":null,"description":null,"password":null}},{"type":"Feature","geometry":{"type":"Point","coordinates":[-6.3063281,53.3542885]},"properties":{"id":"node/3950828732","source":"osm","name":null,"fee":null,"charge":null,"access":"customers","wheelchair":null,"opening_hours":null,"operator":null,"description":null,"password":null}},{"type":"Feature","geometry":{"type":"Point","coordinates":[-6.2488828,53.3435895]},"properties":{"id":"node/4046914576","source":"osm","name":null,"fee":"no","charge":null,"access":"customers","wheelchair":"yes","opening_hours":null,"operator":"Irish Rail","description":null,"password":null}},{"type":"Feature","geometry":{"type":"Point","coordinates":[-6.2484668,53.3916221]},"properties":{"id":"node/4105794011","source":"osm","name":null,"fee":"no","charge":null,"access":null,"wheelchair":"yes","opening_hours":null,"operator":null,"description":null,"password":null}},{"type":"Feature","geometry":{"type":"Point","coordinates":[-6.2765244,53.3694685]},"properties":{"id":"node/4365515309","source":"osm","name":null,"fee":"no","charge":null,"access":null,"wheelchair":"yes","opening_hours":null,"operator":null,"description":null,"password":null}},{"type":"Feature","geometry":{"type":"Point","coordinates":[-6.2950544,53.3394839]},"properties":{"id":"node/4391730999","source":"osm","name":null,"fee":null,"charge":null,"access":null,"wheelchair":null,"opening_hours":null,"operator":null,"description":null,"password":null}},{"type":"Feature","geometry":{"type":"Point","coordinates":[-6.2510446,53.3438821]},"properties":{"id":"node/4858531829","source":"osm","name":null,"fee":null,"charge":null,"access":"permissive","wheelchair":"yes","opening_hours":null,"operator":null,"description":null,"password":null}},{"type":"Feature","geometry":{"type":"Point","coordinates":[-6.2510554,53.3436684]},"properties":{"id":"node/4858531830","source":"osm","name":null,"fee":null,"charge":null,"access":"permissive","wheelchair":"yes","opening_hours":null,"operator":null,"description":null,"password":null}},{"type":"Feature","geometry":{"type":"Point","coordinates":[-6.2795714,53.3549796]},"properties":{"id":"node/5246121109","source":"osm","name":null,"fee":null,"charge":null,"access":null,"wheelchair":null,"opening_hours":null,"operator":null,"description":null,"password":null}},{"type":"Feature","geometry":{"type":"Point","coordinates":[-6.2794561,53.3548923]},"properties":{"id":"node/5246121110","source":"osm","name":null,"fee":"no","charge":null,"access":null,"wheelchair":null,"opening_hours":null,"operator":null,"description":null,"password":null}},{"type":"Feature","geometry":{"type":"Point","coordinates":[-6.279103,53.3548495]},"properties":{"id":"node/5309074065","source":"osm","name":null,"fee":null,"charge":null,"access":"private","wheelchair":null,"opening_hours":null,"operator":null,"description":null,"password":null}},{"type":"Feature","geometry":{"type":"Point","coordinates":[-6.2794061,53.3549263]},"properties":{"id":"node/5309074066","source":"osm","name":null,"fee":null,"charge":null,"access":null,"wheelchair":null,"opening_hours":null,"operator":null,"description":null,"password":null}},{"type":"Feature","geometry":{"type":"Point","coordinates":[-6.2516916,53.3498216]},"properties":{"id":"node/5333866142","source":"osm","name":null,"fee":null,"charge":null,"access":"permissive","wheelchair":null,"opening_hours":null,"operator":"Bus Éireann","description":null,"password":null}},{"type":"Feature","geometry":{"type":"Point","coordinates":[-6.2586818,53.3852711]},"properties":{"id":"node/5381214198","source":"osm","name":null,"fee":"no","charge":null,"access":"permissive","wheelchair":null,"opening_hours":null,"operator":null,"description":null,"password":null}},{"type":"Feature","geometry":{"type":"Point","coordinates":[-6.2587126,53.3852264]},"properties":{"id":"node/5381214199","source":"osm","name":null,"fee":"no","charge":null,"access":"permissive","wheelchair":null,"opening_hours":null,"operator":null,"description":null,"password":null}},{"type":"Feature","geometry":{"type":"Point","coordinates":[-6.2530044,53.3397372]},"properties":{"id":"node/5555230746","source":"osm","name":null,"fee":"no","charge":null,"access":"yes","wheelchair":"yes","opening_hours":null,"operator":null,"description":null,"password":null}},{"type":"Feature","geometry":{"type":"Point","coordinates":[-6.2608805,53.350255]},"properties":{"id":"node/5617700800","source":"osm","name":null,"fee":"no","charge":null,"access":"permissive","wheelchair":"no","opening_hours":null,"operator":"McDonald's","description":null,"password":null}},{"type":"Feature","geometry":{"type":"Point","coordinates":[-6.264064,53.3499291]},"properties":{"id":"node/5647759491","source":"osm","name":null,"fee":"no","charge":null,"access":"permissive","wheelchair":"yes","opening_hours":null,"operator":null,"description":null,"password":null}},{"type":"Feature","geometry":{"type":"Point","coordinates":[-6.3061579,53.3314162]},"properties":{"id":"node/5881094037","source":"osm","name":null,"fee":"no","charge":null,"access":null,"wheelchair":null,"opening_hours":null,"operator":null,"description":null,"password":null}},{"type":"Feature","geometry":{"type":"Point","coordinates":[-6.217705,53.3733745]},"properties":{"id":"node/6032948745","source":"osm","name":null,"fee":null,"charge":null,"access":null,"wheelchair":null,"opening_hours":null,"operator":null,"description":null,"password":null}},{"type":"Feature","geometry":{"type":"Point","coordinates":[-6.2703119,53.339834]},"properties":{"id":"node/6439763587","source":"osm","name":null,"fee":"no","charge":null,"access":null,"wheelchair":"yes","opening_hours":null,"operator":null,"description":null,"password":null}},{"type":"Feature","geometry":{"type":"Point","coordinates":[-6.2827065,53.3240366]},"properties":{"id":"node/6466874296","source":"osm","name":null,"fee":null,"charge":null,"access":null,"wheelchair":"yes","opening_hours":null,"operator":null,"description":null,"password":null}},{"type":"Feature","geometry":{"type":"Point","coordinates":[-6.3728772,53.3365879]},"properties":{"id":"node/6738405290","source":"osm","name":null,"fee":null,"charge":null,"access":null,"wheelchair":null,"opening_hours":null,"operator":null,"description":null,"password":null}},{"type":"Feature","geometry":{"type":"Point","coordinates":[-6.2476143,53.3487492]},"properties":{"id":"node/6762071686","source":"osm","name":null,"fee":"no","charge":null,"access":null,"wheelchair":"yes","opening_hours":null,"operator":null,"description":null,"password":null}},{"type":"Feature","geometry":{"type":"Point","coordinates":[-6.2698676,53.371569]},"properties":{"id":"node/6805512358","source":"osm","name":null,"fee":"no","charge":null,"access":null,"wheelchair":null,"opening_hours":null,"operator":null,"description":null,"password":null}},{"type":"Feature","geometry":{"type":"Point","coordinates":[-6.2719942,53.3396894]},"properties":{"id":"node/7064933112","source":"osm","name":null,"fee":"no","charge":null,"access":"customers","wheelchair":"yes","opening_hours":null,"operator":null,"description":null,"password":null}},{"type":"Feature","geometry":{"type":"Point","coordinates":[-6.2516253,53.3439419]},"properties":{"id":"node/7208481002","source":"osm","name":null,"fee":null,"charge":null,"access":"permissive","wheelchair":"no","opening_hours":null,"operator":null,"description":null,"password":null}},{"type":"Feature","geometry":{"type":"Point","coordinates":[-6.249232,53.3438373]},"properties":{"id":"node/7208481003","source":"osm","name":null,"fee":"no","charge":null,"access":"private","wheelchair":"yes","opening_hours":null,"operator":null,"description":null,"password":null}},{"type":"Feature","geometry":{"type":"Point","coordinates":[-6.3318653,53.3190138]},"properties":{"id":"node/8371577451","source":"osm","name":null,"fee":null,"charge":null,"access":null,"wheelchair":null,"opening_hours":null,"operator":null,"description":null,"password":null}},{"type":"Feature","geometry":{"type":"Point","coordinates":[-6.3318632,53.3190103]},"properties":{"id":"node/8371577460","source":"osm","name":null,"fee":null,"charge":null,"access":null,"wheelchair":null,"opening_hours":null,"operator":null,"description":null,"password":null}},{"type":"Feature","geometry":{"type":"Point","coordinates":[-6.2506897,53.3468654]},"properties":{"id":"node/8946938038","source":"osm","name":null,"fee":null,"charge":null,"access":"customers","wheelchair":"yes","opening_hours":null,"operator":null,"description":null,"password":null}},{"type":"Feature","geometry":{"type":"Point","coordinates":[-6.2247276,53.3225512]},"properties":{"id":"node/8985936250","source":"osm","name":null,"fee":null,"charge":null,"access":"customers","wheelchair":"yes","opening_hours":null,"operator":null,"description":null,"password":null}},{"type":"Feature","geometry":{"type":"Point","coordinates":[-6.2248711,53.3224968]},"properties":{"id":"node/8985936251","source":"osm","name":null,"fee":null,"charge":null,"access":"customers","wheelchair":"yes","opening_hours":null,"operator":null,"description":null,"password":null}},{"type":"Feature","geometry":{"type":"Point","coordinates":[-6.2520325,53.3499132]},"properties":{"id":"node/9330860256","source":"osm","name":null,"fee":null,"charge":null,"access":"permissive","wheelchair":null,"opening_hours":null,"operator":"Bus Éireann","description":null,"password":null}},{"type":"Feature","geometry":{"type":"Point","coordinates":[-6.2569156,53.3471666]},"properties":{"id":"node/9492422774","source":"osm","name":null,"fee":null,"charge":null,"access":"customers","wheelchair":"no","opening_hours":null,"operator":"Le Rendez-vous","description":null,"password":null}},{"type":"Feature","geometry":{"type":"Point","coordinates":[-6.1952979,53.3455186]},"properties":{"id":"node/9813720249","source":"osm","name":null,"fee":"no","charge":null,"access":null,"wheelchair":null,"opening_hours":null,"operator":null,"description":null,"password":null}},{"type":"Feature","geometry":{"type":"Point","coordinates":[-6.2159463,53.3325675]},"properties":{"id":"node/9862229843","source":"osm","name":null,"fee":null,"charge":null,"access":"customers","wheelchair":null,"opening_hours":null,"operator":null,"description":null,"password":null}},{"type":"Feature","geometry":{"type":"Point","coordinates":[-6.2703071,53.3716556]},"properties":{"id":"node/9959742957","source":"osm","name":null,"fee":"no","charge":null,"access":null,"wheelchair":"yes","opening_hours":null,"operator":null,"description":null,"password":null}},{"type":"Feature","geometry":{"type":"Point","coordinates":[-6.255107,53.3400541]},"properties":{"id":"node/10617057062","source":"osm","name":null,"fee":null,"charge":null,"access":"customers","wheelchair":null,"opening_hours":null,"operator":null,"description":null,"password":null}},{"type":"Feature","geometry":{"type":"Point","coordinates":[-6.2604394,53.3698934]},"properties":{"id":"node/10750678988","source":"osm","name":null,"fee":null,"charge":null,"access":"yes","wheelchair":"limited","opening_hours":null,"operator":null,"description":null,"password":null}},{"type":"Feature","geometry":{"type":"Point","coordinates":[-6.3548613,53.3584534]},"properties":{"id":"node/11263195237","source":"osm","name":null,"fee":null,"charge":null,"access":null,"wheelchair":null,"opening_hours":null,"operator":null,"description":null,"password":null}},{"type":"Feature","geometry":{"type":"Point","coordinates":[-6.3549201,53.3583656]},"properties":{"id":"node/11263195238","source":"osm","name":null,"fee":null,"charge":null,"access":null,"wheelchair":null,"opening_hours":null,"operator":null,"description":null,"password":null}},{"type":"Feature","geometry":{"type":"Point","coordinates":[-6.2740342,53.3435817]},"properties":{"id":"node/11324921294","source":"osm","name":null,"fee":null,"charge":null,"access":null,"wheelchair":null,"opening_hours":null,"operator":null,"description":null,"password":null}},{"type":"Feature","geometry":{"type":"Point","coordinates":[-6.1970866,53.3495841]},"properties":{"id":"node/12194444774","source":"osm","name":null,"fee":"no","charge":null,"access":"yes","wheelchair":"yes","opening_hours":null,"operator":null,"description":null,"password":null}},{"type":"Feature","geometry":{"type":"Point","coordinates":[-6.1973714,53.3496923]},"properties":{"id":"node/12194445562","source":"osm","name":null,"fee":"no","charge":null,"access":"customers","wheelchair":"yes","opening_hours":null,"operator":null,"description":null,"password":null}},{"type":"Feature","geometry":{"type":"Point","coordinates":[-6.300918,53.364256]},"properties":{"id":"node/12420631208","source":"osm","name":null,"fee":"no","charge":null,"access":"yes","wheelchair":"yes","opening_hours":null,"operator":null,"description":null,"password":null}},{"type":"Feature","geometry":{"type":"Point","coordinates":[-6.2645875,53.3979755]},"properties":{"id":"node/13017872874","source":"osm","name":null,"fee":null,"charge":null,"access":"permissive","wheelchair":null,"opening_hours":null,"operator":null,"description":null,"password":null}},{"type":"Feature","geometry":{"type":"Point","coordinates":[-6.2863838,53.3488482]},"properties":{"id":"node/13138005535","source":"osm","name":null,"fee":"no","charge":null,"access":"yes","wheelchair":null,"opening_hours":"Mo 13:00-17:00; Tu-Sa 10:00-17:00; Su 13:00-17:00","operator":null,"description":null,"password":null}},{"type":"Feature","geometry":{"type":"Point","coordinates":[-6.2589695,53.3698721]},"properties":{"id":"node/14032077302","source":"osm","name":null,"fee":"no","charge":null,"access":null,"wheelchair":"yes","opening_hours":null,"operator":null,"description":null,"password":null}},{"type":"Feature","geometry":{"type":"Point","coordinates":[-6.2551721,53.3442102]},"properties":{"id":"node/14107099652","source":"osm","name":null,"fee":null,"charge":null,"access":null,"wheelchair":null,"opening_hours":null,"operator":null,"description":null,"password":null}},{"type":"Feature","geometry":{"type":"Point","coordinates":[-6.149324,53.3686815]},"properties":{"id":"way/51569592","source":"osm","name":"Interpretive Centre","fee":"no","charge":null,"access":null,"wheelchair":"yes","opening_hours":null,"operator":null,"description":null,"password":null}},{"type":"Feature","geometry":{"type":"Point","coordinates":[-6.3046137,53.3564616]},"properties":{"id":"way/240279101","source":"osm","name":null,"fee":null,"charge":null,"access":null,"wheelchair":null,"opening_hours":null,"operator":null,"description":null,"password":null}},{"type":"Feature","geometry":{"type":"Point","coordinates":[-6.3039557,53.3536244]},"properties":{"id":"way/391812252","source":"osm","name":null,"fee":null,"charge":null,"access":null,"wheelchair":null,"opening_hours":null,"operator":null,"description":null,"password":null}},{"type":"Feature","geometry":{"type":"Point","coordinates":[-6.3054336,53.3525354]},"properties":{"id":"way/391812263","source":"osm","name":null,"fee":null,"charge":null,"access":null,"wheelchair":null,"opening_hours":null,"operator":null,"description":null,"password":null}},{"type":"Feature","geometry":{"type":"Point","coordinates":[-6.3059777,53.3565396]},"properties":{"id":"way/392528722","source":"osm","name":null,"fee":null,"charge":null,"access":null,"wheelchair":null,"opening_hours":null,"operator":null,"description":null,"password":null}},{"type":"Feature","geometry":{"type":"Point","coordinates":[-6.3090203,53.3605537]},"properties":{"id":"way/392865209","source":"osm","name":null,"fee":"no","charge":null,"access":null,"wheelchair":"yes","opening_hours":null,"operator":null,"description":null,"password":null}},{"type":"Feature","geometry":{"type":"Point","coordinates":[-6.3093063,53.3606945]},"properties":{"id":"way/392865212","source":"osm","name":null,"fee":"no","charge":null,"access":null,"wheelchair":"yes","opening_hours":null,"operator":null,"description":null,"password":null}},{"type":"Feature","geometry":{"type":"Point","coordinates":[-6.1758514,53.3695505]},"properties":{"id":"way/444481054","source":"osm","name":null,"fee":"no","charge":null,"access":"yes","wheelchair":null,"opening_hours":null,"operator":null,"description":null,"password":null}},{"type":"Feature","geometry":{"type":"Point","coordinates":[-6.3045821,53.3521399]},"properties":{"id":"way/511841286","source":"osm","name":null,"fee":"no","charge":null,"access":null,"wheelchair":"yes","opening_hours":null,"operator":null,"description":null,"password":null}},{"type":"Feature","geometry":{"type":"Point","coordinates":[-6.1703088,53.3551077]},"properties":{"id":"way/595863763","source":"osm","name":null,"fee":null,"charge":null,"access":null,"wheelchair":null,"opening_hours":null,"operator":null,"description":null,"password":null}},{"type":"Feature","geometry":{"type":"Point","coordinates":[-6.2698859,53.3715648]},"properties":{"id":"way/968293532","source":"osm","name":null,"fee":"no","charge":null,"access":null,"wheelchair":null,"opening_hours":null,"operator":null,"description":null,"password":null}},{"type":"Feature","geometry":{"type":"Point","coordinates":[-6.2853756,53.3089349]},"properties":{"id":"way/1075377632","source":"osm","name":null,"fee":null,"charge":null,"access":null,"wheelchair":null,"opening_hours":null,"operator":null,"description":null,"password":null}},{"type":"Feature","geometry":{"type":"Point","coordinates":[-6.2488009,53.3791399]},"properties":{"id":"way/1245217203","source":"osm","name":null,"fee":null,"charge":null,"access":"private","wheelchair":"limited","opening_hours":null,"operator":null,"description":null,"password":null}},{"type":"Feature","geometry":{"type":"Point","coordinates":[-6.2721564,53.3397093]},"properties":{"id":"way/1316824862","source":"osm","name":null,"fee":"no","charge":null,"access":"customers","wheelchair":"yes","opening_hours":null,"operator":null,"description":null,"password":null}},{"type":"Feature","geometry":{"type":"Point","coordinates":[-6.2608828,53.3398804]},"properties":{"id":"way/1320104393","source":"osm","name":null,"fee":null,"charge":null,"access":"yes","wheelchair":null,"opening_hours":"Mo-Su 10:00-18:00","operator":null,"description":null,"password":null}},{"type":"Feature","geometry":{"type":"Point","coordinates":[-6.3167234,53.33088]},"properties":{"id":"way/1535827944","source":"osm","name":null,"fee":"no","charge":null,"access":"private","wheelchair":"no","opening_hours":null,"operator":null,"description":null,"password":null}},{"type":"Feature","geometry":{"type":"Point","coordinates":[-6.3172182,53.3301833]},"properties":{"id":"way/1536341357","source":"osm","name":null,"fee":null,"charge":null,"access":"private_for_students","wheelchair":"no","opening_hours":null,"operator":null,"description":null,"password":null}}]}