{"type":"FeatureCollection","attribution":"© OpenStreetMap contributors (ODbL)","generated_at":"2026-08-21T08:43:46.322Z","features":[{"type":"Feature","geometry":{"type":"Point","coordinates":[4.3838261,50.8463553]},"properties":{"id":"node/485996338","source":"osm","name":null,"fee":"yes","charge":null,"access":null,"wheelchair":"no","opening_hours":"off \"Out of order\"","operator":null,"description":null,"password":null}},{"type":"Feature","geometry":{"type":"Point","coordinates":[4.3721187,50.8152208]},"properties":{"id":"node/707100634","source":"osm","name":null,"fee":"yes","charge":null,"access":null,"wheelchair":"no","opening_hours":null,"operator":null,"description":null,"password":null}},{"type":"Feature","geometry":{"type":"Point","coordinates":[4.3481042,50.8508378]},"properties":{"id":"node/707105134","source":"osm","name":null,"fee":"no","charge":null,"access":null,"wheelchair":"no","opening_hours":"24/7","operator":null,"description":null,"password":null}},{"type":"Feature","geometry":{"type":"Point","coordinates":[4.3325572,50.8933888]},"properties":{"id":"node/1094135674","source":"osm","name":null,"fee":null,"charge":null,"access":null,"wheelchair":null,"opening_hours":null,"operator":null,"description":null,"password":null}},{"type":"Feature","geometry":{"type":"Point","coordinates":[4.3467563,50.8539828]},"properties":{"id":"node/1726631283","source":"osm","name":null,"fee":"no","charge":null,"access":"yes","wheelchair":"yes","opening_hours":null,"operator":null,"description":null,"password":null}},{"type":"Feature","geometry":{"type":"Point","coordinates":[4.3445751,50.8511281]},"properties":{"id":"node/2185827782","source":"osm","name":null,"fee":"no","charge":null,"access":"yes","wheelchair":"no","opening_hours":null,"operator":null,"description":null,"password":null}},{"type":"Feature","geometry":{"type":"Point","coordinates":[4.3511314,50.8379433]},"properties":{"id":"node/2313329918","source":"osm","name":null,"fee":"no","charge":null,"access":null,"wheelchair":"no","opening_hours":"24/7","operator":"Ville de Bruxelles - Stad Brussel","description":"Zwaardstraat lift toilet - place and mapillary","password":null}},{"type":"Feature","geometry":{"type":"Point","coordinates":[4.3460011,50.8470748]},"properties":{"id":"node/2337325996","source":"osm","name":null,"fee":"no","charge":null,"access":null,"wheelchair":"no","opening_hours":null,"operator":null,"description":null,"password":null}},{"type":"Feature","geometry":{"type":"Point","coordinates":[4.3417043,50.8951209]},"properties":{"id":"node/2466317309","source":"osm","name":null,"fee":"yes","charge":null,"access":"yes","wheelchair":"yes","opening_hours":"Mo-Su 10:00-17:30","operator":null,"description":null,"password":null}},{"type":"Feature","geometry":{"type":"Point","coordinates":[4.3538204,50.8462212]},"properties":{"id":"node/3255818487","source":"osm","name":null,"fee":"yes","charge":"1 EUR","access":"yes","wheelchair":"yes","opening_hours":null,"operator":null,"description":null,"password":null}},{"type":"Feature","geometry":{"type":"Point","coordinates":[4.3471785,50.8764406]},"properties":{"id":"node/3892311144","source":"osm","name":null,"fee":"no","charge":null,"access":"yes","wheelchair":"no","opening_hours":"24/7","operator":null,"description":null,"password":null}},{"type":"Feature","geometry":{"type":"Point","coordinates":[4.3453263,50.8510771]},"properties":{"id":"node/4194903702","source":"osm","name":null,"fee":"yes","charge":null,"access":null,"wheelchair":"yes","opening_hours":null,"operator":null,"description":null,"password":null}},{"type":"Feature","geometry":{"type":"Point","coordinates":[4.3529477,50.8564469]},"properties":{"id":"node/4202188645","source":"osm","name":null,"fee":"no","charge":null,"access":null,"wheelchair":null,"opening_hours":null,"operator":null,"description":null,"password":null}},{"type":"Feature","geometry":{"type":"Point","coordinates":[4.3503337,50.8524656]},"properties":{"id":"node/4202205402","source":"osm","name":null,"fee":"no","charge":null,"access":null,"wheelchair":"no","opening_hours":null,"operator":null,"description":null,"password":null}},{"type":"Feature","geometry":{"type":"Point","coordinates":[4.3553654,50.8451159]},"properties":{"id":"node/4202284721","source":"osm","name":null,"fee":"no","charge":null,"access":"yes","wheelchair":"yes","opening_hours":"24/7","operator":null,"description":null,"password":null}},{"type":"Feature","geometry":{"type":"Point","coordinates":[4.3438393,50.8359888]},"properties":{"id":"node/4210413035","source":"osm","name":null,"fee":"no","charge":null,"access":"yes","wheelchair":null,"opening_hours":"24/7","operator":"Ville de Bruxelles - Stad Brussel","description":null,"password":null}},{"type":"Feature","geometry":{"type":"Point","coordinates":[4.3384434,50.8453054]},"properties":{"id":"node/4210683989","source":"osm","name":null,"fee":"no","charge":null,"access":"yes","wheelchair":null,"opening_hours":"24/7","operator":"Ville de Bruxelles - Stad Brussel","description":null,"password":null}},{"type":"Feature","geometry":{"type":"Point","coordinates":[4.3605386,50.8754452]},"properties":{"id":"node/4211198738","source":"osm","name":null,"fee":"no","charge":null,"access":"yes","wheelchair":null,"opening_hours":"24/7","operator":"Ville de Bruxelles - Stad Brussel","description":null,"password":null}},{"type":"Feature","geometry":{"type":"Point","coordinates":[4.3579854,50.876611]},"properties":{"id":"node/4211217194","source":"osm","name":null,"fee":"no","charge":null,"access":"yes","wheelchair":null,"opening_hours":"24/7","operator":"Ville de Bruxelles - Stad Brussel","description":null,"password":null}},{"type":"Feature","geometry":{"type":"Point","coordinates":[4.3568789,50.8785547]},"properties":{"id":"node/4211234175","source":"osm","name":null,"fee":"no","charge":null,"access":"yes","wheelchair":null,"opening_hours":"24/7","operator":null,"description":null,"password":null}},{"type":"Feature","geometry":{"type":"Point","coordinates":[4.3867429,50.8471676]},"properties":{"id":"node/4211283916","source":"osm","name":null,"fee":"no","charge":null,"access":"yes","wheelchair":"no","opening_hours":"24/7","operator":null,"description":null,"password":null}},{"type":"Feature","geometry":{"type":"Point","coordinates":[4.3452214,50.8915782]},"properties":{"id":"node/4333519695","source":"osm","name":null,"fee":"no","charge":null,"access":"yes","wheelchair":"no","opening_hours":null,"operator":null,"description":null,"password":null}},{"type":"Feature","geometry":{"type":"Point","coordinates":[4.3438971,50.8438502]},"properties":{"id":"node/4388809514","source":"osm","name":null,"fee":"yes","charge":null,"access":"yes","wheelchair":"no","opening_hours":null,"operator":null,"description":null,"password":null}},{"type":"Feature","geometry":{"type":"Point","coordinates":[4.3818372,50.8148236]},"properties":{"id":"node/4554014716","source":"osm","name":null,"fee":"no","charge":null,"access":null,"wheelchair":"yes","opening_hours":null,"operator":null,"description":"Toilettes PMR homme et femme","password":null}},{"type":"Feature","geometry":{"type":"Point","coordinates":[4.3564932,50.8625862]},"properties":{"id":"node/4760243945","source":"osm","name":null,"fee":"no","charge":null,"access":"yes","wheelchair":"yes","opening_hours":null,"operator":null,"description":null,"password":null}},{"type":"Feature","geometry":{"type":"Point","coordinates":[4.351927,50.8501036]},"properties":{"id":"node/4826783604","source":"osm","name":null,"fee":"yes","charge":"0.50 EUR","access":null,"wheelchair":"yes","opening_hours":null,"operator":null,"description":null,"password":null}},{"type":"Feature","geometry":{"type":"Point","coordinates":[4.355502,50.8353979]},"properties":{"id":"node/4845316944","source":"osm","name":null,"fee":"yes","charge":null,"access":null,"wheelchair":"no","opening_hours":null,"operator":null,"description":null,"password":null}},{"type":"Feature","geometry":{"type":"Point","coordinates":[4.3831739,50.8427073]},"properties":{"id":"node/4936641872","source":"osm","name":null,"fee":"yes","charge":null,"access":null,"wheelchair":"yes","opening_hours":null,"operator":null,"description":null,"password":null}},{"type":"Feature","geometry":{"type":"Point","coordinates":[4.340853,50.894828]},"properties":{"id":"node/5016586261","source":"osm","name":null,"fee":"yes","charge":null,"access":null,"wheelchair":"yes","opening_hours":null,"operator":null,"description":null,"password":null}},{"type":"Feature","geometry":{"type":"Point","coordinates":[4.3626538,50.8434398]},"properties":{"id":"node/5126892852","source":"osm","name":null,"fee":"yes","charge":"0.50 EUR","access":"yes","wheelchair":null,"opening_hours":null,"operator":null,"description":null,"password":null}},{"type":"Feature","geometry":{"type":"Point","coordinates":[4.3595635,50.8431262]},"properties":{"id":"node/5310724904","source":"osm","name":null,"fee":"no","charge":null,"access":null,"wheelchair":null,"opening_hours":null,"operator":null,"description":null,"password":null}},{"type":"Feature","geometry":{"type":"Point","coordinates":[4.3527362,50.8498503]},"properties":{"id":"node/5723366101","source":"osm","name":null,"fee":"yes","charge":null,"access":null,"wheelchair":"yes","opening_hours":null,"operator":null,"description":null,"password":null}},{"type":"Feature","geometry":{"type":"Point","coordinates":[4.3442916,50.8907903]},"properties":{"id":"node/5777519990","source":"osm","name":null,"fee":"no","charge":null,"access":null,"wheelchair":"no","opening_hours":null,"operator":null,"description":null,"password":null}},{"type":"Feature","geometry":{"type":"Point","coordinates":[4.3493075,50.8480789]},"properties":{"id":"node/6269807154","source":"osm","name":null,"fee":"yes","charge":"0.50 EUR","access":null,"wheelchair":"yes","opening_hours":null,"operator":null,"description":null,"password":null}},{"type":"Feature","geometry":{"type":"Point","coordinates":[4.3489308,50.8477617]},"properties":{"id":"node/6269837310","source":"osm","name":null,"fee":"yes","charge":"0.50 EUR","access":null,"wheelchair":null,"opening_hours":null,"operator":null,"description":null,"password":null}},{"type":"Feature","geometry":{"type":"Point","coordinates":[4.3572652,50.8455023]},"properties":{"id":"node/6340652093","source":"osm","name":null,"fee":"yes","charge":"0.50 EUR","access":null,"wheelchair":"no","opening_hours":null,"operator":null,"description":null,"password":null}},{"type":"Feature","geometry":{"type":"Point","coordinates":[4.3530959,50.8514089]},"properties":{"id":"node/6429472388","source":"osm","name":null,"fee":"yes","charge":null,"access":null,"wheelchair":null,"opening_hours":null,"operator":null,"description":null,"password":null}},{"type":"Feature","geometry":{"type":"Point","coordinates":[4.3364126,50.8907338]},"properties":{"id":"node/6632237766","source":"osm","name":null,"fee":"no","charge":null,"access":null,"wheelchair":"no","opening_hours":null,"operator":null,"description":null,"password":null}},{"type":"Feature","geometry":{"type":"Point","coordinates":[4.3294904,50.8967037]},"properties":{"id":"node/7067980228","source":"osm","name":null,"fee":null,"charge":null,"access":"yes","wheelchair":null,"opening_hours":"24/7","operator":null,"description":null,"password":null}},{"type":"Feature","geometry":{"type":"Point","coordinates":[4.4193163,50.8968051]},"properties":{"id":"node/7319729223","source":"osm","name":null,"fee":"no","charge":null,"access":null,"wheelchair":"yes","opening_hours":null,"operator":null,"description":null,"password":null}},{"type":"Feature","geometry":{"type":"Point","coordinates":[4.4297248,50.8864294]},"properties":{"id":"node/7319737106","source":"osm","name":null,"fee":null,"charge":null,"access":null,"wheelchair":null,"opening_hours":null,"operator":null,"description":null,"password":null}},{"type":"Feature","geometry":{"type":"Point","coordinates":[4.3496902,50.8472918]},"properties":{"id":"node/7322511294","source":"osm","name":null,"fee":"no","charge":null,"access":null,"wheelchair":"no","opening_hours":null,"operator":null,"description":null,"password":null}},{"type":"Feature","geometry":{"type":"Point","coordinates":[4.3720718,50.8145285]},"properties":{"id":"node/7328386744","source":"osm","name":null,"fee":"no","charge":null,"access":"yes","wheelchair":"no","opening_hours":"24/7","operator":null,"description":null,"password":null}},{"type":"Feature","geometry":{"type":"Point","coordinates":[4.332314,50.8936199]},"properties":{"id":"node/8550951571","source":"osm","name":null,"fee":null,"charge":null,"access":"yes","wheelchair":"no","opening_hours":null,"operator":null,"description":null,"password":null}},{"type":"Feature","geometry":{"type":"Point","coordinates":[4.3604404,50.8424905]},"properties":{"id":"node/8849976360","source":"osm","name":null,"fee":"no","charge":null,"access":"customers","wheelchair":"yes","opening_hours":null,"operator":null,"description":null,"password":null}},{"type":"Feature","geometry":{"type":"Point","coordinates":[4.3468,50.876958]},"properties":{"id":"node/9010290906","source":"osm","name":null,"fee":"no","charge":null,"access":"yes","wheelchair":"yes","opening_hours":"24/7","operator":null,"description":null,"password":null}},{"type":"Feature","geometry":{"type":"Point","coordinates":[4.3486628,50.8648019]},"properties":{"id":"node/9162194613","source":"osm","name":null,"fee":"no","charge":null,"access":"yes","wheelchair":null,"opening_hours":null,"operator":null,"description":null,"password":null}},{"type":"Feature","geometry":{"type":"Point","coordinates":[4.3491122,50.8646762]},"properties":{"id":"node/9162201760","source":"osm","name":null,"fee":"no","charge":null,"access":"yes","wheelchair":null,"opening_hours":null,"operator":null,"description":null,"password":null}},{"type":"Feature","geometry":{"type":"Point","coordinates":[4.3507519,50.8536834]},"properties":{"id":"node/9222587443","source":"osm","name":null,"fee":"no","charge":null,"access":"yes","wheelchair":null,"opening_hours":null,"operator":null,"description":null,"password":null}},{"type":"Feature","geometry":{"type":"Point","coordinates":[4.3452597,50.8660025]},"properties":{"id":"node/9610616433","source":"osm","name":null,"fee":"no","charge":null,"access":"yes","wheelchair":"yes","opening_hours":null,"operator":null,"description":null,"password":null}},{"type":"Feature","geometry":{"type":"Point","coordinates":[4.3472405,50.8706569]},"properties":{"id":"node/9610806871","source":"osm","name":null,"fee":"no","charge":null,"access":"yes","wheelchair":"yes","opening_hours":null,"operator":null,"description":null,"password":null}},{"type":"Feature","geometry":{"type":"Point","coordinates":[4.3512281,50.8432748]},"properties":{"id":"node/9895510028","source":"osm","name":null,"fee":"no","charge":null,"access":"yes","wheelchair":"no","opening_hours":null,"operator":null,"description":null,"password":null}},{"type":"Feature","geometry":{"type":"Point","coordinates":[4.3573035,50.8454256]},"properties":{"id":"node/9896231812","source":"osm","name":null,"fee":"yes","charge":"1 EUR","access":null,"wheelchair":"yes","opening_hours":null,"operator":null,"description":null,"password":null}},{"type":"Feature","geometry":{"type":"Point","coordinates":[4.356063,50.8605468]},"properties":{"id":"node/9897436822","source":"osm","name":null,"fee":null,"charge":null,"access":"no","wheelchair":"yes","opening_hours":null,"operator":null,"description":null,"password":null}},{"type":"Feature","geometry":{"type":"Point","coordinates":[4.357654,50.8955623]},"properties":{"id":"node/9947923103","source":"osm","name":null,"fee":"no","charge":null,"access":"yes","wheelchair":"yes","opening_hours":null,"operator":null,"description":null,"password":null}},{"type":"Feature","geometry":{"type":"Point","coordinates":[4.3561735,50.8434646]},"properties":{"id":"node/9999375414","source":"osm","name":null,"fee":"no","charge":null,"access":"yes","wheelchair":"yes","opening_hours":null,"operator":null,"description":null,"password":null}},{"type":"Feature","geometry":{"type":"Point","coordinates":[4.357219,50.8453893]},"properties":{"id":"node/9999523245","source":"osm","name":null,"fee":"yes","charge":"1 EUR","access":null,"wheelchair":"yes","opening_hours":null,"operator":null,"description":null,"password":null}},{"type":"Feature","geometry":{"type":"Point","coordinates":[4.3466857,50.8655427]},"properties":{"id":"node/10154209941","source":"osm","name":null,"fee":"no","charge":null,"access":"yes","wheelchair":"yes","opening_hours":null,"operator":null,"description":null,"password":null}},{"type":"Feature","geometry":{"type":"Point","coordinates":[4.346087,50.8455759]},"properties":{"id":"node/10231314884","source":"osm","name":null,"fee":"no","charge":null,"access":"yes","wheelchair":"yes","opening_hours":"24/7","operator":null,"description":null,"password":null}},{"type":"Feature","geometry":{"type":"Point","coordinates":[4.3542418,50.8492258]},"properties":{"id":"node/10276654259","source":"osm","name":null,"fee":"no","charge":null,"access":"customers","wheelchair":"yes","opening_hours":null,"operator":null,"description":null,"password":null}},{"type":"Feature","geometry":{"type":"Point","coordinates":[4.3501221,50.8415007]},"properties":{"id":"node/10536841954","source":"osm","name":null,"fee":"no","charge":null,"access":null,"wheelchair":null,"opening_hours":null,"operator":null,"description":null,"password":null}},{"type":"Feature","geometry":{"type":"Point","coordinates":[4.3516879,50.8463631]},"properties":{"id":"node/10779293483","source":"osm","name":null,"fee":"no","charge":null,"access":null,"wheelchair":"no","opening_hours":null,"operator":null,"description":null,"password":null}},{"type":"Feature","geometry":{"type":"Point","coordinates":[4.3475313,50.8480038]},"properties":{"id":"node/10865440999","source":"osm","name":null,"fee":"yes","charge":"0.50 EUR","access":"yes","wheelchair":"no","opening_hours":null,"operator":null,"description":null,"password":null}},{"type":"Feature","geometry":{"type":"Point","coordinates":[4.3552906,50.8527372]},"properties":{"id":"node/10895684425","source":"osm","name":null,"fee":"no","charge":null,"access":null,"wheelchair":"no","opening_hours":null,"operator":"Ville de Bruxelles - Stad Brussel","description":null,"password":null}},{"type":"Feature","geometry":{"type":"Point","coordinates":[4.3571163,50.852238]},"properties":{"id":"node/11067511085","source":"osm","name":null,"fee":"yes","charge":null,"access":"no","wheelchair":null,"opening_hours":null,"operator":null,"description":null,"password":null}},{"type":"Feature","geometry":{"type":"Point","coordinates":[4.3617112,50.8494187]},"properties":{"id":"node/11079349122","source":"osm","name":null,"fee":"no","charge":null,"access":"private","wheelchair":"yes","opening_hours":null,"operator":null,"description":null,"password":null}},{"type":"Feature","geometry":{"type":"Point","coordinates":[4.3478789,50.8638588]},"properties":{"id":"node/11273986211","source":"osm","name":null,"fee":"no","charge":null,"access":"yes","wheelchair":null,"opening_hours":null,"operator":null,"description":null,"password":null}},{"type":"Feature","geometry":{"type":"Point","coordinates":[4.3483707,50.863693]},"properties":{"id":"node/11273986212","source":"osm","name":null,"fee":"no","charge":null,"access":"yes","wheelchair":null,"opening_hours":null,"operator":null,"description":null,"password":null}},{"type":"Feature","geometry":{"type":"Point","coordinates":[4.350141,50.8482602]},"properties":{"id":"node/11295402931","source":"osm","name":null,"fee":"no","charge":null,"access":null,"wheelchair":"yes","opening_hours":null,"operator":null,"description":null,"password":null}},{"type":"Feature","geometry":{"type":"Point","coordinates":[4.3509112,50.8544366]},"properties":{"id":"node/11360981781","source":"osm","name":null,"fee":"no","charge":null,"access":"yes","wheelchair":"yes","opening_hours":null,"operator":null,"description":null,"password":null}},{"type":"Feature","geometry":{"type":"Point","coordinates":[4.3421514,50.8516487]},"properties":{"id":"node/11582549803","source":"osm","name":null,"fee":"no","charge":null,"access":"yes","wheelchair":"yes","opening_hours":null,"operator":null,"description":null,"password":null}},{"type":"Feature","geometry":{"type":"Point","coordinates":[4.4166387,50.8920973]},"properties":{"id":"node/11608977466","source":"osm","name":null,"fee":"no","charge":null,"access":null,"wheelchair":"no","opening_hours":null,"operator":null,"description":null,"password":null}},{"type":"Feature","geometry":{"type":"Point","coordinates":[4.3881676,50.9038302]},"properties":{"id":"node/11742177978","source":"osm","name":null,"fee":"no","charge":null,"access":"yes","wheelchair":null,"opening_hours":null,"operator":null,"description":null,"password":null}},{"type":"Feature","geometry":{"type":"Point","coordinates":[4.3889389,50.8968913]},"properties":{"id":"node/11847053955","source":"osm","name":null,"fee":null,"charge":null,"access":null,"wheelchair":null,"opening_hours":null,"operator":null,"description":null,"password":null}},{"type":"Feature","geometry":{"type":"Point","coordinates":[4.3669399,50.8746302]},"properties":{"id":"node/11896278287","source":"osm","name":null,"fee":null,"charge":null,"access":null,"wheelchair":"no","opening_hours":null,"operator":null,"description":null,"password":null}},{"type":"Feature","geometry":{"type":"Point","coordinates":[4.3538268,50.8536234]},"properties":{"id":"node/11959921477","source":"osm","name":null,"fee":null,"charge":null,"access":"private","wheelchair":null,"opening_hours":null,"operator":null,"description":null,"password":null}},{"type":"Feature","geometry":{"type":"Point","coordinates":[4.3938454,50.8398415]},"properties":{"id":"node/12018333380","source":"osm","name":null,"fee":"no","charge":null,"access":"yes","wheelchair":"no","opening_hours":null,"operator":null,"description":null,"password":null}},{"type":"Feature","geometry":{"type":"Point","coordinates":[4.3636281,50.8432871]},"properties":{"id":"node/12089167217","source":"osm","name":null,"fee":"no","charge":null,"access":"yes","wheelchair":"yes","opening_hours":null,"operator":null,"description":null,"password":null}},{"type":"Feature","geometry":{"type":"Point","coordinates":[4.3560655,50.8499642]},"properties":{"id":"node/12321123909","source":"osm","name":null,"fee":"no","charge":null,"access":"yes","wheelchair":"yes","opening_hours":null,"operator":null,"description":null,"password":null}},{"type":"Feature","geometry":{"type":"Point","coordinates":[4.3547484,50.8785636]},"properties":{"id":"node/12422782801","source":"osm","name":null,"fee":"no","charge":null,"access":null,"wheelchair":null,"opening_hours":null,"operator":null,"description":null,"password":null}},{"type":"Feature","geometry":{"type":"Point","coordinates":[4.3449908,50.8427362]},"properties":{"id":"node/12694851534","source":"osm","name":null,"fee":"no","charge":null,"access":"yes","wheelchair":null,"opening_hours":null,"operator":null,"description":null,"password":null}},{"type":"Feature","geometry":{"type":"Point","coordinates":[4.3570133,50.8616455]},"properties":{"id":"node/12718256894","source":"osm","name":null,"fee":"no","charge":null,"access":null,"wheelchair":null,"opening_hours":null,"operator":"Vlaamse overheid","description":null,"password":null}},{"type":"Feature","geometry":{"type":"Point","coordinates":[4.3785061,50.8397993]},"properties":{"id":"node/13130438877","source":"osm","name":null,"fee":"no","charge":null,"access":"yes","wheelchair":"yes","opening_hours":"Tu-Fr 09:00-18:00; Mo 13:00-18:00; Sa,Su 10:00-18:00","operator":null,"description":"Requires (free) entry to the museum building","password":null}},{"type":"Feature","geometry":{"type":"Point","coordinates":[4.3548418,50.8447714]},"properties":{"id":"node/13174821289","source":"osm","name":null,"fee":"no","charge":null,"access":null,"wheelchair":"no","opening_hours":null,"operator":null,"description":null,"password":null}},{"type":"Feature","geometry":{"type":"Point","coordinates":[4.3850114,50.8471726]},"properties":{"id":"node/13620672669","source":"osm","name":null,"fee":"no","charge":null,"access":"yes","wheelchair":"yes","opening_hours":"24/7","operator":null,"description":null,"password":null}},{"type":"Feature","geometry":{"type":"Point","coordinates":[4.3623702,50.8463133]},"properties":{"id":"node/13920378016","source":"osm","name":null,"fee":"yes","charge":null,"access":null,"wheelchair":null,"opening_hours":null,"operator":null,"description":null,"password":null}},{"type":"Feature","geometry":{"type":"Point","coordinates":[4.3812862,50.8119909]},"properties":{"id":"node/14078386861","source":"osm","name":null,"fee":null,"charge":null,"access":"yes","wheelchair":"no","opening_hours":null,"operator":null,"description":null,"password":null}},{"type":"Feature","geometry":{"type":"Point","coordinates":[4.3479627,50.8999878]},"properties":{"id":"way/252973447","source":"osm","name":null,"fee":null,"charge":null,"access":"private","wheelchair":null,"opening_hours":null,"operator":null,"description":null,"password":null}},{"type":"Feature","geometry":{"type":"Point","coordinates":[4.3453634,50.8930103]},"properties":{"id":"way/253872710","source":"osm","name":null,"fee":"no","charge":null,"access":null,"wheelchair":null,"opening_hours":"24/7","operator":null,"description":null,"password":null}},{"type":"Feature","geometry":{"type":"Point","coordinates":[4.3447938,50.8425929]},"properties":{"id":"way/256812179","source":"osm","name":null,"fee":null,"charge":null,"access":null,"wheelchair":null,"opening_hours":null,"operator":null,"description":null,"password":null}},{"type":"Feature","geometry":{"type":"Point","coordinates":[4.3574265,50.8456544]},"properties":{"id":"way/674072446","source":"osm","name":null,"fee":null,"charge":null,"access":"private","wheelchair":null,"opening_hours":null,"operator":null,"description":null,"password":null}},{"type":"Feature","geometry":{"type":"Point","coordinates":[4.3574566,50.8456257]},"properties":{"id":"way/674072447","source":"osm","name":null,"fee":null,"charge":null,"access":"private","wheelchair":null,"opening_hours":null,"operator":null,"description":null,"password":null}},{"type":"Feature","geometry":{"type":"Point","coordinates":[4.3457813,50.8911571]},"properties":{"id":"way/713159891","source":"osm","name":null,"fee":"no","charge":null,"access":"yes","wheelchair":"yes","opening_hours":null,"operator":null,"description":null,"password":null}},{"type":"Feature","geometry":{"type":"Point","coordinates":[4.3311844,50.8935251]},"properties":{"id":"way/1071345219","source":"osm","name":null,"fee":"yes","charge":null,"access":"yes","wheelchair":"yes","opening_hours":null,"operator":null,"description":null,"password":null}},{"type":"Feature","geometry":{"type":"Point","coordinates":[4.3500892,50.8665246]},"properties":{"id":"way/1080274438","source":"osm","name":null,"fee":"no","charge":null,"access":"customers","wheelchair":"yes","opening_hours":null,"operator":null,"description":null,"password":null}},{"type":"Feature","geometry":{"type":"Point","coordinates":[4.3496157,50.8658533]},"properties":{"id":"way/1080274440","source":"osm","name":null,"fee":"no","charge":null,"access":"customers","wheelchair":"yes","opening_hours":null,"operator":null,"description":null,"password":null}},{"type":"Feature","geometry":{"type":"Point","coordinates":[4.3485943,50.8329339]},"properties":{"id":"way/1265525683","source":"osm","name":null,"fee":"no","charge":null,"access":null,"wheelchair":"yes","opening_hours":null,"operator":null,"description":null,"password":null}},{"type":"Feature","geometry":{"type":"Point","coordinates":[4.3782784,50.8873971]},"properties":{"id":"way/1372454862","source":"osm","name":null,"fee":"yes","charge":null,"access":"yes","wheelchair":null,"opening_hours":null,"operator":null,"description":null,"password":null}},{"type":"Feature","geometry":{"type":"Point","coordinates":[4.3593,50.8566]},"properties":{"id":"xhs/five-guys-brussels-north","source":"xhs","name":"Five Guys (Brussels-North)","fee":"yes","charge":null,"access":null,"wheelchair":null,"opening_hours":null,"operator":null,"description":"网友提示密码会定期更换","password":"2908#","code_confirmed_at":null,"cleanliness":null,"city":"belgium/brussels"}},{"type":"Feature","geometry":{"type":"Point","coordinates":[4.35191,50.847036]},"properties":{"id":"xhs/starbucks-grand-place","source":"xhs","name":"Starbucks (Grand Place)","fee":"yes","charge":null,"access":null,"wheelchair":null,"opening_hours":null,"operator":null,"description":"2024-11 评论称该店关闭，隔壁上楼可用","password":"1144","code_confirmed_at":"2024-10-16","cleanliness":null,"city":"belgium/brussels"}},{"type":"Feature","geometry":{"type":"Point","coordinates":[4.3556,50.8505]},"properties":{"id":"xhs/exki-city-centre","source":"xhs","name":"EXKi (city centre)","fee":"yes","charge":null,"access":null,"wheelchair":null,"opening_hours":null,"operator":null,"description":"软包沙发座位下有插座","password":"65718","code_confirmed_at":"2026-05-29","cleanliness":null,"city":"belgium/brussels"}}]}