{"type":"FeatureCollection","attribution":"© OpenStreetMap contributors (ODbL)","generated_at":"2026-08-21T09:47:00.292Z","features":[{"type":"Feature","geometry":{"type":"Point","coordinates":[6.8736638,50.9694717]},"properties":{"id":"node/247695397","source":"osm","name":null,"fee":null,"charge":null,"access":"private","wheelchair":null,"opening_hours":null,"operator":null,"description":"für Busfahrer & Co.","password":null}},{"type":"Feature","geometry":{"type":"Point","coordinates":[6.8807633,50.9713698]},"properties":{"id":"node/247695398","source":"osm","name":null,"fee":"no","charge":null,"access":"yes","wheelchair":"yes","opening_hours":null,"operator":null,"description":null,"password":null}},{"type":"Feature","geometry":{"type":"Point","coordinates":[6.9165944,50.9501484]},"properties":{"id":"node/260463903","source":"osm","name":null,"fee":"yes","charge":null,"access":null,"wheelchair":"limited","opening_hours":null,"operator":null,"description":null,"password":null}},{"type":"Feature","geometry":{"type":"Point","coordinates":[6.962309,50.9386702]},"properties":{"id":"node/260718932","source":"osm","name":null,"fee":"yes","charge":"0.50 EUR","access":"yes","wheelchair":"yes","opening_hours":"Apr-Oct Mo-Su 09:30-13:00; Jan-Mar, Nov, Dec Mo-Su 13:30-22:30","operator":null,"description":null,"password":null}},{"type":"Feature","geometry":{"type":"Point","coordinates":[6.8949163,50.9702272]},"properties":{"id":"node/313130431","source":"osm","name":null,"fee":null,"charge":null,"access":null,"wheelchair":null,"opening_hours":null,"operator":null,"description":null,"password":null}},{"type":"Feature","geometry":{"type":"Point","coordinates":[6.9734408,50.959325]},"properties":{"id":"node/319521312","source":"osm","name":null,"fee":"no","charge":null,"access":"yes","wheelchair":"yes","opening_hours":null,"operator":"Zoologischer Garten Köln","description":null,"password":null}},{"type":"Feature","geometry":{"type":"Point","coordinates":[6.9742917,50.9605959]},"properties":{"id":"node/319521911","source":"osm","name":null,"fee":"no","charge":null,"access":null,"wheelchair":"yes","opening_hours":null,"operator":null,"description":null,"password":null}},{"type":"Feature","geometry":{"type":"Point","coordinates":[6.9767095,50.963533]},"properties":{"id":"node/319525515","source":"osm","name":null,"fee":"no","charge":null,"access":null,"wheelchair":"yes","opening_hours":null,"operator":null,"description":null,"password":null}},{"type":"Feature","geometry":{"type":"Point","coordinates":[6.9573683,50.9409505]},"properties":{"id":"node/375739733","source":"osm","name":null,"fee":"yes","charge":null,"access":null,"wheelchair":"limited","opening_hours":null,"operator":null,"description":null,"password":null}},{"type":"Feature","geometry":{"type":"Point","coordinates":[6.9419501,50.9800914]},"properties":{"id":"node/482752588","source":"osm","name":null,"fee":null,"charge":null,"access":"yes","wheelchair":"limited","opening_hours":null,"operator":null,"description":null,"password":null}},{"type":"Feature","geometry":{"type":"Point","coordinates":[6.9218799,50.9392866]},"properties":{"id":"node/539542151","source":"osm","name":null,"fee":"no","charge":null,"access":"yes","wheelchair":"yes","opening_hours":null,"operator":null,"description":null,"password":null}},{"type":"Feature","geometry":{"type":"Point","coordinates":[6.9296276,51.0211548]},"properties":{"id":"node/582958429","source":"osm","name":null,"fee":"no","charge":null,"access":"yes","wheelchair":"yes","opening_hours":null,"operator":null,"description":null,"password":null}},{"type":"Feature","geometry":{"type":"Point","coordinates":[7.0840241,50.9326838]},"properties":{"id":"node/761138094","source":"osm","name":null,"fee":null,"charge":null,"access":null,"wheelchair":null,"opening_hours":null,"operator":null,"description":null,"password":null}},{"type":"Feature","geometry":{"type":"Point","coordinates":[7.1217226,50.8778119]},"properties":{"id":"node/818639182","source":"osm","name":null,"fee":"no","charge":null,"access":null,"wheelchair":"yes","opening_hours":null,"operator":null,"description":null,"password":null}},{"type":"Feature","geometry":{"type":"Point","coordinates":[7.1223472,50.8785624]},"properties":{"id":"node/818639227","source":"osm","name":null,"fee":"no","charge":null,"access":null,"wheelchair":"no","opening_hours":null,"operator":null,"description":null,"password":null}},{"type":"Feature","geometry":{"type":"Point","coordinates":[7.1209931,50.8794773]},"properties":{"id":"node/818639250","source":"osm","name":null,"fee":null,"charge":null,"access":null,"wheelchair":"no","opening_hours":null,"operator":null,"description":null,"password":null}},{"type":"Feature","geometry":{"type":"Point","coordinates":[7.0590437,50.8842639]},"properties":{"id":"node/863814083","source":"osm","name":null,"fee":"no","charge":null,"access":null,"wheelchair":"no","opening_hours":null,"operator":null,"description":null,"password":null}},{"type":"Feature","geometry":{"type":"Point","coordinates":[7.0058344,50.9563768]},"properties":{"id":"node/1272589355","source":"osm","name":null,"fee":null,"charge":null,"access":"customers","wheelchair":"no","opening_hours":null,"operator":null,"description":null,"password":null}},{"type":"Feature","geometry":{"type":"Point","coordinates":[6.9808656,50.8842394]},"properties":{"id":"node/1404438411","source":"osm","name":null,"fee":"no","charge":null,"access":null,"wheelchair":"no","opening_hours":null,"operator":null,"description":null,"password":null}},{"type":"Feature","geometry":{"type":"Point","coordinates":[6.9697363,50.9184802]},"properties":{"id":"node/1737014581","source":"osm","name":null,"fee":"yes","charge":null,"access":null,"wheelchair":"yes","opening_hours":null,"operator":null,"description":null,"password":null}},{"type":"Feature","geometry":{"type":"Point","coordinates":[6.9495385,50.9390175]},"properties":{"id":"node/1802274068","source":"osm","name":null,"fee":"yes","charge":null,"access":"yes","wheelchair":"yes","opening_hours":null,"operator":"SANIFAIR GmbH","description":null,"password":null}},{"type":"Feature","geometry":{"type":"Point","coordinates":[6.9742299,50.9406126]},"properties":{"id":"node/1802282636","source":"osm","name":"rail & fresh WC","fee":"yes","charge":null,"access":"yes","wheelchair":"yes","opening_hours":"24/7","operator":"Hering","description":null,"password":null}},{"type":"Feature","geometry":{"type":"Point","coordinates":[7.058375,50.8846271]},"properties":{"id":"node/1808374639","source":"osm","name":null,"fee":"no","charge":null,"access":null,"wheelchair":"yes","opening_hours":null,"operator":"City Center Porz","description":null,"password":null}},{"type":"Feature","geometry":{"type":"Point","coordinates":[6.9389609,50.9361494]},"properties":{"id":"node/1854063700","source":"osm","name":null,"fee":null,"charge":null,"access":null,"wheelchair":null,"opening_hours":null,"operator":null,"description":null,"password":null}},{"type":"Feature","geometry":{"type":"Point","coordinates":[6.9167418,50.9500721]},"properties":{"id":"node/1962318663","source":"osm","name":null,"fee":"no","charge":null,"access":null,"wheelchair":"no","opening_hours":"Mo-Su 08:00-19:00","operator":null,"description":"In der Zwischenebene der Stadtbahnhaltestelle","password":null}},{"type":"Feature","geometry":{"type":"Point","coordinates":[6.9741106,50.958161]},"properties":{"id":"node/2300171211","source":"osm","name":null,"fee":"no","charge":null,"access":"yes","wheelchair":"yes","opening_hours":null,"operator":"Zoologischer Garten Köln","description":null,"password":null}},{"type":"Feature","geometry":{"type":"Point","coordinates":[6.9835822,50.9438977]},"properties":{"id":"node/2426786624","source":"osm","name":null,"fee":"no","charge":null,"access":"customers","wheelchair":"no","opening_hours":null,"operator":"Shell-Tankstelle","description":null,"password":null}},{"type":"Feature","geometry":{"type":"Point","coordinates":[6.9558832,50.9354805]},"properties":{"id":"node/2457885013","source":"osm","name":null,"fee":"yes","charge":null,"access":null,"wheelchair":"yes","opening_hours":null,"operator":null,"description":null,"password":null}},{"type":"Feature","geometry":{"type":"Point","coordinates":[6.9525269,50.9357702]},"properties":{"id":"node/2457885953","source":"osm","name":null,"fee":"no","charge":null,"access":null,"wheelchair":"yes","opening_hours":null,"operator":null,"description":null,"password":null}},{"type":"Feature","geometry":{"type":"Point","coordinates":[6.9259072,51.0221653]},"properties":{"id":"node/2544677742","source":"osm","name":null,"fee":"no","charge":null,"access":null,"wheelchair":"yes","opening_hours":null,"operator":null,"description":null,"password":null}},{"type":"Feature","geometry":{"type":"Point","coordinates":[7.123658,50.8791019]},"properties":{"id":"node/2975824833","source":"osm","name":null,"fee":null,"charge":null,"access":"customers","wheelchair":null,"opening_hours":null,"operator":null,"description":null,"password":null}},{"type":"Feature","geometry":{"type":"Point","coordinates":[6.836451,50.9375191]},"properties":{"id":"node/2984033230","source":"osm","name":null,"fee":"no","charge":null,"access":"yes","wheelchair":"yes","opening_hours":null,"operator":null,"description":null,"password":null}},{"type":"Feature","geometry":{"type":"Point","coordinates":[6.9707047,50.9384457]},"properties":{"id":"node/3273248461","source":"osm","name":null,"fee":"yes","charge":null,"access":"yes","wheelchair":"yes","opening_hours":null,"operator":null,"description":null,"password":null}},{"type":"Feature","geometry":{"type":"Point","coordinates":[6.9499386,50.9369124]},"properties":{"id":"node/3374718761","source":"osm","name":null,"fee":"yes","charge":null,"access":"customers","wheelchair":"yes","opening_hours":null,"operator":null,"description":null,"password":null}},{"type":"Feature","geometry":{"type":"Point","coordinates":[7.1230491,50.8777165]},"properties":{"id":"node/3440971500","source":"osm","name":null,"fee":"no","charge":null,"access":"customers","wheelchair":"no","opening_hours":"24/7","operator":"Flughafen Köln/Bonn","description":null,"password":null}},{"type":"Feature","geometry":{"type":"Point","coordinates":[7.1234302,50.8784615]},"properties":{"id":"node/3440971509","source":"osm","name":null,"fee":"no","charge":null,"access":"customers","wheelchair":"designated","opening_hours":null,"operator":"Flughafen Köln/Bonn","description":null,"password":null}},{"type":"Feature","geometry":{"type":"Point","coordinates":[6.939382,50.9300356]},"properties":{"id":"node/3642829734","source":"osm","name":null,"fee":"no","charge":null,"access":"yes","wheelchair":"yes","opening_hours":"24/7","operator":"AWB","description":null,"password":null}},{"type":"Feature","geometry":{"type":"Point","coordinates":[6.9394146,50.9300146]},"properties":{"id":"node/3642829735","source":"osm","name":null,"fee":"yes","charge":"0.5 EUR","access":"yes","wheelchair":"yes","opening_hours":"24/7","operator":"AWB","description":null,"password":null}},{"type":"Feature","geometry":{"type":"Point","coordinates":[6.8362028,50.9371958]},"properties":{"id":"node/3657362153","source":"osm","name":null,"fee":"no","charge":null,"access":"yes","wheelchair":"yes","opening_hours":null,"operator":null,"description":null,"password":null}},{"type":"Feature","geometry":{"type":"Point","coordinates":[6.9706862,50.9604461]},"properties":{"id":"node/3675214654","source":"osm","name":null,"fee":"donation","charge":null,"access":"yes","wheelchair":"yes","opening_hours":null,"operator":null,"description":null,"password":null}},{"type":"Feature","geometry":{"type":"Point","coordinates":[6.9798996,50.9626439]},"properties":{"id":"node/3688413774","source":"osm","name":null,"fee":null,"charge":null,"access":"customers","wheelchair":null,"opening_hours":null,"operator":null,"description":null,"password":null}},{"type":"Feature","geometry":{"type":"Point","coordinates":[6.9338792,51.0211066]},"properties":{"id":"node/3765194448","source":"osm","name":null,"fee":null,"charge":null,"access":null,"wheelchair":null,"opening_hours":null,"operator":null,"description":null,"password":null}},{"type":"Feature","geometry":{"type":"Point","coordinates":[6.9350233,51.0245964]},"properties":{"id":"node/3765194456","source":"osm","name":null,"fee":"no","charge":null,"access":null,"wheelchair":null,"opening_hours":null,"operator":null,"description":null,"password":null}},{"type":"Feature","geometry":{"type":"Point","coordinates":[6.9317388,51.020133]},"properties":{"id":"node/3765206956","source":"osm","name":null,"fee":null,"charge":null,"access":null,"wheelchair":null,"opening_hours":null,"operator":null,"description":null,"password":null}},{"type":"Feature","geometry":{"type":"Point","coordinates":[6.9361724,51.0239882]},"properties":{"id":"node/3765207125","source":"osm","name":null,"fee":"no","charge":null,"access":null,"wheelchair":null,"opening_hours":null,"operator":null,"description":null,"password":null}},{"type":"Feature","geometry":{"type":"Point","coordinates":[6.911497,51.0307065]},"properties":{"id":"node/3765233525","source":"osm","name":null,"fee":"no","charge":null,"access":null,"wheelchair":"no","opening_hours":null,"operator":null,"description":null,"password":null}},{"type":"Feature","geometry":{"type":"Point","coordinates":[6.9643819,50.9303691]},"properties":{"id":"node/3898432786","source":"osm","name":null,"fee":"no","charge":null,"access":"yes","wheelchair":"no","opening_hours":"22:00-06:00","operator":null,"description":null,"password":null}},{"type":"Feature","geometry":{"type":"Point","coordinates":[6.9687548,50.9417655]},"properties":{"id":"node/4193520844","source":"osm","name":null,"fee":"yes","charge":null,"access":"yes","wheelchair":"yes","opening_hours":null,"operator":"AWB","description":"Urinal ist kostenlos","password":null}},{"type":"Feature","geometry":{"type":"Point","coordinates":[7.0274739,50.9283651]},"properties":{"id":"node/4351729136","source":"osm","name":null,"fee":null,"charge":null,"access":"customers","wheelchair":null,"opening_hours":null,"operator":null,"description":null,"password":null}},{"type":"Feature","geometry":{"type":"Point","coordinates":[6.9627973,50.9366484]},"properties":{"id":"node/4363734133","source":"osm","name":null,"fee":"yes","charge":"0.50 EUR","access":"yes","wheelchair":"yes","opening_hours":null,"operator":null,"description":null,"password":null}},{"type":"Feature","geometry":{"type":"Point","coordinates":[6.9162497,51.0251544]},"properties":{"id":"node/4432549326","source":"osm","name":null,"fee":"no","charge":null,"access":"yes","wheelchair":"limited","opening_hours":null,"operator":null,"description":"Dixi Klo","password":null}},{"type":"Feature","geometry":{"type":"Point","coordinates":[6.91451,51.0319307]},"properties":{"id":"node/4432564782","source":"osm","name":null,"fee":"no","charge":null,"access":"yes","wheelchair":null,"opening_hours":null,"operator":null,"description":null,"password":null}},{"type":"Feature","geometry":{"type":"Point","coordinates":[6.9224979,51.0248137]},"properties":{"id":"node/4432565477","source":"osm","name":null,"fee":"no","charge":null,"access":"yes","wheelchair":"limited","opening_hours":null,"operator":null,"description":"Dixiklo","password":null}},{"type":"Feature","geometry":{"type":"Point","coordinates":[6.9199998,51.0206307]},"properties":{"id":"node/4432576361","source":"osm","name":null,"fee":"no","charge":null,"access":"customers","wheelchair":"limited","opening_hours":null,"operator":null,"description":null,"password":null}},{"type":"Feature","geometry":{"type":"Point","coordinates":[6.9241794,51.0193304]},"properties":{"id":"node/4432582823","source":"osm","name":null,"fee":"no","charge":null,"access":"yes","wheelchair":"limited","opening_hours":null,"operator":null,"description":"Dixi Klo","password":null}},{"type":"Feature","geometry":{"type":"Point","coordinates":[6.9264768,51.0190685]},"properties":{"id":"node/4432583094","source":"osm","name":null,"fee":null,"charge":null,"access":null,"wheelchair":null,"opening_hours":null,"operator":null,"description":null,"password":null}},{"type":"Feature","geometry":{"type":"Point","coordinates":[6.9196575,51.0217296]},"properties":{"id":"node/4432588618","source":"osm","name":null,"fee":null,"charge":null,"access":"customers","wheelchair":null,"opening_hours":null,"operator":null,"description":"Toilette","password":null}},{"type":"Feature","geometry":{"type":"Point","coordinates":[6.919341,51.0230456]},"properties":{"id":"node/4432592095","source":"osm","name":null,"fee":null,"charge":null,"access":"yes","wheelchair":"limited","opening_hours":null,"operator":null,"description":"Dixi Klo","password":null}},{"type":"Feature","geometry":{"type":"Point","coordinates":[6.9212913,51.0198197]},"properties":{"id":"node/4432596954","source":"osm","name":null,"fee":"no","charge":null,"access":"yes","wheelchair":"limited","opening_hours":null,"operator":null,"description":null,"password":null}},{"type":"Feature","geometry":{"type":"Point","coordinates":[6.9874263,50.9342795]},"properties":{"id":"node/4565446614","source":"osm","name":null,"fee":"no","charge":null,"access":null,"wheelchair":"limited","opening_hours":null,"operator":null,"description":null,"password":null}},{"type":"Feature","geometry":{"type":"Point","coordinates":[6.9884481,50.9339091]},"properties":{"id":"node/4565447748","source":"osm","name":null,"fee":"no","charge":null,"access":null,"wheelchair":null,"opening_hours":null,"operator":null,"description":null,"password":null}},{"type":"Feature","geometry":{"type":"Point","coordinates":[7.0496807,50.994633]},"properties":{"id":"node/4754978558","source":"osm","name":null,"fee":"no","charge":null,"access":null,"wheelchair":"no","opening_hours":null,"operator":null,"description":null,"password":null}},{"type":"Feature","geometry":{"type":"Point","coordinates":[6.9689646,50.9361581]},"properties":{"id":"node/4935439325","source":"osm","name":null,"fee":"no","charge":null,"access":"yes","wheelchair":"yes","opening_hours":"May 01-Sep 15: 00:00-24:00","operator":null,"description":null,"password":null}},{"type":"Feature","geometry":{"type":"Point","coordinates":[6.9292597,50.9341361]},"properties":{"id":"node/5030423392","source":"osm","name":null,"fee":"no","charge":null,"access":"yes","wheelchair":"yes","opening_hours":null,"operator":null,"description":null,"password":null}},{"type":"Feature","geometry":{"type":"Point","coordinates":[6.9141968,50.9965888]},"properties":{"id":"node/5471310737","source":"osm","name":null,"fee":"yes","charge":"0,50 € oder kostenlos mit Euroschlüssel","access":"yes","wheelchair":"yes","opening_hours":"24/7","operator":"City-Toilette Longerich","description":"Aufenthalt max. 15 Minuten, mit Euroschlüssel 30 Minuten. Notruf vorhanden.","password":null}},{"type":"Feature","geometry":{"type":"Point","coordinates":[6.9787042,50.9640659]},"properties":{"id":"node/5540400805","source":"osm","name":null,"fee":"no","charge":null,"access":"yes","wheelchair":"no","opening_hours":null,"operator":null,"description":null,"password":null}},{"type":"Feature","geometry":{"type":"Point","coordinates":[6.9980099,50.9380642]},"properties":{"id":"node/5648200232","source":"osm","name":null,"fee":null,"charge":null,"access":null,"wheelchair":"yes","opening_hours":null,"operator":"Köln Arcaden","description":null,"password":null}},{"type":"Feature","geometry":{"type":"Point","coordinates":[7.1226599,50.8772545]},"properties":{"id":"node/5739459721","source":"osm","name":null,"fee":"no","charge":null,"access":null,"wheelchair":"no","opening_hours":null,"operator":null,"description":null,"password":null}},{"type":"Feature","geometry":{"type":"Point","coordinates":[7.1228412,50.8769543]},"properties":{"id":"node/5739459722","source":"osm","name":null,"fee":"no","charge":null,"access":null,"wheelchair":null,"opening_hours":null,"operator":null,"description":null,"password":null}},{"type":"Feature","geometry":{"type":"Point","coordinates":[6.9296499,50.9412418]},"properties":{"id":"node/5999103215","source":"osm","name":null,"fee":"no","charge":null,"access":"yes","wheelchair":"yes","opening_hours":null,"operator":null,"description":"mobiles WC","password":null}},{"type":"Feature","geometry":{"type":"Point","coordinates":[7.0762164,50.9443804]},"properties":{"id":"node/6028054883","source":"osm","name":null,"fee":"yes","charge":null,"access":null,"wheelchair":"yes","opening_hours":"Mo-Su,PH 00:00-00:00","operator":null,"description":null,"password":null}},{"type":"Feature","geometry":{"type":"Point","coordinates":[6.869987,50.9803772]},"properties":{"id":"node/6061427369","source":"osm","name":null,"fee":null,"charge":null,"access":"private","wheelchair":"no","opening_hours":null,"operator":null,"description":null,"password":null}},{"type":"Feature","geometry":{"type":"Point","coordinates":[6.8778142,50.9311471]},"properties":{"id":"node/6225647563","source":"osm","name":null,"fee":"no","charge":null,"access":"customers","wheelchair":"no","opening_hours":null,"operator":"Club Astoria","description":null,"password":null}},{"type":"Feature","geometry":{"type":"Point","coordinates":[6.9260341,51.0379929]},"properties":{"id":"node/6279113044","source":"osm","name":null,"fee":null,"charge":null,"access":"private","wheelchair":"limited","opening_hours":null,"operator":"DITIB Chorweiler","description":"Toiletten und Waschräume. Dusche vorhanden.","password":null}},{"type":"Feature","geometry":{"type":"Point","coordinates":[7.1181091,50.8814333]},"properties":{"id":"node/6385427386","source":"osm","name":null,"fee":null,"charge":null,"access":null,"wheelchair":null,"opening_hours":null,"operator":null,"description":null,"password":null}},{"type":"Feature","geometry":{"type":"Point","coordinates":[7.1203541,50.8801728]},"properties":{"id":"node/6385442386","source":"osm","name":null,"fee":null,"charge":null,"access":null,"wheelchair":"yes","opening_hours":null,"operator":null,"description":null,"password":null}},{"type":"Feature","geometry":{"type":"Point","coordinates":[6.8787671,50.9705991]},"properties":{"id":"node/6401284237","source":"osm","name":null,"fee":"no","charge":null,"access":"yes","wheelchair":"no","opening_hours":null,"operator":null,"description":null,"password":null}},{"type":"Feature","geometry":{"type":"Point","coordinates":[6.9779467,50.9069164]},"properties":{"id":"node/6402543879","source":"osm","name":null,"fee":"no","charge":null,"access":null,"wheelchair":"yes","opening_hours":null,"operator":null,"description":null,"password":null}},{"type":"Feature","geometry":{"type":"Point","coordinates":[6.9158251,50.9518496]},"properties":{"id":"node/6458115787","source":"osm","name":null,"fee":"no","charge":null,"access":"yes","wheelchair":"yes","opening_hours":null,"operator":null,"description":null,"password":null}},{"type":"Feature","geometry":{"type":"Point","coordinates":[6.9773026,50.9196306]},"properties":{"id":"node/6476054926","source":"osm","name":null,"fee":"no","charge":null,"access":"yes","wheelchair":"limited","opening_hours":"May 01-Sep 15: 00:00-24:00","operator":null,"description":null,"password":null}},{"type":"Feature","geometry":{"type":"Point","coordinates":[6.9726225,50.9269649]},"properties":{"id":"node/6476054957","source":"osm","name":null,"fee":"no","charge":null,"access":"yes","wheelchair":"yes","opening_hours":"May 01-Sep 15: 00:00-24:00","operator":null,"description":"Mobile Toilette ohne Spülung (Plumpsklo, Chemie); Handreinigungsmittel (kein Wasser); zwei Toiletten, eine davon für Personen mit Behinderung","password":null}},{"type":"Feature","geometry":{"type":"Point","coordinates":[6.9973621,50.8992699]},"properties":{"id":"node/6551293485","source":"osm","name":null,"fee":"no","charge":null,"access":null,"wheelchair":"limited","opening_hours":null,"operator":null,"description":null,"password":null}},{"type":"Feature","geometry":{"type":"Point","coordinates":[6.9668706,50.9237585]},"properties":{"id":"node/6653572285","source":"osm","name":null,"fee":"no","charge":null,"access":"yes","wheelchair":null,"opening_hours":null,"operator":null,"description":null,"password":null}},{"type":"Feature","geometry":{"type":"Point","coordinates":[6.9633136,50.9327293]},"properties":{"id":"node/6697015965","source":"osm","name":null,"fee":"no","charge":null,"access":"yes","wheelchair":"yes","opening_hours":null,"operator":null,"description":null,"password":null}},{"type":"Feature","geometry":{"type":"Point","coordinates":[7.1236505,50.8790238]},"properties":{"id":"node/7095470056","source":"osm","name":null,"fee":null,"charge":null,"access":"customers","wheelchair":"designated","opening_hours":null,"operator":null,"description":null,"password":null}},{"type":"Feature","geometry":{"type":"Point","coordinates":[7.0779846,50.9638416]},"properties":{"id":"node/7149940365","source":"osm","name":null,"fee":null,"charge":null,"access":null,"wheelchair":null,"opening_hours":null,"operator":null,"description":null,"password":null}},{"type":"Feature","geometry":{"type":"Point","coordinates":[6.9164787,50.9378528]},"properties":{"id":"node/7578251885","source":"osm","name":null,"fee":"no","charge":null,"access":null,"wheelchair":"no","opening_hours":null,"operator":null,"description":null,"password":null}},{"type":"Feature","geometry":{"type":"Point","coordinates":[6.9452049,50.9856321]},"properties":{"id":"node/7626545179","source":"osm","name":null,"fee":"no","charge":null,"access":null,"wheelchair":"yes","opening_hours":null,"operator":null,"description":null,"password":null}},{"type":"Feature","geometry":{"type":"Point","coordinates":[7.0269926,50.9285358]},"properties":{"id":"node/7737943796","source":"osm","name":null,"fee":null,"charge":null,"access":"customers","wheelchair":null,"opening_hours":null,"operator":null,"description":null,"password":null}},{"type":"Feature","geometry":{"type":"Point","coordinates":[6.9499766,50.9691848]},"properties":{"id":"node/7884480053","source":"osm","name":null,"fee":"no","charge":null,"access":"yes","wheelchair":"yes","opening_hours":null,"operator":null,"description":null,"password":null}},{"type":"Feature","geometry":{"type":"Point","coordinates":[6.9505997,50.9577014]},"properties":{"id":"node/7938853740","source":"osm","name":null,"fee":"no","charge":null,"access":"yes","wheelchair":"no","opening_hours":"24/7","operator":"AWB","description":null,"password":null}},{"type":"Feature","geometry":{"type":"Point","coordinates":[6.9168954,50.9244343]},"properties":{"id":"node/8431649451","source":"osm","name":null,"fee":"no","charge":null,"access":"yes","wheelchair":"yes","opening_hours":"24/7","operator":"Universitätsklinik Köln","description":null,"password":null}},{"type":"Feature","geometry":{"type":"Point","coordinates":[6.9982392,50.9354373]},"properties":{"id":"node/8575516791","source":"osm","name":null,"fee":"no","charge":null,"access":"yes","wheelchair":"no","opening_hours":null,"operator":null,"description":"Pissoir","password":null}},{"type":"Feature","geometry":{"type":"Point","coordinates":[6.9655313,50.9703071]},"properties":{"id":"node/8579039269","source":"osm","name":null,"fee":"no","charge":null,"access":"yes","wheelchair":"yes","opening_hours":null,"operator":"AWB","description":null,"password":null}},{"type":"Feature","geometry":{"type":"Point","coordinates":[6.9316707,51.0198301]},"properties":{"id":"node/8589823424","source":"osm","name":null,"fee":null,"charge":null,"access":null,"wheelchair":null,"opening_hours":null,"operator":null,"description":null,"password":null}},{"type":"Feature","geometry":{"type":"Point","coordinates":[6.9478427,50.9379068]},"properties":{"id":"node/9229956901","source":"osm","name":null,"fee":"no","charge":null,"access":"permissive","wheelchair":"yes","opening_hours":null,"operator":"Globetrotter","description":null,"password":null}},{"type":"Feature","geometry":{"type":"Point","coordinates":[6.9500491,50.9365964]},"properties":{"id":"node/9574794175","source":"osm","name":null,"fee":"yes","charge":null,"access":"yes","wheelchair":"limited","opening_hours":null,"operator":null,"description":null,"password":null}},{"type":"Feature","geometry":{"type":"Point","coordinates":[6.9499261,50.9367512]},"properties":{"id":"node/9574795941","source":"osm","name":null,"fee":"yes","charge":null,"access":"yes","wheelchair":"yes","opening_hours":null,"operator":null,"description":null,"password":null}},{"type":"Feature","geometry":{"type":"Point","coordinates":[7.0418994,50.8706878]},"properties":{"id":"node/9832345863","source":"osm","name":null,"fee":"no","charge":null,"access":"yes","wheelchair":"yes","opening_hours":"May 01-Sep 15","operator":"AWB","description":null,"password":null}},{"type":"Feature","geometry":{"type":"Point","coordinates":[7.0419117,50.8706971]},"properties":{"id":"node/9832345864","source":"osm","name":null,"fee":"no","charge":null,"access":"yes","wheelchair":"no","opening_hours":"May 01-Sep 15","operator":"AWB","description":null,"password":null}},{"type":"Feature","geometry":{"type":"Point","coordinates":[7.0944796,50.8608832]},"properties":{"id":"node/10178059848","source":"osm","name":null,"fee":null,"charge":null,"access":"customers","wheelchair":null,"opening_hours":null,"operator":null,"description":null,"password":null}},{"type":"Feature","geometry":{"type":"Point","coordinates":[6.9925632,50.9583034]},"properties":{"id":"node/10208065359","source":"osm","name":null,"fee":"no","charge":null,"access":"yes","wheelchair":null,"opening_hours":null,"operator":null,"description":null,"password":null}},{"type":"Feature","geometry":{"type":"Point","coordinates":[6.9468295,50.9372969]},"properties":{"id":"node/10594909043","source":"osm","name":null,"fee":null,"charge":null,"access":"yes","wheelchair":"no","opening_hours":null,"operator":null,"description":null,"password":null}},{"type":"Feature","geometry":{"type":"Point","coordinates":[6.9884471,50.9442361]},"properties":{"id":"node/10844213280","source":"osm","name":null,"fee":"no","charge":null,"access":"yes","wheelchair":null,"opening_hours":"24/7","operator":null,"description":null,"password":null}},{"type":"Feature","geometry":{"type":"Point","coordinates":[6.9907807,50.9450557]},"properties":{"id":"node/10844213281","source":"osm","name":null,"fee":"no","charge":null,"access":"yes","wheelchair":null,"opening_hours":"24/7","operator":null,"description":null,"password":null}},{"type":"Feature","geometry":{"type":"Point","coordinates":[6.9316652,50.8867568]},"properties":{"id":"node/10939674271","source":"osm","name":null,"fee":null,"charge":null,"access":"permit","wheelchair":"limited","opening_hours":null,"operator":null,"description":null,"password":null}},{"type":"Feature","geometry":{"type":"Point","coordinates":[6.9064292,50.9073593]},"properties":{"id":"node/10946103656","source":"osm","name":null,"fee":"no","charge":null,"access":"yes","wheelchair":null,"opening_hours":"24/7","operator":null,"description":null,"password":null}},{"type":"Feature","geometry":{"type":"Point","coordinates":[6.9286551,50.9457693]},"properties":{"id":"node/10980393780","source":"osm","name":null,"fee":null,"charge":null,"access":"yes","wheelchair":"yes","opening_hours":null,"operator":null,"description":null,"password":null}},{"type":"Feature","geometry":{"type":"Point","coordinates":[7.0002531,50.8681759]},"properties":{"id":"node/11001476247","source":"osm","name":null,"fee":null,"charge":null,"access":null,"wheelchair":null,"opening_hours":null,"operator":null,"description":null,"password":null}},{"type":"Feature","geometry":{"type":"Point","coordinates":[7.0403418,50.8754913]},"properties":{"id":"node/11001495319","source":"osm","name":null,"fee":null,"charge":null,"access":"yes","wheelchair":null,"opening_hours":null,"operator":null,"description":null,"password":null}},{"type":"Feature","geometry":{"type":"Point","coordinates":[6.9804208,50.9535853]},"properties":{"id":"node/11111228993","source":"osm","name":null,"fee":"no","charge":null,"access":null,"wheelchair":"yes","opening_hours":null,"operator":null,"description":null,"password":null}},{"type":"Feature","geometry":{"type":"Point","coordinates":[7.0601812,50.9939292]},"properties":{"id":"node/11143373973","source":"osm","name":null,"fee":"yes","charge":null,"access":"customers","wheelchair":"yes","opening_hours":null,"operator":null,"description":null,"password":null}},{"type":"Feature","geometry":{"type":"Point","coordinates":[6.9520941,50.9633911]},"properties":{"id":"node/11166900554","source":"osm","name":null,"fee":"no","charge":null,"access":"yes","wheelchair":"yes","opening_hours":null,"operator":null,"description":null,"password":null}},{"type":"Feature","geometry":{"type":"Point","coordinates":[6.9521596,50.9633999]},"properties":{"id":"node/11166900555","source":"osm","name":null,"fee":"yes","charge":"0.50 EUR","access":"yes","wheelchair":"yes","opening_hours":null,"operator":null,"description":null,"password":null}},{"type":"Feature","geometry":{"type":"Point","coordinates":[6.9732781,50.9484729]},"properties":{"id":"node/11256033258","source":"osm","name":null,"fee":"no","charge":null,"access":null,"wheelchair":"yes","opening_hours":null,"operator":null,"description":null,"password":null}},{"type":"Feature","geometry":{"type":"Point","coordinates":[6.9334326,50.9256087]},"properties":{"id":"node/11287232896","source":"osm","name":null,"fee":"no","charge":null,"access":null,"wheelchair":"no","opening_hours":null,"operator":null,"description":null,"password":null}},{"type":"Feature","geometry":{"type":"Point","coordinates":[6.9333752,50.9255897]},"properties":{"id":"node/11287232897","source":"osm","name":null,"fee":"no","charge":null,"access":null,"wheelchair":"no","opening_hours":null,"operator":null,"description":null,"password":null}},{"type":"Feature","geometry":{"type":"Point","coordinates":[6.9331464,50.9255197]},"properties":{"id":"node/11287232900","source":"osm","name":null,"fee":"no","charge":null,"access":null,"wheelchair":"yes","opening_hours":null,"operator":null,"description":null,"password":null}},{"type":"Feature","geometry":{"type":"Point","coordinates":[6.9327727,50.9276615]},"properties":{"id":"node/11380456352","source":"osm","name":null,"fee":"no","charge":null,"access":null,"wheelchair":null,"opening_hours":null,"operator":null,"description":null,"password":null}},{"type":"Feature","geometry":{"type":"Point","coordinates":[6.8523578,50.921891]},"properties":{"id":"node/11646455346","source":"osm","name":null,"fee":null,"charge":null,"access":null,"wheelchair":null,"opening_hours":null,"operator":null,"description":null,"password":null}},{"type":"Feature","geometry":{"type":"Point","coordinates":[6.9602962,50.9426515]},"properties":{"id":"node/11674142896","source":"osm","name":null,"fee":"no","charge":null,"access":null,"wheelchair":null,"opening_hours":null,"operator":"Stadt Köln","description":null,"password":null}},{"type":"Feature","geometry":{"type":"Point","coordinates":[6.9484825,50.937089]},"properties":{"id":"node/11742716946","source":"osm","name":null,"fee":"yes","charge":"0.5 EUR","access":"yes","wheelchair":"yes","opening_hours":null,"operator":null,"description":null,"password":null}},{"type":"Feature","geometry":{"type":"Point","coordinates":[6.9751915,50.9478416]},"properties":{"id":"node/11803368920","source":"osm","name":null,"fee":"yes","charge":null,"access":null,"wheelchair":null,"opening_hours":null,"operator":"Park-Café","description":null,"password":null}},{"type":"Feature","geometry":{"type":"Point","coordinates":[6.9999112,50.9774555]},"properties":{"id":"node/11812209969","source":"osm","name":null,"fee":null,"charge":null,"access":null,"wheelchair":null,"opening_hours":null,"operator":null,"description":null,"password":null}},{"type":"Feature","geometry":{"type":"Point","coordinates":[6.9752059,50.9490769]},"properties":{"id":"node/11841454047","source":"osm","name":null,"fee":"no","charge":null,"access":null,"wheelchair":"yes","opening_hours":null,"operator":null,"description":null,"password":null}},{"type":"Feature","geometry":{"type":"Point","coordinates":[6.9137411,50.9128742]},"properties":{"id":"node/11896901781","source":"osm","name":null,"fee":"no","charge":null,"access":"yes","wheelchair":"yes","opening_hours":null,"operator":null,"description":null,"password":null}},{"type":"Feature","geometry":{"type":"Point","coordinates":[6.935421,50.9314537]},"properties":{"id":"node/11896926611","source":"osm","name":null,"fee":"no","charge":null,"access":null,"wheelchair":"yes","opening_hours":null,"operator":null,"description":null,"password":null}},{"type":"Feature","geometry":{"type":"Point","coordinates":[7.0051521,50.9614593]},"properties":{"id":"node/11904559069","source":"osm","name":null,"fee":null,"charge":null,"access":null,"wheelchair":null,"opening_hours":"Mo-Su 09:00-18:00","operator":null,"description":null,"password":null}},{"type":"Feature","geometry":{"type":"Point","coordinates":[6.9691644,50.9610616]},"properties":{"id":"node/11926228980","source":"osm","name":null,"fee":"yes","charge":null,"access":"yes","wheelchair":"yes","opening_hours":null,"operator":null,"description":null,"password":null}},{"type":"Feature","geometry":{"type":"Point","coordinates":[6.9713513,50.8614978]},"properties":{"id":"node/12057129328","source":"osm","name":null,"fee":"no","charge":null,"access":"customers","wheelchair":"yes","opening_hours":null,"operator":null,"description":null,"password":null}},{"type":"Feature","geometry":{"type":"Point","coordinates":[7.0598073,50.994928]},"properties":{"id":"node/12127748408","source":"osm","name":null,"fee":null,"charge":null,"access":"customers","wheelchair":"no","opening_hours":null,"operator":null,"description":null,"password":null}},{"type":"Feature","geometry":{"type":"Point","coordinates":[6.8980301,50.9807265]},"properties":{"id":"node/12141774108","source":"osm","name":null,"fee":null,"charge":null,"access":"yes","wheelchair":"yes","opening_hours":null,"operator":null,"description":null,"password":null}},{"type":"Feature","geometry":{"type":"Point","coordinates":[6.9298669,50.9432279]},"properties":{"id":"node/12154220627","source":"osm","name":null,"fee":"no","charge":null,"access":null,"wheelchair":"limited","opening_hours":null,"operator":null,"description":null,"password":null}},{"type":"Feature","geometry":{"type":"Point","coordinates":[7.0339723,50.9459349]},"properties":{"id":"node/12172742294","source":"osm","name":null,"fee":"no","charge":null,"access":null,"wheelchair":"no","opening_hours":null,"operator":null,"description":null,"password":null}},{"type":"Feature","geometry":{"type":"Point","coordinates":[6.8305613,50.9606627]},"properties":{"id":"node/12186467375","source":"osm","name":null,"fee":null,"charge":null,"access":"customers","wheelchair":null,"opening_hours":null,"operator":null,"description":null,"password":null}},{"type":"Feature","geometry":{"type":"Point","coordinates":[6.9488168,50.9096607]},"properties":{"id":"node/12229643088","source":"osm","name":null,"fee":"no","charge":null,"access":null,"wheelchair":"yes","opening_hours":null,"operator":null,"description":null,"password":null}},{"type":"Feature","geometry":{"type":"Point","coordinates":[7.0367685,50.9480906]},"properties":{"id":"node/12247769661","source":"osm","name":null,"fee":null,"charge":null,"access":"yes","wheelchair":null,"opening_hours":null,"operator":null,"description":null,"password":null}},{"type":"Feature","geometry":{"type":"Point","coordinates":[6.916511,50.9421194]},"properties":{"id":"node/12348338828","source":"osm","name":null,"fee":"no","charge":null,"access":"yes","wheelchair":"no","opening_hours":null,"operator":null,"description":null,"password":null}},{"type":"Feature","geometry":{"type":"Point","coordinates":[6.9712683,50.8614146]},"properties":{"id":"node/12364677215","source":"osm","name":null,"fee":"no","charge":null,"access":"customers","wheelchair":null,"opening_hours":null,"operator":null,"description":null,"password":null}},{"type":"Feature","geometry":{"type":"Point","coordinates":[6.9489932,50.9215948]},"properties":{"id":"node/12475245752","source":"osm","name":null,"fee":"no","charge":null,"access":null,"wheelchair":"no","opening_hours":null,"operator":null,"description":null,"password":null}},{"type":"Feature","geometry":{"type":"Point","coordinates":[6.9298397,50.9432643]},"properties":{"id":"node/12487146624","source":"osm","name":null,"fee":"no","charge":null,"access":null,"wheelchair":"yes","opening_hours":"24/7","operator":null,"description":null,"password":null}},{"type":"Feature","geometry":{"type":"Point","coordinates":[7.020706,50.9003355]},"properties":{"id":"node/12587631241","source":"osm","name":null,"fee":null,"charge":null,"access":null,"wheelchair":"yes","opening_hours":null,"operator":null,"description":null,"password":null}},{"type":"Feature","geometry":{"type":"Point","coordinates":[7.0053964,50.9612933]},"properties":{"id":"node/12638545602","source":"osm","name":null,"fee":"no","charge":null,"access":null,"wheelchair":"yes","opening_hours":"24/7","operator":null,"description":null,"password":null}},{"type":"Feature","geometry":{"type":"Point","coordinates":[7.1183933,50.8809223]},"properties":{"id":"node/12643977822","source":"osm","name":null,"fee":"no","charge":null,"access":null,"wheelchair":"yes","opening_hours":null,"operator":null,"description":null,"password":null}},{"type":"Feature","geometry":{"type":"Point","coordinates":[6.9922834,50.9162647]},"properties":{"id":"node/12691960538","source":"osm","name":null,"fee":"no","charge":null,"access":null,"wheelchair":"no","opening_hours":null,"operator":null,"description":null,"password":null}},{"type":"Feature","geometry":{"type":"Point","coordinates":[6.983073,50.9131494]},"properties":{"id":"node/12730607998","source":"osm","name":null,"fee":"no","charge":null,"access":null,"wheelchair":"yes","opening_hours":null,"operator":null,"description":null,"password":null}},{"type":"Feature","geometry":{"type":"Point","coordinates":[6.9713349,50.9844397]},"properties":{"id":"node/12788653942","source":"osm","name":null,"fee":null,"charge":null,"access":"yes","wheelchair":null,"opening_hours":null,"operator":null,"description":null,"password":null}},{"type":"Feature","geometry":{"type":"Point","coordinates":[6.9630257,50.8958176]},"properties":{"id":"node/12805179178","source":"osm","name":null,"fee":null,"charge":null,"access":"private","wheelchair":null,"opening_hours":null,"operator":null,"description":null,"password":null}},{"type":"Feature","geometry":{"type":"Point","coordinates":[6.8362837,50.937199]},"properties":{"id":"node/12825690125","source":"osm","name":null,"fee":"yes","charge":null,"access":"yes","wheelchair":null,"opening_hours":null,"operator":null,"description":null,"password":null}},{"type":"Feature","geometry":{"type":"Point","coordinates":[6.8360942,50.9368138]},"properties":{"id":"node/12834690328","source":"osm","name":null,"fee":null,"charge":null,"access":"yes","wheelchair":null,"opening_hours":null,"operator":null,"description":null,"password":null}},{"type":"Feature","geometry":{"type":"Point","coordinates":[6.9644579,50.9892881]},"properties":{"id":"node/12837307483","source":"osm","name":null,"fee":"no","charge":null,"access":"yes","wheelchair":"yes","opening_hours":null,"operator":null,"description":null,"password":null}},{"type":"Feature","geometry":{"type":"Point","coordinates":[6.9270168,50.9622576]},"properties":{"id":"node/12928438810","source":"osm","name":null,"fee":"no","charge":null,"access":null,"wheelchair":"yes","opening_hours":null,"operator":null,"description":null,"password":null}},{"type":"Feature","geometry":{"type":"Point","coordinates":[6.9700947,50.9560779]},"properties":{"id":"node/12943687728","source":"osm","name":null,"fee":"no","charge":null,"access":null,"wheelchair":"limited","opening_hours":null,"operator":null,"description":null,"password":null}},{"type":"Feature","geometry":{"type":"Point","coordinates":[6.9474678,50.9269704]},"properties":{"id":"node/12946025424","source":"osm","name":null,"fee":"no","charge":null,"access":"customers","wheelchair":"limited","opening_hours":null,"operator":"St. Johannisgemeinde","description":null,"password":null}},{"type":"Feature","geometry":{"type":"Point","coordinates":[6.9556533,50.9244192]},"properties":{"id":"node/12946076214","source":"osm","name":null,"fee":"no","charge":null,"access":"private","wheelchair":null,"opening_hours":null,"operator":"Familienzentrum Kartause","description":null,"password":null}},{"type":"Feature","geometry":{"type":"Point","coordinates":[6.906725,50.9652709]},"properties":{"id":"node/12970218173","source":"osm","name":null,"fee":"no","charge":null,"access":"yes","wheelchair":"yes","opening_hours":null,"operator":"Stadt Köln","description":null,"password":null}},{"type":"Feature","geometry":{"type":"Point","coordinates":[6.9044935,50.95418]},"properties":{"id":"node/12974396415","source":"osm","name":"Mobiltoilette Spielplatz Helmholtzstraße","fee":null,"charge":null,"access":null,"wheelchair":null,"opening_hours":null,"operator":null,"description":null,"password":null}},{"type":"Feature","geometry":{"type":"Point","coordinates":[7.0110973,50.8916849]},"properties":{"id":"node/13100200631","source":"osm","name":null,"fee":null,"charge":null,"access":"yes","wheelchair":"yes","opening_hours":null,"operator":null,"description":null,"password":null}},{"type":"Feature","geometry":{"type":"Point","coordinates":[6.9243157,50.887922]},"properties":{"id":"node/13174945473","source":"osm","name":null,"fee":"yes","charge":null,"access":"yes","wheelchair":null,"opening_hours":null,"operator":"Autohof Eifeltor","description":null,"password":null}},{"type":"Feature","geometry":{"type":"Point","coordinates":[6.9553582,50.9398362]},"properties":{"id":"node/13184672498","source":"osm","name":null,"fee":"no","charge":null,"access":"yes","wheelchair":"limited","opening_hours":null,"operator":"AWB","description":null,"password":null}},{"type":"Feature","geometry":{"type":"Point","coordinates":[6.957232,50.942927]},"properties":{"id":"node/13226769349","source":"osm","name":null,"fee":"no","charge":null,"access":"yes","wheelchair":"yes","opening_hours":null,"operator":"AWB Köln","description":null,"password":null}},{"type":"Feature","geometry":{"type":"Point","coordinates":[6.9459118,50.936178]},"properties":{"id":"node/13277104488","source":"osm","name":null,"fee":"no","charge":null,"access":null,"wheelchair":"yes","opening_hours":null,"operator":"AWB","description":null,"password":null}},{"type":"Feature","geometry":{"type":"Point","coordinates":[7.0594124,50.8875381]},"properties":{"id":"node/13355942731","source":"osm","name":null,"fee":null,"charge":null,"access":null,"wheelchair":"yes","opening_hours":null,"operator":null,"description":null,"password":null}},{"type":"Feature","geometry":{"type":"Point","coordinates":[6.8757592,50.9318668]},"properties":{"id":"node/13371907840","source":"osm","name":null,"fee":"no","charge":null,"access":"yes","wheelchair":null,"opening_hours":null,"operator":null,"description":null,"password":null}},{"type":"Feature","geometry":{"type":"Point","coordinates":[6.9006013,50.9337402]},"properties":{"id":"node/13692225940","source":"osm","name":null,"fee":null,"charge":null,"access":null,"wheelchair":null,"opening_hours":null,"operator":null,"description":null,"password":null}},{"type":"Feature","geometry":{"type":"Point","coordinates":[6.9197586,50.9949672]},"properties":{"id":"node/13761758988","source":"osm","name":null,"fee":"no","charge":null,"access":"yes","wheelchair":"yes","opening_hours":null,"operator":"AWB","description":null,"password":null}},{"type":"Feature","geometry":{"type":"Point","coordinates":[6.9308409,50.9270105]},"properties":{"id":"node/13766199981","source":"osm","name":null,"fee":"no","charge":null,"access":"yes","wheelchair":"yes","opening_hours":"24/7","operator":"HolyShit","description":null,"password":null}},{"type":"Feature","geometry":{"type":"Point","coordinates":[6.917427,50.9333524]},"properties":{"id":"node/13785375621","source":"osm","name":null,"fee":"no","charge":null,"access":"yes","wheelchair":"yes","opening_hours":null,"operator":"Abfallwirtschaftsbetriebe Köln","description":null,"password":null}},{"type":"Feature","geometry":{"type":"Point","coordinates":[6.9873205,50.8834169]},"properties":{"id":"node/13800447048","source":"osm","name":null,"fee":null,"charge":null,"access":"yes","wheelchair":"limited","opening_hours":null,"operator":null,"description":null,"password":null}},{"type":"Feature","geometry":{"type":"Point","coordinates":[7.0227845,50.8909522]},"properties":{"id":"node/13895642401","source":"osm","name":null,"fee":null,"charge":null,"access":null,"wheelchair":null,"opening_hours":null,"operator":null,"description":null,"password":null}},{"type":"Feature","geometry":{"type":"Point","coordinates":[6.9174514,50.9237118]},"properties":{"id":"node/13908284685","source":"osm","name":null,"fee":"no","charge":null,"access":"yes","wheelchair":"yes","opening_hours":"24/7","operator":"Universitätsklinik Köln","description":null,"password":null}},{"type":"Feature","geometry":{"type":"Point","coordinates":[6.9139785,51.0523339]},"properties":{"id":"node/13948124042","source":"osm","name":null,"fee":null,"charge":null,"access":"private","wheelchair":"no","opening_hours":null,"operator":"Nur für KVB Fahrer","description":null,"password":null}},{"type":"Feature","geometry":{"type":"Point","coordinates":[7.0256707,50.9581346]},"properties":{"id":"node/13960326341","source":"osm","name":null,"fee":null,"charge":null,"access":"private","wheelchair":null,"opening_hours":null,"operator":"KVB","description":null,"password":null}},{"type":"Feature","geometry":{"type":"Point","coordinates":[6.9975468,50.9376717]},"properties":{"id":"node/13988199664","source":"osm","name":null,"fee":null,"charge":null,"access":null,"wheelchair":"yes","opening_hours":null,"operator":null,"description":null,"password":null}},{"type":"Feature","geometry":{"type":"Point","coordinates":[6.9975468,50.9376717]},"properties":{"id":"node/13988254213","source":"osm","name":null,"fee":null,"charge":null,"access":null,"wheelchair":"yes","opening_hours":"Mo-Th 10:00-20:00; Fr-Sa 10:00-22:00","operator":null,"description":null,"password":null}},{"type":"Feature","geometry":{"type":"Point","coordinates":[6.9556852,50.9944946]},"properties":{"id":"node/14082071864","source":"osm","name":null,"fee":null,"charge":null,"access":"private","wheelchair":null,"opening_hours":null,"operator":"KVB","description":null,"password":null}},{"type":"Feature","geometry":{"type":"Point","coordinates":[6.9434626,50.90093]},"properties":{"id":"way/46771491","source":"osm","name":null,"fee":"no","charge":null,"access":null,"wheelchair":"limited","opening_hours":null,"operator":null,"description":null,"password":null}},{"type":"Feature","geometry":{"type":"Point","coordinates":[6.9164703,50.9378516]},"properties":{"id":"way/119555035","source":"osm","name":null,"fee":"no","charge":null,"access":"yes","wheelchair":"yes","opening_hours":null,"operator":null,"description":null,"password":null}},{"type":"Feature","geometry":{"type":"Point","coordinates":[7.0189493,50.9008741]},"properties":{"id":"way/147341309","source":"osm","name":null,"fee":null,"charge":null,"access":"no","wheelchair":"yes","opening_hours":null,"operator":null,"description":null,"password":null}},{"type":"Feature","geometry":{"type":"Point","coordinates":[7.0766575,50.9736607]},"properties":{"id":"way/161883384","source":"osm","name":null,"fee":null,"charge":null,"access":null,"wheelchair":null,"opening_hours":null,"operator":null,"description":null,"password":null}},{"type":"Feature","geometry":{"type":"Point","coordinates":[6.9896854,50.9241614]},"properties":{"id":"way/162242816","source":"osm","name":null,"fee":"no","charge":null,"access":null,"wheelchair":"yes","opening_hours":null,"operator":null,"description":null,"password":null}},{"type":"Feature","geometry":{"type":"Point","coordinates":[6.9782744,50.9619106]},"properties":{"id":"way/171968462","source":"osm","name":null,"fee":"no","charge":null,"access":"yes","wheelchair":"yes","opening_hours":null,"operator":"Zoologischer Garten Köln","description":null,"password":null}},{"type":"Feature","geometry":{"type":"Point","coordinates":[6.8958763,50.92845]},"properties":{"id":"way/248376710","source":"osm","name":null,"fee":"no","charge":null,"access":null,"wheelchair":"yes","opening_hours":null,"operator":null,"description":null,"password":null}},{"type":"Feature","geometry":{"type":"Point","coordinates":[6.8792289,50.9332912]},"properties":{"id":"way/249810531","source":"osm","name":null,"fee":"no","charge":null,"access":"yes","wheelchair":null,"opening_hours":null,"operator":null,"description":null,"password":null}},{"type":"Feature","geometry":{"type":"Point","coordinates":[6.8733733,50.9329202]},"properties":{"id":"way/249995927","source":"osm","name":null,"fee":"no","charge":null,"access":null,"wheelchair":null,"opening_hours":null,"operator":null,"description":null,"password":null}},{"type":"Feature","geometry":{"type":"Point","coordinates":[6.8502925,51.0250176]},"properties":{"id":"way/278325998","source":"osm","name":null,"fee":null,"charge":null,"access":null,"wheelchair":"yes","opening_hours":null,"operator":null,"description":null,"password":null}},{"type":"Feature","geometry":{"type":"Point","coordinates":[6.9863463,50.934979]},"properties":{"id":"way/285332911","source":"osm","name":null,"fee":null,"charge":null,"access":null,"wheelchair":null,"opening_hours":null,"operator":null,"description":null,"password":null}},{"type":"Feature","geometry":{"type":"Point","coordinates":[6.945777,50.9769638]},"properties":{"id":"way/319295659","source":"osm","name":null,"fee":"no","charge":null,"access":null,"wheelchair":"no","opening_hours":null,"operator":null,"description":null,"password":null}},{"type":"Feature","geometry":{"type":"Point","coordinates":[6.9118556,51.028516]},"properties":{"id":"way/322131065","source":"osm","name":null,"fee":"no","charge":null,"access":"yes","wheelchair":null,"opening_hours":null,"operator":null,"description":null,"password":null}},{"type":"Feature","geometry":{"type":"Point","coordinates":[6.8515883,51.0251691]},"properties":{"id":"way/358948605","source":"osm","name":null,"fee":"no","charge":null,"access":null,"wheelchair":null,"opening_hours":null,"operator":null,"description":null,"password":null}},{"type":"Feature","geometry":{"type":"Point","coordinates":[6.9721241,50.945673]},"properties":{"id":"way/364220439","source":"osm","name":null,"fee":"no","charge":null,"access":null,"wheelchair":"yes","opening_hours":"\"Nur bei Veranstaltungen\"","operator":null,"description":null,"password":null}},{"type":"Feature","geometry":{"type":"Point","coordinates":[6.9707958,50.9458796]},"properties":{"id":"way/369276065","source":"osm","name":null,"fee":"no","charge":null,"access":null,"wheelchair":null,"opening_hours":"\"Nur bei Veranstaltungen\"","operator":null,"description":null,"password":null}},{"type":"Feature","geometry":{"type":"Point","coordinates":[6.934551,50.9383573]},"properties":{"id":"way/374862262","source":"osm","name":null,"fee":"yes","charge":"0.50 EUR oder Euroschlüssel","access":"no","wheelchair":"yes","opening_hours":"24/7","operator":"AWB","description":null,"password":null}},{"type":"Feature","geometry":{"type":"Point","coordinates":[7.0798055,50.8582552]},"properties":{"id":"way/428730455","source":"osm","name":null,"fee":null,"charge":null,"access":"private","wheelchair":null,"opening_hours":null,"operator":null,"description":null,"password":null}},{"type":"Feature","geometry":{"type":"Point","coordinates":[6.9589465,50.9508922]},"properties":{"id":"way/488083682","source":"osm","name":null,"fee":"yes","charge":null,"access":null,"wheelchair":null,"opening_hours":"Mo-Su 09:00-13:00,13:30-18:30","operator":null,"description":null,"password":null}},{"type":"Feature","geometry":{"type":"Point","coordinates":[6.9399881,50.9408378]},"properties":{"id":"way/490936676","source":"osm","name":null,"fee":"yes","charge":null,"access":null,"wheelchair":"no","opening_hours":null,"operator":null,"description":null,"password":null}},{"type":"Feature","geometry":{"type":"Point","coordinates":[6.815867,50.9400198]},"properties":{"id":"way/492133856","source":"osm","name":null,"fee":"no","charge":null,"access":"yes","wheelchair":"limited","opening_hours":null,"operator":null,"description":null,"password":null}},{"type":"Feature","geometry":{"type":"Point","coordinates":[6.8158196,50.9400898]},"properties":{"id":"way/492133858","source":"osm","name":null,"fee":"no","charge":null,"access":"yes","wheelchair":"yes","opening_hours":null,"operator":null,"description":null,"password":null}},{"type":"Feature","geometry":{"type":"Point","coordinates":[6.8769643,50.9343435]},"properties":{"id":"way/598611357","source":"osm","name":null,"fee":"no","charge":null,"access":"customers","wheelchair":"yes","opening_hours":null,"operator":null,"description":null,"password":null}},{"type":"Feature","geometry":{"type":"Point","coordinates":[6.9601365,50.9223481]},"properties":{"id":"way/696703477","source":"osm","name":null,"fee":"yes","charge":"0.50 EUR","access":"yes","wheelchair":"yes","opening_hours":null,"operator":null,"description":null,"password":null}},{"type":"Feature","geometry":{"type":"Point","coordinates":[7.0804679,50.8822916]},"properties":{"id":"way/758229387","source":"osm","name":null,"fee":"yes","charge":null,"access":null,"wheelchair":"yes","opening_hours":null,"operator":null,"description":null,"password":null}},{"type":"Feature","geometry":{"type":"Point","coordinates":[6.8966519,51.0202283]},"properties":{"id":"way/850646345","source":"osm","name":null,"fee":"yes","charge":null,"access":null,"wheelchair":"yes","opening_hours":null,"operator":null,"description":null,"password":null}},{"type":"Feature","geometry":{"type":"Point","coordinates":[6.8757975,50.931867]},"properties":{"id":"way/854902259","source":"osm","name":null,"fee":"yes","charge":"0.50 EUR","access":"yes","wheelchair":"yes","opening_hours":null,"operator":"Stadt Köln","description":null,"password":null}},{"type":"Feature","geometry":{"type":"Point","coordinates":[6.9590959,50.9432899]},"properties":{"id":"way/1036100393","source":"osm","name":null,"fee":"yes","charge":null,"access":"yes","wheelchair":"yes","opening_hours":"24/7","operator":"rail & fresh","description":null,"password":null}},{"type":"Feature","geometry":{"type":"Point","coordinates":[6.9261159,50.9339235]},"properties":{"id":"way/1295713001","source":"osm","name":null,"fee":null,"charge":null,"access":null,"wheelchair":null,"opening_hours":null,"operator":null,"description":null,"password":null}},{"type":"Feature","geometry":{"type":"Point","coordinates":[6.927027,50.933002]},"properties":{"id":"way/1316678618","source":"osm","name":null,"fee":null,"charge":null,"access":null,"wheelchair":null,"opening_hours":null,"operator":null,"description":null,"password":null}},{"type":"Feature","geometry":{"type":"Point","coordinates":[6.9660141,50.9581918]},"properties":{"id":"way/1523556691","source":"osm","name":null,"fee":null,"charge":null,"access":"customers","wheelchair":null,"opening_hours":null,"operator":null,"description":null,"password":null}},{"type":"Feature","geometry":{"type":"Point","coordinates":[6.8940236,50.9691272]},"properties":{"id":"way/1546931779","source":"osm","name":null,"fee":null,"charge":null,"access":"private","wheelchair":"no","opening_hours":null,"operator":null,"description":null,"password":null}}]}