{"type":"FeatureCollection","attribution":"© OpenStreetMap contributors (ODbL)","generated_at":"2026-08-21T08:45:20.225Z","features":[{"type":"Feature","geometry":{"type":"Point","coordinates":[-9.1675644,38.7432983]},"properties":{"id":"node/878876779","source":"osm","name":null,"fee":null,"charge":null,"access":null,"wheelchair":null,"opening_hours":null,"operator":null,"description":null,"password":null}},{"type":"Feature","geometry":{"type":"Point","coordinates":[-9.1702842,38.7447774]},"properties":{"id":"node/890389112","source":"osm","name":null,"fee":"no","charge":null,"access":null,"wheelchair":"yes","opening_hours":null,"operator":null,"description":null,"password":null}},{"type":"Feature","geometry":{"type":"Point","coordinates":[-9.0913575,38.7800457]},"properties":{"id":"node/985927822","source":"osm","name":"WC Parque Tejo e Trancão","fee":"no","charge":null,"access":"yes","wheelchair":"yes","opening_hours":"Mo-Su 09:00-21:00","operator":null,"description":null,"password":null}},{"type":"Feature","geometry":{"type":"Point","coordinates":[-9.1632163,38.7626368]},"properties":{"id":"node/1301579564","source":"osm","name":null,"fee":null,"charge":null,"access":null,"wheelchair":null,"opening_hours":null,"operator":null,"description":null,"password":null}},{"type":"Feature","geometry":{"type":"Point","coordinates":[-9.1656678,38.7652907]},"properties":{"id":"node/1301579619","source":"osm","name":null,"fee":null,"charge":null,"access":null,"wheelchair":"yes","opening_hours":null,"operator":null,"description":null,"password":null}},{"type":"Feature","geometry":{"type":"Point","coordinates":[-9.1707023,38.7678087]},"properties":{"id":"node/1301617688","source":"osm","name":null,"fee":"no","charge":null,"access":"yes","wheelchair":"yes","opening_hours":null,"operator":null,"description":null,"password":null}},{"type":"Feature","geometry":{"type":"Point","coordinates":[-9.1757369,38.7647554]},"properties":{"id":"node/1301636318","source":"osm","name":null,"fee":null,"charge":null,"access":null,"wheelchair":null,"opening_hours":null,"operator":null,"description":null,"password":null}},{"type":"Feature","geometry":{"type":"Point","coordinates":[-9.1727167,38.7678631]},"properties":{"id":"node/1301636339","source":"osm","name":null,"fee":null,"charge":null,"access":null,"wheelchair":"yes","opening_hours":null,"operator":null,"description":null,"password":null}},{"type":"Feature","geometry":{"type":"Point","coordinates":[-9.1591125,38.7580124]},"properties":{"id":"node/1302807217","source":"osm","name":null,"fee":null,"charge":null,"access":null,"wheelchair":null,"opening_hours":null,"operator":null,"description":null,"password":null}},{"type":"Feature","geometry":{"type":"Point","coordinates":[-9.1588415,38.7642555]},"properties":{"id":"node/1302844568","source":"osm","name":null,"fee":null,"charge":null,"access":null,"wheelchair":"yes","opening_hours":null,"operator":null,"description":null,"password":null}},{"type":"Feature","geometry":{"type":"Point","coordinates":[-9.190687,38.7483028]},"properties":{"id":"node/1302863170","source":"osm","name":null,"fee":null,"charge":null,"access":null,"wheelchair":null,"opening_hours":null,"operator":null,"description":null,"password":null}},{"type":"Feature","geometry":{"type":"Point","coordinates":[-9.2144246,38.7114074]},"properties":{"id":"node/1302881379","source":"osm","name":null,"fee":null,"charge":null,"access":null,"wheelchair":null,"opening_hours":null,"operator":null,"description":null,"password":null}},{"type":"Feature","geometry":{"type":"Point","coordinates":[-9.1656062,38.7757145]},"properties":{"id":"node/1353608696","source":"osm","name":null,"fee":null,"charge":null,"access":null,"wheelchair":null,"opening_hours":null,"operator":null,"description":null,"password":null}},{"type":"Feature","geometry":{"type":"Point","coordinates":[-9.1627382,38.7744549]},"properties":{"id":"node/1353608697","source":"osm","name":null,"fee":null,"charge":null,"access":null,"wheelchair":null,"opening_hours":null,"operator":null,"description":null,"password":null}},{"type":"Feature","geometry":{"type":"Point","coordinates":[-9.1908437,38.7211816]},"properties":{"id":"node/1670584074","source":"osm","name":null,"fee":null,"charge":null,"access":null,"wheelchair":null,"opening_hours":null,"operator":null,"description":null,"password":null}},{"type":"Feature","geometry":{"type":"Point","coordinates":[-9.1053188,38.7737348]},"properties":{"id":"node/1746907389","source":"osm","name":null,"fee":null,"charge":null,"access":null,"wheelchair":null,"opening_hours":null,"operator":null,"description":null,"password":null}},{"type":"Feature","geometry":{"type":"Point","coordinates":[-9.1332932,38.7128849]},"properties":{"id":"node/1801653740","source":"osm","name":null,"fee":"no","charge":null,"access":null,"wheelchair":"yes","opening_hours":null,"operator":null,"description":null,"password":null}},{"type":"Feature","geometry":{"type":"Point","coordinates":[-9.1304696,38.7115842]},"properties":{"id":"node/1801848898","source":"osm","name":null,"fee":"no","charge":null,"access":"yes","wheelchair":null,"opening_hours":null,"operator":null,"description":null,"password":null}},{"type":"Feature","geometry":{"type":"Point","coordinates":[-9.1318531,38.7123999]},"properties":{"id":"node/1802199778","source":"osm","name":"Urinol Público Masculino do Chão da Feira","fee":"no","charge":null,"access":"yes","wheelchair":"no","opening_hours":"24/7","operator":null,"description":null,"password":null}},{"type":"Feature","geometry":{"type":"Point","coordinates":[-9.1538788,38.728084]},"properties":{"id":"node/1866346020","source":"osm","name":null,"fee":"no","charge":null,"access":null,"wheelchair":"yes","opening_hours":null,"operator":null,"description":null,"password":null}},{"type":"Feature","geometry":{"type":"Point","coordinates":[-9.1577758,38.714734]},"properties":{"id":"node/1866346035","source":"osm","name":null,"fee":"no","charge":null,"access":null,"wheelchair":"no","opening_hours":null,"operator":null,"description":null,"password":null}},{"type":"Feature","geometry":{"type":"Point","coordinates":[-9.2171252,38.6920809]},"properties":{"id":"node/1907098379","source":"osm","name":null,"fee":"yes","charge":"0.50 EUR","access":"yes","wheelchair":"yes","opening_hours":null,"operator":null,"description":null,"password":null}},{"type":"Feature","geometry":{"type":"Point","coordinates":[-9.0935791,38.7615962]},"properties":{"id":"node/1972431491","source":"osm","name":null,"fee":"no","charge":null,"access":null,"wheelchair":"yes","opening_hours":"Mo-Su 08:00-20:00","operator":null,"description":null,"password":null}},{"type":"Feature","geometry":{"type":"Point","coordinates":[-9.0935683,38.7613453]},"properties":{"id":"node/1972432443","source":"osm","name":null,"fee":null,"charge":null,"access":null,"wheelchair":"yes","opening_hours":null,"operator":null,"description":null,"password":null}},{"type":"Feature","geometry":{"type":"Point","coordinates":[-9.1937749,38.759765]},"properties":{"id":"node/2011486046","source":"osm","name":null,"fee":null,"charge":null,"access":null,"wheelchair":null,"opening_hours":null,"operator":null,"description":null,"password":null}},{"type":"Feature","geometry":{"type":"Point","coordinates":[-9.1931204,38.760062]},"properties":{"id":"node/2011486054","source":"osm","name":null,"fee":null,"charge":null,"access":null,"wheelchair":null,"opening_hours":null,"operator":null,"description":null,"password":null}},{"type":"Feature","geometry":{"type":"Point","coordinates":[-9.1938594,38.7601713]},"properties":{"id":"node/2011486056","source":"osm","name":null,"fee":null,"charge":null,"access":null,"wheelchair":null,"opening_hours":null,"operator":null,"description":null,"password":null}},{"type":"Feature","geometry":{"type":"Point","coordinates":[-9.1537137,38.7333911]},"properties":{"id":"node/2066948724","source":"osm","name":null,"fee":null,"charge":null,"access":null,"wheelchair":null,"opening_hours":null,"operator":null,"description":null,"password":null}},{"type":"Feature","geometry":{"type":"Point","coordinates":[-9.1613422,38.7332847]},"properties":{"id":"node/2141195611","source":"osm","name":null,"fee":null,"charge":null,"access":null,"wheelchair":null,"opening_hours":null,"operator":null,"description":null,"password":null}},{"type":"Feature","geometry":{"type":"Point","coordinates":[-9.093697,38.7632319]},"properties":{"id":"node/2385872640","source":"osm","name":null,"fee":"no","charge":null,"access":null,"wheelchair":"yes","opening_hours":null,"operator":null,"description":null,"password":null}},{"type":"Feature","geometry":{"type":"Point","coordinates":[-9.0937649,38.7637507]},"properties":{"id":"node/2385872641","source":"osm","name":null,"fee":"no","charge":null,"access":null,"wheelchair":"yes","opening_hours":null,"operator":null,"description":null,"password":null}},{"type":"Feature","geometry":{"type":"Point","coordinates":[-9.1712809,38.7424478]},"properties":{"id":"node/2407403738","source":"osm","name":null,"fee":null,"charge":null,"access":null,"wheelchair":null,"opening_hours":null,"operator":null,"description":null,"password":null}},{"type":"Feature","geometry":{"type":"Point","coordinates":[-9.1717688,38.7436314]},"properties":{"id":"node/2407403744","source":"osm","name":null,"fee":"no","charge":null,"access":null,"wheelchair":"yes","opening_hours":null,"operator":null,"description":null,"password":null}},{"type":"Feature","geometry":{"type":"Point","coordinates":[-9.1352232,38.7075755]},"properties":{"id":"node/2503411073","source":"osm","name":"Renova","fee":"yes","charge":null,"access":"yes","wheelchair":"yes","opening_hours":null,"operator":null,"description":null,"password":null}},{"type":"Feature","geometry":{"type":"Point","coordinates":[-9.1529014,38.749313]},"properties":{"id":"node/2515648862","source":"osm","name":null,"fee":null,"charge":null,"access":null,"wheelchair":null,"opening_hours":null,"operator":null,"description":null,"password":null}},{"type":"Feature","geometry":{"type":"Point","coordinates":[-9.0935836,38.7561364]},"properties":{"id":"node/2522469156","source":"osm","name":null,"fee":null,"charge":null,"access":null,"wheelchair":null,"opening_hours":null,"operator":null,"description":null,"password":null}},{"type":"Feature","geometry":{"type":"Point","coordinates":[-9.2049943,38.7078696]},"properties":{"id":"node/2688634674","source":"osm","name":null,"fee":null,"charge":null,"access":null,"wheelchair":null,"opening_hours":null,"operator":null,"description":null,"password":null}},{"type":"Feature","geometry":{"type":"Point","coordinates":[-9.1408424,38.7261596]},"properties":{"id":"node/2829318452","source":"osm","name":null,"fee":"yes","charge":null,"access":"yes","wheelchair":"no","opening_hours":null,"operator":null,"description":null,"password":null}},{"type":"Feature","geometry":{"type":"Point","coordinates":[-9.2026227,38.7000842]},"properties":{"id":"node/2898743844","source":"osm","name":null,"fee":null,"charge":null,"access":null,"wheelchair":"no","opening_hours":null,"operator":null,"description":null,"password":null}},{"type":"Feature","geometry":{"type":"Point","coordinates":[-9.2135501,38.6931332]},"properties":{"id":"node/3403816994","source":"osm","name":"Pay toilet","fee":null,"charge":null,"access":null,"wheelchair":null,"opening_hours":null,"operator":null,"description":null,"password":null}},{"type":"Feature","geometry":{"type":"Point","coordinates":[-9.1789229,38.7030553]},"properties":{"id":"node/3404766823","source":"osm","name":null,"fee":null,"charge":null,"access":null,"wheelchair":"no","opening_hours":null,"operator":null,"description":null,"password":null}},{"type":"Feature","geometry":{"type":"Point","coordinates":[-9.2016303,38.7177043]},"properties":{"id":"node/3889818244","source":"osm","name":null,"fee":null,"charge":null,"access":"yes","wheelchair":null,"opening_hours":null,"operator":null,"description":null,"password":null}},{"type":"Feature","geometry":{"type":"Point","coordinates":[-9.0936932,38.7622747]},"properties":{"id":"node/4033359609","source":"osm","name":null,"fee":"no","charge":null,"access":null,"wheelchair":"yes","opening_hours":null,"operator":null,"description":null,"password":null}},{"type":"Feature","geometry":{"type":"Point","coordinates":[-9.1349813,38.7123272]},"properties":{"id":"node/4319184134","source":"osm","name":null,"fee":null,"charge":null,"access":"yes","wheelchair":null,"opening_hours":null,"operator":null,"description":null,"password":null}},{"type":"Feature","geometry":{"type":"Point","coordinates":[-9.2140026,38.6932028]},"properties":{"id":"node/4319212665","source":"osm","name":null,"fee":"yes","charge":null,"access":"yes","wheelchair":null,"opening_hours":null,"operator":null,"description":null,"password":null}},{"type":"Feature","geometry":{"type":"Point","coordinates":[-9.2133936,38.6923008]},"properties":{"id":"node/4409711847","source":"osm","name":null,"fee":"yes","charge":null,"access":null,"wheelchair":null,"opening_hours":null,"operator":null,"description":null,"password":null}},{"type":"Feature","geometry":{"type":"Point","coordinates":[-9.0929111,38.7876631]},"properties":{"id":"node/4486473890","source":"osm","name":null,"fee":null,"charge":null,"access":null,"wheelchair":"limited","opening_hours":null,"operator":null,"description":null,"password":null}},{"type":"Feature","geometry":{"type":"Point","coordinates":[-9.1366893,38.7638025]},"properties":{"id":"node/4522429961","source":"osm","name":null,"fee":"no","charge":null,"access":null,"wheelchair":"yes","opening_hours":null,"operator":null,"description":null,"password":null}},{"type":"Feature","geometry":{"type":"Point","coordinates":[-9.2091523,38.6957861]},"properties":{"id":"node/4955092321","source":"osm","name":null,"fee":null,"charge":null,"access":null,"wheelchair":null,"opening_hours":null,"operator":"Muzeum sztuki","description":null,"password":null}},{"type":"Feature","geometry":{"type":"Point","coordinates":[-9.2088849,38.6948292]},"properties":{"id":"node/4955120421","source":"osm","name":null,"fee":null,"charge":null,"access":null,"wheelchair":"yes","opening_hours":null,"operator":null,"description":null,"password":null}},{"type":"Feature","geometry":{"type":"Point","coordinates":[-9.2015955,38.6987777]},"properties":{"id":"node/4955269043","source":"osm","name":null,"fee":"no","charge":null,"access":null,"wheelchair":"no","opening_hours":null,"operator":null,"description":null,"password":null}},{"type":"Feature","geometry":{"type":"Point","coordinates":[-9.1354673,38.7640354]},"properties":{"id":"node/4986852629","source":"osm","name":null,"fee":"no","charge":null,"access":"yes","wheelchair":"yes","opening_hours":null,"operator":null,"description":null,"password":null}},{"type":"Feature","geometry":{"type":"Point","coordinates":[-9.1301684,38.7120387]},"properties":{"id":"node/5013886540","source":"osm","name":null,"fee":"yes","charge":null,"access":null,"wheelchair":"yes","opening_hours":"Mo-Sa 09:30-13:00; Mo-Sa 14:00-17:30","operator":null,"description":null,"password":null}},{"type":"Feature","geometry":{"type":"Point","coordinates":[-9.1552558,38.7208733]},"properties":{"id":"node/5205649570","source":"osm","name":null,"fee":"no","charge":null,"access":"yes","wheelchair":"yes","opening_hours":null,"operator":null,"description":null,"password":null}},{"type":"Feature","geometry":{"type":"Point","coordinates":[-9.1518441,38.7507287]},"properties":{"id":"node/5269823745","source":"osm","name":null,"fee":null,"charge":null,"access":null,"wheelchair":null,"opening_hours":null,"operator":null,"description":null,"password":null}},{"type":"Feature","geometry":{"type":"Point","coordinates":[-9.1491914,38.7238742]},"properties":{"id":"node/5417595994","source":"osm","name":null,"fee":"yes","charge":null,"access":null,"wheelchair":null,"opening_hours":null,"operator":null,"description":null,"password":null}},{"type":"Feature","geometry":{"type":"Point","coordinates":[-9.1461385,38.7074055]},"properties":{"id":"node/5430099748","source":"osm","name":null,"fee":"no","charge":null,"access":"permissive","wheelchair":"yes","opening_hours":null,"operator":null,"description":null,"password":null}},{"type":"Feature","geometry":{"type":"Point","coordinates":[-9.1300254,38.71139]},"properties":{"id":"node/5434710821","source":"osm","name":null,"fee":null,"charge":null,"access":null,"wheelchair":null,"opening_hours":null,"operator":null,"description":null,"password":null}},{"type":"Feature","geometry":{"type":"Point","coordinates":[-9.1528163,38.7557022]},"properties":{"id":"node/5440356321","source":"osm","name":null,"fee":null,"charge":null,"access":"customers","wheelchair":"limited","opening_hours":null,"operator":null,"description":null,"password":null}},{"type":"Feature","geometry":{"type":"Point","coordinates":[-9.1496058,38.7164985]},"properties":{"id":"node/5445430685","source":"osm","name":"WC Público","fee":"no","charge":null,"access":"yes","wheelchair":null,"opening_hours":"Mo-Fr 08:00-20:00; Sa 08:00-18:00; Su off; PH off","operator":"Câmara Municipal de Lisboa","description":"Praça do Príncipe Real I.S. Públicas, -1","password":null}},{"type":"Feature","geometry":{"type":"Point","coordinates":[-9.1981038,38.7573967]},"properties":{"id":"node/5445430686","source":"osm","name":"WC Público","fee":null,"charge":null,"access":"yes","wheelchair":null,"opening_hours":null,"operator":"Câmara Municipal de Lisboa","description":"Estrada dos Arneiros Cemitério (I.S. Públicas), R/C","password":null}},{"type":"Feature","geometry":{"type":"Point","coordinates":[-9.1598991,38.7129378]},"properties":{"id":"node/5445430687","source":"osm","name":"WC Público","fee":null,"charge":null,"access":"yes","wheelchair":null,"opening_hours":null,"operator":"Câmara Municipal de Lisboa","description":"Praça da Estrela I.S. Públicas, R/C","password":null}},{"type":"Feature","geometry":{"type":"Point","coordinates":[-9.2000284,38.7552928]},"properties":{"id":"node/5445430688","source":"osm","name":"WC Público","fee":null,"charge":null,"access":"yes","wheelchair":null,"opening_hours":null,"operator":"Câmara Municipal de Lisboa","description":"Estrada dos Arneiros Restaurante, R/C-Anexo","password":null}},{"type":"Feature","geometry":{"type":"Point","coordinates":[-9.2056513,38.7101846]},"properties":{"id":"node/5445430689","source":"osm","name":"WC Público","fee":null,"charge":null,"access":"yes","wheelchair":null,"opening_hours":null,"operator":"Câmara Municipal de Lisboa","description":"Estrada de Caselas Recepção e Sanitários","password":null}},{"type":"Feature","geometry":{"type":"Point","coordinates":[-9.1197517,38.7284609]},"properties":{"id":"node/5445430690","source":"osm","name":"WC Público","fee":null,"charge":null,"access":"yes","wheelchair":null,"opening_hours":null,"operator":"Câmara Municipal de Lisboa","description":"Rua 14 do Cemitério do Alto de São João I.S. Públicas, R/C-loja 11A","password":null}},{"type":"Feature","geometry":{"type":"Point","coordinates":[-9.1430509,38.7131609]},"properties":{"id":"node/5445430691","source":"osm","name":"WC Público","fee":"no","charge":null,"access":"yes","wheelchair":"no","opening_hours":"Mo-Fr 08:00-19:45; Sa 08:00-17:45; Su off; PH off","operator":"Câmara Municipal de Lisboa","description":"Largo Trindade Coelho I.S. Públicas, -1","password":null}},{"type":"Feature","geometry":{"type":"Point","coordinates":[-9.1394058,38.7217688]},"properties":{"id":"node/5445430692","source":"osm","name":"WC Público","fee":"no","charge":null,"access":"yes","wheelchair":null,"opening_hours":"Mo-Fr 08:30-13:00,14:00-16:15; Sa,Su,PH off","operator":"Câmara Municipal de Lisboa","description":"Largo do Mastro CML, R/C","password":null}},{"type":"Feature","geometry":{"type":"Point","coordinates":[-9.1473532,38.709636]},"properties":{"id":"node/5445430693","source":"osm","name":"WC Público","fee":"no","charge":null,"access":"yes","wheelchair":"no","opening_hours":"Mo-Su 07:30-23:30","operator":"Câmara Municipal de Lisboa","description":"Rua de Santa Catarina I.S. Públicas, R/C","password":null}},{"type":"Feature","geometry":{"type":"Point","coordinates":[-9.1407626,38.711788]},"properties":{"id":"node/5445430694","source":"osm","name":"WC Público","fee":"no","charge":null,"access":"yes","wheelchair":"no","opening_hours":"Mo-Su 09:30-13:00, 14:00-17:30","operator":"Câmara Municipal de Lisboa","description":"Largo do Carmo I.S. Públicas, -1","password":null}},{"type":"Feature","geometry":{"type":"Point","coordinates":[-9.1533598,38.7090576]},"properties":{"id":"node/5445430696","source":"osm","name":"WC Público","fee":"no","charge":null,"access":"yes","wheelchair":null,"opening_hours":"Mo-Su 09:00-00:00","operator":"Câmara Municipal de Lisboa","description":"Avenida Dom Carlos I I.S. Públicas, -1","password":null}},{"type":"Feature","geometry":{"type":"Point","coordinates":[-9.1226933,38.7293522]},"properties":{"id":"node/5445430698","source":"osm","name":"WC Público","fee":null,"charge":null,"access":"yes","wheelchair":null,"opening_hours":null,"operator":"Câmara Municipal de Lisboa","description":"Rua 1 do Cemitério do Alto de São João Sala de Espera, R/C-loja 11A","password":null}},{"type":"Feature","geometry":{"type":"Point","coordinates":[-9.1996854,38.6965368]},"properties":{"id":"node/5445430699","source":"osm","name":"WC Público","fee":"no","charge":null,"access":"yes","wheelchair":null,"opening_hours":null,"operator":"Câmara Municipal de Lisboa","description":"Praça Afonso de Albuquerque I.S. Públicas, R/C","password":null}},{"type":"Feature","geometry":{"type":"Point","coordinates":[-9.1356886,38.7208722]},"properties":{"id":"node/5445430700","source":"osm","name":"WC Público","fee":null,"charge":null,"access":"yes","wheelchair":null,"opening_hours":null,"operator":"Câmara Municipal de Lisboa","description":"Rua Antero de Quental I.S. Públicas, R/C","password":null}},{"type":"Feature","geometry":{"type":"Point","coordinates":[-9.1177747,38.7290152]},"properties":{"id":"node/5445430701","source":"osm","name":"WC Público","fee":null,"charge":null,"access":"yes","wheelchair":null,"opening_hours":null,"operator":"Câmara Municipal de Lisboa","description":"Rua 59 do Cemitério do Alto de São João I.S. Públicas, R/C-loja 11A","password":null}},{"type":"Feature","geometry":{"type":"Point","coordinates":[-9.1447984,38.718154]},"properties":{"id":"node/5445430703","source":"osm","name":"WC Público","fee":"no","charge":null,"access":"yes","wheelchair":null,"opening_hours":"Mo-Fr 09:30-12:00,14:00-16:30","operator":"Câmara Municipal de Lisboa","description":"Praça da Alegria I.S. Públicas, R/C","password":null}},{"type":"Feature","geometry":{"type":"Point","coordinates":[-9.1743706,38.7028482]},"properties":{"id":"node/5445430704","source":"osm","name":"WC Público","fee":null,"charge":null,"access":"yes","wheelchair":null,"opening_hours":null,"operator":"Câmara Municipal de Lisboa","description":"Avenida da Índia Passagem Subterrânea, -1","password":null}},{"type":"Feature","geometry":{"type":"Point","coordinates":[-9.1594221,38.7136945]},"properties":{"id":"node/5445430707","source":"osm","name":null,"fee":"no","charge":null,"access":"yes","wheelchair":"yes","opening_hours":"Mo-Su 08:00-00:00","operator":"Câmara Municipal de Lisboa","description":"Jardim Guerra Junqueiro (Jardim da Estrela) Chalé, R/C","password":null}},{"type":"Feature","geometry":{"type":"Point","coordinates":[-9.1327897,38.7193262]},"properties":{"id":"node/5445430708","source":"osm","name":"Public Toilet","fee":"yes","charge":"0.50 EUR","access":"yes","wheelchair":"no","opening_hours":null,"operator":"Câmara Municipal de Lisboa","description":"Largo do Monte I.S. Públicas, -1","password":null}},{"type":"Feature","geometry":{"type":"Point","coordinates":[-9.1215237,38.7295403]},"properties":{"id":"node/5445430709","source":"osm","name":"WC Público","fee":null,"charge":null,"access":"yes","wheelchair":null,"opening_hours":null,"operator":"Câmara Municipal de Lisboa","description":"Rua 11 do Cemitério do Alto de São João I.S. Públicas, R/C-loja 11A","password":null}},{"type":"Feature","geometry":{"type":"Point","coordinates":[-9.1341824,38.7247044]},"properties":{"id":"node/5445430711","source":"osm","name":"WC Público","fee":null,"charge":null,"access":"yes","wheelchair":null,"opening_hours":null,"operator":"Câmara Municipal de Lisboa","description":"Avenida Almirante Reis I.S. Públicas, R/C","password":null}},{"type":"Feature","geometry":{"type":"Point","coordinates":[-9.1698961,38.7137948]},"properties":{"id":"node/5445430712","source":"osm","name":"WC Público","fee":"no","charge":null,"access":"yes","wheelchair":null,"opening_hours":null,"operator":"Câmara Municipal de Lisboa","description":"Praça São João Bosco Cemitério (Atendimento), R/C-I.S. Públicas","password":null}},{"type":"Feature","geometry":{"type":"Point","coordinates":[-9.1550697,38.7293939]},"properties":{"id":"node/5445430713","source":"osm","name":"WC Público","fee":null,"charge":null,"access":"yes","wheelchair":null,"opening_hours":null,"operator":"Câmara Municipal de Lisboa","description":"Parque Eduardo VII de Inglaterra Estufa Fria, R/C","password":null}},{"type":"Feature","geometry":{"type":"Point","coordinates":[-9.1848188,38.7042531]},"properties":{"id":"node/5445430714","source":"osm","name":"WC Público","fee":"no","charge":null,"access":"yes","wheelchair":"yes","opening_hours":"Mo-Fr 08:00-21:00; Sa,Su,PH 10:00-21:00","operator":"Câmara Municipal de Lisboa","description":"Rua Jau I.S. Públicas, -1","password":null}},{"type":"Feature","geometry":{"type":"Point","coordinates":[-9.1337377,38.7097006]},"properties":{"id":"node/5445430715","source":"osm","name":null,"fee":"yes","charge":"0.50 EUR","access":"yes","wheelchair":"no","opening_hours":"Mo-Su 09:30-13:00,14:00-17:30","operator":"Câmara Municipal de Lisboa","description":"Largo da Sé I.S. Públicas, -1","password":null}},{"type":"Feature","geometry":{"type":"Point","coordinates":[-9.1435203,38.7104435]},"properties":{"id":"node/5445430716","source":"osm","name":"WC Público","fee":"no","charge":null,"access":"yes","wheelchair":null,"opening_hours":"Mo-Su 08:00-20:00","operator":"Câmara Municipal de Lisboa","description":"Praça de Luís de Camões I.S. Públicas, -1","password":null}},{"type":"Feature","geometry":{"type":"Point","coordinates":[-9.1150998,38.7327185]},"properties":{"id":"node/5445430717","source":"osm","name":"WC Público","fee":"no","charge":null,"access":"yes","wheelchair":null,"opening_hours":"Mo-Su 08:00-20:00","operator":"Câmara Municipal de Lisboa","description":"Rua José da Bateira I.S. Públicas, R/C","password":null}},{"type":"Feature","geometry":{"type":"Point","coordinates":[-9.1700744,38.7142193]},"properties":{"id":"node/5445430718","source":"osm","name":"WC Público","fee":"no","charge":null,"access":"yes","wheelchair":"no","opening_hours":null,"operator":"Câmara Municipal de Lisboa","description":"Praça São João Bosco Cemitério (Portaria e I.S.), R/C-I.S. Públicas","password":null}},{"type":"Feature","geometry":{"type":"Point","coordinates":[-9.1664213,38.773485]},"properties":{"id":"node/5445430720","source":"osm","name":"WC Público","fee":null,"charge":null,"access":"yes","wheelchair":null,"opening_hours":null,"operator":"Câmara Municipal de Lisboa","description":"Azinhaga das Lajes Cemitério (I.S. Públicas), R/C-I.S. Públicas","password":null}},{"type":"Feature","geometry":{"type":"Point","coordinates":[-9.2184476,38.6931292]},"properties":{"id":"node/5445432921","source":"osm","name":"WC Público","fee":"yes","charge":null,"access":"yes","wheelchair":null,"opening_hours":null,"operator":"Câmara Municipal de Lisboa","description":"Avenida de Brasília Forte do Bom Sucesso, R/C","password":null}},{"type":"Feature","geometry":{"type":"Point","coordinates":[-9.1366934,38.7266101]},"properties":{"id":"node/5445432922","source":"osm","name":"WC Público","fee":"no","charge":null,"access":"yes","wheelchair":null,"opening_hours":"Mo-Su 08:00-23:30","operator":"Câmara Municipal de Lisboa","description":"Largo de Santa Bárbara I.S., R/C","password":null}},{"type":"Feature","geometry":{"type":"Point","coordinates":[-9.1650221,38.7731105]},"properties":{"id":"node/5445432923","source":"osm","name":"WC Público","fee":null,"charge":null,"access":"yes","wheelchair":null,"opening_hours":null,"operator":"Câmara Municipal de Lisboa","description":"Azinhaga das Lajes Cemitério (Sala Espera/I.S.), R/C-I.S. Públicas","password":null}},{"type":"Feature","geometry":{"type":"Point","coordinates":[-9.1297753,38.7169023]},"properties":{"id":"node/5445432924","source":"osm","name":"WC Público","fee":"no","charge":null,"access":"yes","wheelchair":"yes","opening_hours":"Mo-Fr 08:00-20:45; Sa 09:00-13:45; Su,PH off","operator":"Câmara Municipal de Lisboa","description":"Largo da Graça I.S. Públicas, R/C","password":null}},{"type":"Feature","geometry":{"type":"Point","coordinates":[-9.1307046,38.7368811]},"properties":{"id":"node/5445432925","source":"osm","name":"WC Público","fee":"no","charge":null,"access":"yes","wheelchair":null,"opening_hours":"Mo-Fr 08:00-11:00,13:00-15:45; Sa,Su,PH 07:00-13:00","operator":"Câmara Municipal de Lisboa","description":"Alameda Dom Afonso Henriques Balneários","password":null}},{"type":"Feature","geometry":{"type":"Point","coordinates":[-9.2036258,38.7094957]},"properties":{"id":"node/5445432928","source":"osm","name":"WC Público","fee":null,"charge":null,"access":"yes","wheelchair":null,"opening_hours":null,"operator":"Câmara Municipal de Lisboa","description":"Calçada do Galvão Cemitério (I.S. Públicas), R/C-I.S. Públicas","password":null}},{"type":"Feature","geometry":{"type":"Point","coordinates":[-9.2076312,38.7501316]},"properties":{"id":"node/5445432930","source":"osm","name":"WC Público Automatizado","fee":"yes","charge":null,"access":"yes","wheelchair":null,"opening_hours":"24/7","operator":"Câmara Municipal de Lisboa","description":"Acesso: Rua João Frederico Ludovice. Jardim.","password":null}},{"type":"Feature","geometry":{"type":"Point","coordinates":[-9.1414147,38.7317426]},"properties":{"id":"node/5445432931","source":"osm","name":"WC Público Automatizado","fee":"yes","charge":null,"access":"yes","wheelchair":"limited","opening_hours":"24/7","operator":"Câmara Municipal de Lisboa","description":"Acesso: Avenida Casal Ribeiro. Junto Largo de Dona Estefânia.","password":null}},{"type":"Feature","geometry":{"type":"Point","coordinates":[-9.1693567,38.7144916]},"properties":{"id":"node/5445432933","source":"osm","name":"WC Público Automatizado","fee":"yes","charge":null,"access":"yes","wheelchair":"no","opening_hours":"24/7","operator":"Câmara Municipal de Lisboa","description":"Acesso: Praça São João Bosco. Jardim.","password":null}},{"type":"Feature","geometry":{"type":"Point","coordinates":[-9.1567135,38.7592287]},"properties":{"id":"node/5445432935","source":"osm","name":"WC Público Automatizado","fee":"yes","charge":"0.10 EUR","access":"yes","wheelchair":"yes","opening_hours":"24/7","operator":"Câmara Municipal de Lisboa","description":"Acesso: Campo Grande. Junto Rua Cipriano Dourado.\nSanitário em Fase de Montagem","password":null}},{"type":"Feature","geometry":{"type":"Point","coordinates":[-9.1889864,38.7526464]},"properties":{"id":"node/5445432936","source":"osm","name":"WC Público Automatizado","fee":"yes","charge":null,"access":"yes","wheelchair":null,"opening_hours":"24/7","operator":"Câmara Municipal de Lisboa","description":"Acesso: Largo da Revista Militar. Junto Avenida do Colégio Militar.","password":null}},{"type":"Feature","geometry":{"type":"Point","coordinates":[-9.1415352,38.7161863]},"properties":{"id":"node/5445432937","source":"osm","name":"WC Público Automatizado","fee":"yes","charge":null,"access":"yes","wheelchair":null,"opening_hours":"24/7","operator":"Câmara Municipal de Lisboa","description":"Acesso: Praça dos Restauradores. Frente 52.","password":null}},{"type":"Feature","geometry":{"type":"Point","coordinates":[-9.1392385,38.7145257]},"properties":{"id":"node/5445432939","source":"osm","name":"WC Público Automatizado","fee":"yes","charge":null,"access":"yes","wheelchair":"no","opening_hours":"off","operator":"Câmara Municipal de Lisboa","description":"Acesso: Praça D. Pedro IV. Junto Largo de São Domingos.","password":null}},{"type":"Feature","geometry":{"type":"Point","coordinates":[-9.1774707,38.7047279]},"properties":{"id":"node/5445432940","source":"osm","name":"WC Público Automatizado","fee":"yes","charge":null,"access":"yes","wheelchair":"yes","opening_hours":"24/7","operator":"Câmara Municipal de Lisboa","description":"Acesso: Largo do Calvário. Placa Central.","password":null}},{"type":"Feature","geometry":{"type":"Point","coordinates":[-9.2017597,38.7508561]},"properties":{"id":"node/5445432941","source":"osm","name":"WC Público Automatizado","fee":"yes","charge":null,"access":"yes","wheelchair":null,"opening_hours":"24/7","operator":"Câmara Municipal de Lisboa","description":"Acesso: Estrada de Benfica. Junto Igreja.","password":null}},{"type":"Feature","geometry":{"type":"Point","coordinates":[-9.1481986,38.7160057]},"properties":{"id":"node/5445432942","source":"osm","name":"WC Público Automatizado","fee":"yes","charge":null,"access":"yes","wheelchair":"yes","opening_hours":"24/7","operator":"Câmara Municipal de Lisboa","description":"Acesso: Praça do Príncipe Real. Frente 1.","password":null}},{"type":"Feature","geometry":{"type":"Point","coordinates":[-9.1559822,38.706593]},"properties":{"id":"node/5445432943","source":"osm","name":"WC Público Automatizado","fee":"yes","charge":null,"access":"yes","wheelchair":"no","opening_hours":"24/7","operator":"Câmara Municipal de Lisboa","description":"Acesso: Calçada Ribeiro Santos. Largo de Santos.","password":null}},{"type":"Feature","geometry":{"type":"Point","coordinates":[-9.2035286,38.6971453]},"properties":{"id":"node/5445432944","source":"osm","name":"WC Público Automatizado","fee":"yes","charge":null,"access":"yes","wheelchair":"limited","opening_hours":"24/7","operator":"Câmara Municipal de Lisboa","description":"Acesso: Travessa da Praça. Frente 2.","password":null}},{"type":"Feature","geometry":{"type":"Point","coordinates":[-9.1514763,38.7151524]},"properties":{"id":"node/5445432945","source":"osm","name":"WC Público Automatizado","fee":"yes","charge":null,"access":"yes","wheelchair":"yes","opening_hours":"24/7","operator":"Câmara Municipal de Lisboa","description":"Acesso: Praça das Flores. Jardim, frente 51.","password":null}},{"type":"Feature","geometry":{"type":"Point","coordinates":[-9.21586,38.7089434]},"properties":{"id":"node/5445432947","source":"osm","name":"WC Público Automatizado","fee":"yes","charge":null,"access":"yes","wheelchair":null,"opening_hours":"24/7","operator":"Câmara Municipal de Lisboa","description":"Acesso: Estrada do Forte do Alto do Duque. Junto Rua Antão Gonçalves.","password":null}},{"type":"Feature","geometry":{"type":"Point","coordinates":[-9.1608179,38.750244]},"properties":{"id":"node/5445432948","source":"osm","name":"WC Público Automatizado","fee":"yes","charge":null,"access":"yes","wheelchair":null,"opening_hours":"24/7","operator":"Câmara Municipal de Lisboa","description":"Acesso: Avenida Professor Egas Moniz. Junto entrada do Hospital de Santa Maria.","password":null}},{"type":"Feature","geometry":{"type":"Point","coordinates":[-9.127126,38.7309925]},"properties":{"id":"node/5445432950","source":"osm","name":"WC Público Automatizado","fee":"yes","charge":null,"access":"yes","wheelchair":null,"opening_hours":"24/7","operator":"Câmara Municipal de Lisboa","description":"Acesso: Praça Paiva Couceiro. Frnte 8/9.","password":null}},{"type":"Feature","geometry":{"type":"Point","coordinates":[-9.1434437,38.7278764]},"properties":{"id":"node/5445432951","source":"osm","name":"WC Público Automatizado","fee":"yes","charge":null,"access":"yes","wheelchair":null,"opening_hours":"24/7","operator":"Câmara Municipal de Lisboa","description":"Acesso: Rua Gonçalves Crespo. Junto Rua do Conde de Redondo.","password":null}},{"type":"Feature","geometry":{"type":"Point","coordinates":[-9.1506538,38.7920579]},"properties":{"id":"node/5445432952","source":"osm","name":"WC Público Automatizado","fee":"yes","charge":null,"access":"yes","wheelchair":"no","opening_hours":"24/7","operator":"Câmara Municipal de Lisboa","description":"Acesso: Estrada Militar. Junto Largo das Galinheiras.","password":null}},{"type":"Feature","geometry":{"type":"Point","coordinates":[-9.1337291,38.7435013]},"properties":{"id":"node/5445432953","source":"osm","name":"WC Público Automatizado","fee":"yes","charge":null,"access":"yes","wheelchair":"no","opening_hours":"24/7","operator":"Câmara Municipal de Lisboa","description":"Acesso: Avenida Padre Manuel da Nóbrega. Frente Avenida de Madrid.","password":null}},{"type":"Feature","geometry":{"type":"Point","coordinates":[-9.1083808,38.7631439]},"properties":{"id":"node/5784655452","source":"osm","name":null,"fee":null,"charge":null,"access":"permissive","wheelchair":"yes","opening_hours":null,"operator":null,"description":null,"password":null}},{"type":"Feature","geometry":{"type":"Point","coordinates":[-9.1398255,38.7067007]},"properties":{"id":"node/5849583187","source":"osm","name":null,"fee":"yes","charge":"0.50 EUR","access":null,"wheelchair":"no","opening_hours":null,"operator":null,"description":null,"password":null}},{"type":"Feature","geometry":{"type":"Point","coordinates":[-9.1698722,38.7436089]},"properties":{"id":"node/6013637309","source":"osm","name":null,"fee":"no","charge":null,"access":null,"wheelchair":"yes","opening_hours":null,"operator":null,"description":null,"password":null}},{"type":"Feature","geometry":{"type":"Point","coordinates":[-9.2089521,38.6969608]},"properties":{"id":"node/6214544882","source":"osm","name":null,"fee":"no","charge":null,"access":"permissive","wheelchair":null,"opening_hours":null,"operator":null,"description":null,"password":null}},{"type":"Feature","geometry":{"type":"Point","coordinates":[-9.1362438,38.7638814]},"properties":{"id":"node/6217036174","source":"osm","name":null,"fee":"no","charge":null,"access":null,"wheelchair":"yes","opening_hours":null,"operator":null,"description":null,"password":null}},{"type":"Feature","geometry":{"type":"Point","coordinates":[-9.136422,38.7640169]},"properties":{"id":"node/6217036179","source":"osm","name":null,"fee":"no","charge":null,"access":null,"wheelchair":"yes","opening_hours":null,"operator":null,"description":null,"password":null}},{"type":"Feature","geometry":{"type":"Point","coordinates":[-9.1788036,38.7031702]},"properties":{"id":"node/6466948385","source":"osm","name":null,"fee":null,"charge":null,"access":"yes","wheelchair":null,"opening_hours":null,"operator":null,"description":null,"password":null}},{"type":"Feature","geometry":{"type":"Point","coordinates":[-9.1329704,38.7069638]},"properties":{"id":"node/6653485107","source":"osm","name":null,"fee":"yes","charge":"1.00 EUR","access":"yes","wheelchair":"yes","opening_hours":"PH,Mo-Su 07:30-23:00","operator":null,"description":null,"password":null}},{"type":"Feature","geometry":{"type":"Point","coordinates":[-9.2131458,38.7169494]},"properties":{"id":"node/6724271272","source":"osm","name":null,"fee":null,"charge":null,"access":null,"wheelchair":null,"opening_hours":null,"operator":null,"description":null,"password":null}},{"type":"Feature","geometry":{"type":"Point","coordinates":[-9.1718352,38.7324411]},"properties":{"id":"node/6795165464","source":"osm","name":null,"fee":"yes","charge":null,"access":null,"wheelchair":null,"opening_hours":null,"operator":null,"description":null,"password":null}},{"type":"Feature","geometry":{"type":"Point","coordinates":[-9.1857844,38.712604]},"properties":{"id":"node/6854081744","source":"osm","name":null,"fee":null,"charge":null,"access":"customers","wheelchair":null,"opening_hours":null,"operator":null,"description":null,"password":null}},{"type":"Feature","geometry":{"type":"Point","coordinates":[-9.1867843,38.7198412]},"properties":{"id":"node/7369536537","source":"osm","name":null,"fee":"no","charge":null,"access":null,"wheelchair":"yes","opening_hours":null,"operator":null,"description":null,"password":null}},{"type":"Feature","geometry":{"type":"Point","coordinates":[-9.1867843,38.7197957]},"properties":{"id":"node/7369536538","source":"osm","name":null,"fee":"no","charge":null,"access":null,"wheelchair":"yes","opening_hours":null,"operator":null,"description":null,"password":null}},{"type":"Feature","geometry":{"type":"Point","coordinates":[-9.1712641,38.7071812]},"properties":{"id":"node/8989005871","source":"osm","name":null,"fee":"no","charge":null,"access":"yes","wheelchair":"no","opening_hours":null,"operator":null,"description":null,"password":null}},{"type":"Feature","geometry":{"type":"Point","coordinates":[-9.2131439,38.716956]},"properties":{"id":"node/9342005077","source":"osm","name":null,"fee":null,"charge":null,"access":null,"wheelchair":null,"opening_hours":null,"operator":null,"description":null,"password":null}},{"type":"Feature","geometry":{"type":"Point","coordinates":[-9.1228351,38.7142354]},"properties":{"id":"node/9460731007","source":"osm","name":null,"fee":"yes","charge":null,"access":null,"wheelchair":null,"opening_hours":null,"operator":null,"description":null,"password":null}},{"type":"Feature","geometry":{"type":"Point","coordinates":[-9.1661968,38.7267916]},"properties":{"id":"node/9519055904","source":"osm","name":null,"fee":"no","charge":null,"access":"customers","wheelchair":null,"opening_hours":null,"operator":null,"description":null,"password":null}},{"type":"Feature","geometry":{"type":"Point","coordinates":[-9.1308473,38.7740245]},"properties":{"id":"node/9721941912","source":"osm","name":null,"fee":"no","charge":null,"access":null,"wheelchair":null,"opening_hours":null,"operator":null,"description":null,"password":null}},{"type":"Feature","geometry":{"type":"Point","coordinates":[-9.1309882,38.7745956]},"properties":{"id":"node/9721952009","source":"osm","name":null,"fee":"no","charge":null,"access":null,"wheelchair":"yes","opening_hours":null,"operator":null,"description":null,"password":null}},{"type":"Feature","geometry":{"type":"Point","coordinates":[-9.1316217,38.7770025]},"properties":{"id":"node/9721952010","source":"osm","name":null,"fee":"no","charge":null,"access":null,"wheelchair":"yes","opening_hours":null,"operator":null,"description":null,"password":null}},{"type":"Feature","geometry":{"type":"Point","coordinates":[-9.131124,38.7750639]},"properties":{"id":"node/9721974664","source":"osm","name":null,"fee":"no","charge":null,"access":null,"wheelchair":null,"opening_hours":null,"operator":null,"description":null,"password":null}},{"type":"Feature","geometry":{"type":"Point","coordinates":[-9.1313393,38.7746325]},"properties":{"id":"node/9721977561","source":"osm","name":null,"fee":"no","charge":null,"access":null,"wheelchair":"yes","opening_hours":null,"operator":null,"description":null,"password":null}},{"type":"Feature","geometry":{"type":"Point","coordinates":[-9.1313452,38.7758755]},"properties":{"id":"node/9721980037","source":"osm","name":null,"fee":"no","charge":null,"access":null,"wheelchair":"yes","opening_hours":null,"operator":null,"description":null,"password":null}},{"type":"Feature","geometry":{"type":"Point","coordinates":[-9.1315535,38.7766726]},"properties":{"id":"node/9721996161","source":"osm","name":null,"fee":"no","charge":null,"access":null,"wheelchair":"yes","opening_hours":null,"operator":null,"description":null,"password":null}},{"type":"Feature","geometry":{"type":"Point","coordinates":[-9.1340948,38.7066932]},"properties":{"id":"node/9810629438","source":"osm","name":null,"fee":"yes","charge":"0.50 EUR","access":"yes","wheelchair":"yes","opening_hours":null,"operator":null,"description":null,"password":null}},{"type":"Feature","geometry":{"type":"Point","coordinates":[-9.2116955,38.693812]},"properties":{"id":"node/9820865299","source":"osm","name":null,"fee":"yes","charge":"0.50 EUR","access":"yes","wheelchair":"limited","opening_hours":null,"operator":null,"description":null,"password":null}},{"type":"Feature","geometry":{"type":"Point","coordinates":[-9.1338007,38.7099565]},"properties":{"id":"node/9822478008","source":"osm","name":null,"fee":null,"charge":null,"access":"customers","wheelchair":"limited","opening_hours":null,"operator":null,"description":null,"password":null}},{"type":"Feature","geometry":{"type":"Point","coordinates":[-9.2046599,38.7497737]},"properties":{"id":"node/9878570793","source":"osm","name":null,"fee":"no","charge":null,"access":null,"wheelchair":null,"opening_hours":null,"operator":null,"description":null,"password":null}},{"type":"Feature","geometry":{"type":"Point","coordinates":[-9.1503497,38.7176128]},"properties":{"id":"node/9997965618","source":"osm","name":null,"fee":"yes","charge":null,"access":null,"wheelchair":null,"opening_hours":null,"operator":null,"description":null,"password":null}},{"type":"Feature","geometry":{"type":"Point","coordinates":[-9.1615841,38.7732262]},"properties":{"id":"node/10004985733","source":"osm","name":null,"fee":"yes","charge":"0.10","access":"customers","wheelchair":null,"opening_hours":null,"operator":null,"description":null,"password":null}},{"type":"Feature","geometry":{"type":"Point","coordinates":[-9.1439671,38.7145281]},"properties":{"id":"node/10120547015","source":"osm","name":null,"fee":"no","charge":null,"access":"yes","wheelchair":null,"opening_hours":"Mo-Fr 07:30-19:00; Sa 07:30-17:00; Su off; PH off","operator":null,"description":null,"password":null}},{"type":"Feature","geometry":{"type":"Point","coordinates":[-9.2016442,38.6985234]},"properties":{"id":"node/10665632067","source":"osm","name":null,"fee":null,"charge":null,"access":null,"wheelchair":null,"opening_hours":null,"operator":null,"description":null,"password":null}},{"type":"Feature","geometry":{"type":"Point","coordinates":[-9.1377128,38.7518535]},"properties":{"id":"node/10831779133","source":"osm","name":null,"fee":null,"charge":null,"access":null,"wheelchair":null,"opening_hours":null,"operator":null,"description":null,"password":null}},{"type":"Feature","geometry":{"type":"Point","coordinates":[-9.1398861,38.7511077]},"properties":{"id":"node/10831779191","source":"osm","name":null,"fee":null,"charge":null,"access":null,"wheelchair":null,"opening_hours":null,"operator":null,"description":null,"password":null}},{"type":"Feature","geometry":{"type":"Point","coordinates":[-9.1402274,38.75109]},"properties":{"id":"node/10831779193","source":"osm","name":null,"fee":null,"charge":null,"access":null,"wheelchair":null,"opening_hours":null,"operator":null,"description":null,"password":null}},{"type":"Feature","geometry":{"type":"Point","coordinates":[-9.1395951,38.7505716]},"properties":{"id":"node/10831779199","source":"osm","name":null,"fee":null,"charge":null,"access":null,"wheelchair":null,"opening_hours":null,"operator":null,"description":null,"password":null}},{"type":"Feature","geometry":{"type":"Point","coordinates":[-9.1313546,38.7128229]},"properties":{"id":"node/10856677595","source":"osm","name":null,"fee":null,"charge":null,"access":null,"wheelchair":null,"opening_hours":null,"operator":null,"description":null,"password":null}},{"type":"Feature","geometry":{"type":"Point","coordinates":[-9.207406,38.7232724]},"properties":{"id":"node/11059474890","source":"osm","name":null,"fee":null,"charge":null,"access":"customers","wheelchair":null,"opening_hours":null,"operator":null,"description":null,"password":null}},{"type":"Feature","geometry":{"type":"Point","coordinates":[-9.1302379,38.771697]},"properties":{"id":"node/11073662364","source":"osm","name":null,"fee":"no","charge":null,"access":"customers","wheelchair":"yes","opening_hours":null,"operator":null,"description":null,"password":null}},{"type":"Feature","geometry":{"type":"Point","coordinates":[-9.1246717,38.7157687]},"properties":{"id":"node/11217934701","source":"osm","name":null,"fee":"yes","charge":"0.50 EUR","access":"yes","wheelchair":null,"opening_hours":null,"operator":null,"description":null,"password":null}},{"type":"Feature","geometry":{"type":"Point","coordinates":[-9.1459887,38.7067382]},"properties":{"id":"node/11396750663","source":"osm","name":null,"fee":"no","charge":null,"access":"permissive","wheelchair":"yes","opening_hours":null,"operator":null,"description":null,"password":null}},{"type":"Feature","geometry":{"type":"Point","coordinates":[-9.1427722,38.7098973]},"properties":{"id":"node/11518937969","source":"osm","name":null,"fee":null,"charge":null,"access":null,"wheelchair":null,"opening_hours":null,"operator":null,"description":null,"password":null}},{"type":"Feature","geometry":{"type":"Point","coordinates":[-9.1334787,38.7099463]},"properties":{"id":"node/11786636969","source":"osm","name":null,"fee":null,"charge":null,"access":null,"wheelchair":null,"opening_hours":null,"operator":null,"description":null,"password":null}},{"type":"Feature","geometry":{"type":"Point","coordinates":[-9.1309813,38.7706919]},"properties":{"id":"node/11891388243","source":"osm","name":null,"fee":"no","charge":null,"access":"yes","wheelchair":null,"opening_hours":null,"operator":null,"description":null,"password":null}},{"type":"Feature","geometry":{"type":"Point","coordinates":[-9.1301973,38.7684928]},"properties":{"id":"node/11891388245","source":"osm","name":null,"fee":"no","charge":null,"access":null,"wheelchair":"yes","opening_hours":null,"operator":null,"description":null,"password":null}},{"type":"Feature","geometry":{"type":"Point","coordinates":[-9.1348503,38.7121641]},"properties":{"id":"node/11931568748","source":"osm","name":null,"fee":"no","charge":null,"access":"yes","wheelchair":null,"opening_hours":null,"operator":null,"description":"On ground floor right next to the elevator","password":null}},{"type":"Feature","geometry":{"type":"Point","coordinates":[-9.1733753,38.7079062]},"properties":{"id":"node/11931622989","source":"osm","name":null,"fee":null,"charge":null,"access":null,"wheelchair":null,"opening_hours":null,"operator":null,"description":null,"password":null}},{"type":"Feature","geometry":{"type":"Point","coordinates":[-9.1533616,38.7068911]},"properties":{"id":"node/12040309132","source":"osm","name":null,"fee":null,"charge":null,"access":"customers","wheelchair":null,"opening_hours":null,"operator":null,"description":null,"password":null}},{"type":"Feature","geometry":{"type":"Point","coordinates":[-9.1451765,38.7050446]},"properties":{"id":"node/12040384389","source":"osm","name":null,"fee":"yes","charge":"1.00 EUR","access":"yes","wheelchair":null,"opening_hours":null,"operator":null,"description":null,"password":null}},{"type":"Feature","geometry":{"type":"Point","coordinates":[-9.1225751,38.7127477]},"properties":{"id":"node/12075930926","source":"osm","name":null,"fee":null,"charge":null,"access":"permit","wheelchair":null,"opening_hours":null,"operator":null,"description":null,"password":null}},{"type":"Feature","geometry":{"type":"Point","coordinates":[-9.2087578,38.6978784]},"properties":{"id":"node/12075931380","source":"osm","name":null,"fee":null,"charge":null,"access":"customers","wheelchair":null,"opening_hours":null,"operator":"Museu de Marinha","description":null,"password":null}},{"type":"Feature","geometry":{"type":"Point","coordinates":[-9.2077692,38.6973692]},"properties":{"id":"node/12075932134","source":"osm","name":null,"fee":null,"charge":null,"access":"customers","wheelchair":null,"opening_hours":null,"operator":"Museu de Marinha","description":null,"password":null}},{"type":"Feature","geometry":{"type":"Point","coordinates":[-9.1349203,38.724753]},"properties":{"id":"node/12348850969","source":"osm","name":null,"fee":null,"charge":null,"access":"yes","wheelchair":null,"opening_hours":null,"operator":null,"description":null,"password":null}},{"type":"Feature","geometry":{"type":"Point","coordinates":[-9.1660044,38.741426]},"properties":{"id":"node/12436255467","source":"osm","name":null,"fee":"yes","charge":null,"access":null,"wheelchair":null,"opening_hours":null,"operator":null,"description":null,"password":null}},{"type":"Feature","geometry":{"type":"Point","coordinates":[-9.1065494,38.7686454]},"properties":{"id":"node/12588127760","source":"osm","name":"Urinol Público Masculino de Olivais Velho","fee":"no","charge":null,"access":"yes","wheelchair":"no","opening_hours":"24/7","operator":null,"description":"Integrado no \"Praça da Viscondessa dos Olivais / Rossio dos Olivais\"","password":null}},{"type":"Feature","geometry":{"type":"Point","coordinates":[-9.1290029,38.7122621]},"properties":{"id":"node/12588843003","source":"osm","name":null,"fee":"no","charge":null,"access":"yes","wheelchair":null,"opening_hours":"Mo-Sa 09:30-13:00,14:00-16:30; Su,PH off","operator":null,"description":null,"password":null}},{"type":"Feature","geometry":{"type":"Point","coordinates":[-9.1592318,38.7597953]},"properties":{"id":"node/12593027558","source":"osm","name":null,"fee":"yes","charge":"0.10 EUR","access":"yes","wheelchair":"yes","opening_hours":"24/7","operator":"Câmara Municipal de Lisboa","description":"Sanitário em Fase de Montagem","password":null}},{"type":"Feature","geometry":{"type":"Point","coordinates":[-9.1290419,38.7216558]},"properties":{"id":"node/12599643828","source":"osm","name":null,"fee":"no","charge":null,"access":"yes","wheelchair":null,"opening_hours":"Mo-Su 08:00-23:30","operator":null,"description":null,"password":null}},{"type":"Feature","geometry":{"type":"Point","coordinates":[-9.1397265,38.7214043]},"properties":{"id":"node/12599643829","source":"osm","name":null,"fee":"no","charge":null,"access":null,"wheelchair":null,"opening_hours":"Mo-Su 09:00-12:00,13:00-15:55","operator":null,"description":null,"password":null}},{"type":"Feature","geometry":{"type":"Point","coordinates":[-9.1463315,38.7203126]},"properties":{"id":"node/12599643830","source":"osm","name":null,"fee":"no","charge":null,"access":"permissive","wheelchair":"no","opening_hours":null,"operator":null,"description":null,"password":null}},{"type":"Feature","geometry":{"type":"Point","coordinates":[-9.141188,38.72525]},"properties":{"id":"node/12599643831","source":"osm","name":null,"fee":"no","charge":null,"access":"permissive","wheelchair":null,"opening_hours":null,"operator":null,"description":null,"password":null}},{"type":"Feature","geometry":{"type":"Point","coordinates":[-9.1438932,38.7301071]},"properties":{"id":"node/12599643832","source":"osm","name":null,"fee":"no","charge":null,"access":"yes","wheelchair":null,"opening_hours":"Mo-Fr 09:00-13:00,14:00-16:30; Sa,Su,PH off","operator":null,"description":null,"password":null}},{"type":"Feature","geometry":{"type":"Point","coordinates":[-9.1486435,38.7444404]},"properties":{"id":"node/12599643833","source":"osm","name":null,"fee":"yes","charge":"0.50 EUR","access":null,"wheelchair":null,"opening_hours":null,"operator":null,"description":null,"password":null}},{"type":"Feature","geometry":{"type":"Point","coordinates":[-9.0989666,38.7682827]},"properties":{"id":"node/12599643834","source":"osm","name":null,"fee":"no","charge":null,"access":"yes","wheelchair":null,"opening_hours":null,"operator":null,"description":null,"password":null}},{"type":"Feature","geometry":{"type":"Point","coordinates":[-9.1299927,38.7693108]},"properties":{"id":"node/12643683520","source":"osm","name":null,"fee":"no","charge":null,"access":null,"wheelchair":"yes","opening_hours":null,"operator":null,"description":null,"password":null}},{"type":"Feature","geometry":{"type":"Point","coordinates":[-9.1692781,38.7416254]},"properties":{"id":"node/12752275253","source":"osm","name":null,"fee":"yes","charge":"0.10p","access":"yes","wheelchair":null,"opening_hours":null,"operator":null,"description":null,"password":null}},{"type":"Feature","geometry":{"type":"Point","coordinates":[-9.1684716,38.7420263]},"properties":{"id":"node/12752275254","source":"osm","name":null,"fee":"yes","charge":"0.10","access":"yes","wheelchair":null,"opening_hours":null,"operator":null,"description":null,"password":null}},{"type":"Feature","geometry":{"type":"Point","coordinates":[-9.1301577,38.7683147]},"properties":{"id":"node/12768429026","source":"osm","name":null,"fee":"no","charge":null,"access":null,"wheelchair":null,"opening_hours":null,"operator":null,"description":null,"password":null}},{"type":"Feature","geometry":{"type":"Point","coordinates":[-9.2036291,38.7251367]},"properties":{"id":"node/12778244586","source":"osm","name":null,"fee":"no","charge":null,"access":null,"wheelchair":null,"opening_hours":null,"operator":null,"description":null,"password":null}},{"type":"Feature","geometry":{"type":"Point","coordinates":[-9.2047579,38.726488]},"properties":{"id":"node/12778244587","source":"osm","name":null,"fee":"no","charge":null,"access":null,"wheelchair":null,"opening_hours":null,"operator":null,"description":null,"password":null}},{"type":"Feature","geometry":{"type":"Point","coordinates":[-9.2067857,38.7259659]},"properties":{"id":"node/12778244588","source":"osm","name":null,"fee":"no","charge":null,"access":null,"wheelchair":null,"opening_hours":null,"operator":null,"description":null,"password":null}},{"type":"Feature","geometry":{"type":"Point","coordinates":[-9.2061146,38.7242478]},"properties":{"id":"node/12778244591","source":"osm","name":null,"fee":null,"charge":null,"access":null,"wheelchair":null,"opening_hours":null,"operator":null,"description":null,"password":null}},{"type":"Feature","geometry":{"type":"Point","coordinates":[-9.0962767,38.7655793]},"properties":{"id":"node/12842553498","source":"osm","name":null,"fee":"yes","charge":"0.10 Eur","access":"yes","wheelchair":"yes","opening_hours":"24/7","operator":null,"description":null,"password":null}},{"type":"Feature","geometry":{"type":"Point","coordinates":[-9.1335336,38.7367536]},"properties":{"id":"node/12846806823","source":"osm","name":null,"fee":"yes","charge":"0.10 EUR","access":"yes","wheelchair":"limited","opening_hours":"24/7","operator":null,"description":null,"password":null}},{"type":"Feature","geometry":{"type":"Point","coordinates":[-9.147832,38.7445108]},"properties":{"id":"node/12854743147","source":"osm","name":null,"fee":"yes","charge":"0.10 EUR","access":"yes","wheelchair":"limited","opening_hours":null,"operator":null,"description":null,"password":null}},{"type":"Feature","geometry":{"type":"Point","coordinates":[-9.1566333,38.760451]},"properties":{"id":"node/12855343911","source":"osm","name":null,"fee":"yes","charge":"0.10 EUR","access":"yes","wheelchair":null,"opening_hours":"24/7","operator":null,"description":null,"password":null}},{"type":"Feature","geometry":{"type":"Point","coordinates":[-9.1361343,38.7595387]},"properties":{"id":"node/12862539316","source":"osm","name":null,"fee":"yes","charge":"0.10 EUR","access":"yes","wheelchair":null,"opening_hours":null,"operator":null,"description":null,"password":null}},{"type":"Feature","geometry":{"type":"Point","coordinates":[-9.1134784,38.7523793]},"properties":{"id":"node/12866490202","source":"osm","name":null,"fee":"yes","charge":null,"access":"yes","wheelchair":null,"opening_hours":null,"operator":null,"description":null,"password":null}},{"type":"Feature","geometry":{"type":"Point","coordinates":[-9.099743,38.7669696]},"properties":{"id":"node/12917546495","source":"osm","name":null,"fee":"yes","charge":null,"access":null,"wheelchair":null,"opening_hours":null,"operator":null,"description":null,"password":null}},{"type":"Feature","geometry":{"type":"Point","coordinates":[-9.1015529,38.7749316]},"properties":{"id":"node/12956104700","source":"osm","name":null,"fee":null,"charge":null,"access":null,"wheelchair":null,"opening_hours":null,"operator":null,"description":null,"password":null}},{"type":"Feature","geometry":{"type":"Point","coordinates":[-9.1418791,38.7067242]},"properties":{"id":"node/12956679559","source":"osm","name":null,"fee":"yes","charge":null,"access":null,"wheelchair":null,"opening_hours":null,"operator":null,"description":null,"password":null}},{"type":"Feature","geometry":{"type":"Point","coordinates":[-9.19018,38.7535181]},"properties":{"id":"node/12961104148","source":"osm","name":null,"fee":null,"charge":null,"access":null,"wheelchair":"limited","opening_hours":null,"operator":null,"description":null,"password":null}},{"type":"Feature","geometry":{"type":"Point","coordinates":[-9.1352861,38.7337522]},"properties":{"id":"node/12961104149","source":"osm","name":null,"fee":null,"charge":null,"access":null,"wheelchair":null,"opening_hours":null,"operator":null,"description":null,"password":null}},{"type":"Feature","geometry":{"type":"Point","coordinates":[-9.1428179,38.7872629]},"properties":{"id":"node/12996013438","source":"osm","name":null,"fee":"yes","charge":"0.10 EUR","access":"yes","wheelchair":null,"opening_hours":"24/7","operator":null,"description":null,"password":null}},{"type":"Feature","geometry":{"type":"Point","coordinates":[-9.1894421,38.7383554]},"properties":{"id":"node/13062366876","source":"osm","name":null,"fee":null,"charge":null,"access":"yes","wheelchair":"limited","opening_hours":null,"operator":null,"description":null,"password":null}},{"type":"Feature","geometry":{"type":"Point","coordinates":[-9.1544631,38.7290989]},"properties":{"id":"node/13077622202","source":"osm","name":null,"fee":null,"charge":null,"access":"yes","wheelchair":null,"opening_hours":null,"operator":null,"description":null,"password":null}},{"type":"Feature","geometry":{"type":"Point","coordinates":[-9.0990519,38.7673513]},"properties":{"id":"node/13190515464","source":"osm","name":null,"fee":"no","charge":null,"access":"yes","wheelchair":null,"opening_hours":null,"operator":null,"description":null,"password":null}},{"type":"Feature","geometry":{"type":"Point","coordinates":[-9.1294826,38.7698732]},"properties":{"id":"node/13323337582","source":"osm","name":null,"fee":"no","charge":null,"access":null,"wheelchair":null,"opening_hours":null,"operator":null,"description":null,"password":null}},{"type":"Feature","geometry":{"type":"Point","coordinates":[-9.1327227,38.7354316]},"properties":{"id":"node/13373666001","source":"osm","name":null,"fee":null,"charge":null,"access":null,"wheelchair":null,"opening_hours":null,"operator":null,"description":null,"password":null}},{"type":"Feature","geometry":{"type":"Point","coordinates":[-9.1119421,38.7635936]},"properties":{"id":"node/13610867268","source":"osm","name":null,"fee":null,"charge":null,"access":null,"wheelchair":"yes","opening_hours":null,"operator":null,"description":null,"password":null}},{"type":"Feature","geometry":{"type":"Point","coordinates":[-9.1356381,38.7453877]},"properties":{"id":"node/13707522199","source":"osm","name":null,"fee":"yes","charge":null,"access":"yes","wheelchair":null,"opening_hours":null,"operator":null,"description":null,"password":null}},{"type":"Feature","geometry":{"type":"Point","coordinates":[-9.1417328,38.7354641]},"properties":{"id":"node/13809786372","source":"osm","name":null,"fee":null,"charge":null,"access":null,"wheelchair":null,"opening_hours":null,"operator":null,"description":null,"password":null}},{"type":"Feature","geometry":{"type":"Point","coordinates":[-9.1411871,38.7255212]},"properties":{"id":"node/13914619393","source":"osm","name":null,"fee":null,"charge":null,"access":null,"wheelchair":"no","opening_hours":null,"operator":null,"description":null,"password":null}},{"type":"Feature","geometry":{"type":"Point","coordinates":[-9.1335484,38.7131828]},"properties":{"id":"node/14080543102","source":"osm","name":null,"fee":null,"charge":null,"access":null,"wheelchair":null,"opening_hours":null,"operator":null,"description":null,"password":null}},{"type":"Feature","geometry":{"type":"Point","coordinates":[-9.1436867,38.7414225]},"properties":{"id":"node/14106433929","source":"osm","name":null,"fee":null,"charge":null,"access":"yes","wheelchair":"no","opening_hours":null,"operator":"Câmara Municipal de Lisboa","description":null,"password":null}},{"type":"Feature","geometry":{"type":"Point","coordinates":[-9.0924329,38.7873943]},"properties":{"id":"way/183037030","source":"osm","name":null,"fee":null,"charge":null,"access":null,"wheelchair":null,"opening_hours":null,"operator":null,"description":null,"password":null}},{"type":"Feature","geometry":{"type":"Point","coordinates":[-9.1312497,38.7160628]},"properties":{"id":"way/238116472","source":"osm","name":null,"fee":"yes","charge":"0.50 EUR","access":null,"wheelchair":"limited","opening_hours":"Mo-Su 09:00-01:00","operator":null,"description":null,"password":null}},{"type":"Feature","geometry":{"type":"Point","coordinates":[-9.1517285,38.7260931]},"properties":{"id":"way/246339029","source":"osm","name":null,"fee":"no","charge":null,"access":"yes","wheelchair":"limited","opening_hours":"Mo-Su 08:00-20:00","operator":"Câmara Municipal de Lisboa","description":"Parque Eduardo VII de Inglaterra I.S. Públicas, R/C","password":null}},{"type":"Feature","geometry":{"type":"Point","coordinates":[-9.1881707,38.7438361]},"properties":{"id":"way/249717720","source":"osm","name":null,"fee":null,"charge":null,"access":"yes","wheelchair":null,"opening_hours":null,"operator":null,"description":null,"password":null}},{"type":"Feature","geometry":{"type":"Point","coordinates":[-9.1374254,38.730736]},"properties":{"id":"way/406803534","source":"osm","name":"WC Público","fee":"no","charge":null,"access":"yes","wheelchair":"no","opening_hours":"Mo-Fr 08:00-18:30; Sa 09:00-13:00,14:00-16:30; Su,PH off","operator":"Câmara Municipal de Lisboa","description":"Rua José Estêvão Quiosque, R/C","password":null}},{"type":"Feature","geometry":{"type":"Point","coordinates":[-9.1495008,38.7191475]},"properties":{"id":"way/522707354","source":"osm","name":null,"fee":"no","charge":null,"access":null,"wheelchair":"limited","opening_hours":null,"operator":null,"description":null,"password":null}},{"type":"Feature","geometry":{"type":"Point","coordinates":[-9.1445526,38.705742]},"properties":{"id":"way/636444754","source":"osm","name":null,"fee":"yes","charge":"0.50 EUR","access":"yes","wheelchair":null,"opening_hours":"Mo-Su 07:00-22:00","operator":null,"description":null,"password":null}},{"type":"Feature","geometry":{"type":"Point","coordinates":[-9.1021378,38.7426121]},"properties":{"id":"way/678214109","source":"osm","name":"Urinol Público Masculino do Poço do Bispo","fee":null,"charge":null,"access":"yes","wheelchair":"no","opening_hours":"24/7","operator":null,"description":null,"password":null}},{"type":"Feature","geometry":{"type":"Point","coordinates":[-9.1945867,38.7208136]},"properties":{"id":"way/679282182","source":"osm","name":null,"fee":null,"charge":null,"access":null,"wheelchair":null,"opening_hours":null,"operator":null,"description":null,"password":null}},{"type":"Feature","geometry":{"type":"Point","coordinates":[-9.1928922,38.6961508]},"properties":{"id":"way/834057803","source":"osm","name":null,"fee":null,"charge":null,"access":null,"wheelchair":null,"opening_hours":null,"operator":null,"description":null,"password":null}},{"type":"Feature","geometry":{"type":"Point","coordinates":[-9.1936029,38.6959052]},"properties":{"id":"way/834075473","source":"osm","name":null,"fee":null,"charge":null,"access":null,"wheelchair":null,"opening_hours":null,"operator":null,"description":null,"password":null}},{"type":"Feature","geometry":{"type":"Point","coordinates":[-9.1939032,38.6958566]},"properties":{"id":"way/834077149","source":"osm","name":null,"fee":null,"charge":null,"access":null,"wheelchair":null,"opening_hours":null,"operator":null,"description":null,"password":null}},{"type":"Feature","geometry":{"type":"Point","coordinates":[-9.1495673,38.7502035]},"properties":{"id":"way/1005810808","source":"osm","name":null,"fee":null,"charge":null,"access":"yes","wheelchair":null,"opening_hours":null,"operator":"Câmara Municipal de Lisboa","description":"---- Campo Grande I.S. Públicas(Frente Biblioteca Nacional), R/C","password":null}},{"type":"Feature","geometry":{"type":"Point","coordinates":[-9.096759,38.767213]},"properties":{"id":"way/1057900084","source":"osm","name":null,"fee":"no","charge":null,"access":null,"wheelchair":"yes","opening_hours":null,"operator":"Centro Comercial Vasco da Gama","description":null,"password":null}},{"type":"Feature","geometry":{"type":"Point","coordinates":[-9.0967974,38.7672018]},"properties":{"id":"way/1057900085","source":"osm","name":null,"fee":"no","charge":null,"access":null,"wheelchair":null,"opening_hours":null,"operator":"Centro Comercial Vasco da Gama","description":null,"password":null}},{"type":"Feature","geometry":{"type":"Point","coordinates":[-9.0967478,38.7671988]},"properties":{"id":"way/1057900086","source":"osm","name":null,"fee":"no","charge":null,"access":null,"wheelchair":null,"opening_hours":null,"operator":"Centro Comercial Vasco da Gama","description":null,"password":null}},{"type":"Feature","geometry":{"type":"Point","coordinates":[-9.0977938,38.7672304]},"properties":{"id":"way/1057900087","source":"osm","name":null,"fee":"no","charge":null,"access":null,"wheelchair":"yes","opening_hours":null,"operator":"Centro Comercial Vasco da Gama","description":null,"password":null}},{"type":"Feature","geometry":{"type":"Point","coordinates":[-9.0977784,38.7672386]},"properties":{"id":"way/1057900088","source":"osm","name":null,"fee":"no","charge":null,"access":null,"wheelchair":null,"opening_hours":null,"operator":"Centro Comercial Vasco da Gama","description":null,"password":null}},{"type":"Feature","geometry":{"type":"Point","coordinates":[-9.0977822,38.7672029]},"properties":{"id":"way/1057900089","source":"osm","name":null,"fee":"no","charge":null,"access":null,"wheelchair":null,"opening_hours":null,"operator":"Centro Comercial Vasco da Gama","description":null,"password":null}},{"type":"Feature","geometry":{"type":"Point","coordinates":[-9.0973368,38.7680036]},"properties":{"id":"way/1058148792","source":"osm","name":null,"fee":"no","charge":null,"access":"customers","wheelchair":null,"opening_hours":null,"operator":null,"description":null,"password":null}},{"type":"Feature","geometry":{"type":"Point","coordinates":[-9.0973339,38.768041]},"properties":{"id":"way/1058148793","source":"osm","name":null,"fee":"no","charge":null,"access":"customers","wheelchair":null,"opening_hours":null,"operator":null,"description":null,"password":null}},{"type":"Feature","geometry":{"type":"Point","coordinates":[-9.096432,38.7678432]},"properties":{"id":"way/1058148796","source":"osm","name":null,"fee":"no","charge":null,"access":null,"wheelchair":null,"opening_hours":null,"operator":"Centro Comercial Vasco da Gama","description":null,"password":null}},{"type":"Feature","geometry":{"type":"Point","coordinates":[-9.0966867,38.7673209]},"properties":{"id":"way/1058148797","source":"osm","name":null,"fee":"no","charge":null,"access":null,"wheelchair":null,"opening_hours":null,"operator":null,"description":null,"password":null}},{"type":"Feature","geometry":{"type":"Point","coordinates":[-9.0966908,38.7672712]},"properties":{"id":"way/1058148798","source":"osm","name":null,"fee":"no","charge":null,"access":null,"wheelchair":null,"opening_hours":null,"operator":null,"description":null,"password":null}},{"type":"Feature","geometry":{"type":"Point","coordinates":[-9.0965025,38.7680216]},"properties":{"id":"way/1058148801","source":"osm","name":null,"fee":"no","charge":null,"access":null,"wheelchair":null,"opening_hours":null,"operator":null,"description":null,"password":null}},{"type":"Feature","geometry":{"type":"Point","coordinates":[-9.0965502,38.7679647]},"properties":{"id":"way/1058148802","source":"osm","name":null,"fee":"no","charge":null,"access":null,"wheelchair":"yes","opening_hours":null,"operator":null,"description":null,"password":null}},{"type":"Feature","geometry":{"type":"Point","coordinates":[-9.0965596,38.7680248]},"properties":{"id":"way/1058148803","source":"osm","name":null,"fee":"no","charge":null,"access":null,"wheelchair":null,"opening_hours":null,"operator":null,"description":null,"password":null}},{"type":"Feature","geometry":{"type":"Point","coordinates":[-9.0966918,38.7672925]},"properties":{"id":"way/1058148804","source":"osm","name":null,"fee":"no","charge":null,"access":null,"wheelchair":null,"opening_hours":null,"operator":null,"description":null,"password":null}},{"type":"Feature","geometry":{"type":"Point","coordinates":[-9.0966739,38.7673465]},"properties":{"id":"way/1058148805","source":"osm","name":null,"fee":"no","charge":null,"access":null,"wheelchair":"yes","opening_hours":null,"operator":null,"description":null,"password":null}},{"type":"Feature","geometry":{"type":"Point","coordinates":[-9.0966881,38.7673388]},"properties":{"id":"way/1058148806","source":"osm","name":null,"fee":"no","charge":null,"access":null,"wheelchair":null,"opening_hours":null,"operator":null,"description":null,"password":null}},{"type":"Feature","geometry":{"type":"Point","coordinates":[-9.0964991,38.7674544]},"properties":{"id":"way/1058148807","source":"osm","name":null,"fee":"no","charge":null,"access":null,"wheelchair":null,"opening_hours":null,"operator":null,"description":null,"password":null}},{"type":"Feature","geometry":{"type":"Point","coordinates":[-9.0964191,38.7678432]},"properties":{"id":"way/1058148826","source":"osm","name":null,"fee":"no","charge":null,"access":null,"wheelchair":null,"opening_hours":null,"operator":"Centro Comercial Vasco da Gama","description":null,"password":null}},{"type":"Feature","geometry":{"type":"Point","coordinates":[-9.0964424,38.7678909]},"properties":{"id":"way/1058148827","source":"osm","name":null,"fee":"no","charge":null,"access":null,"wheelchair":null,"opening_hours":null,"operator":"Centro Comercial Vasco da Gama","description":null,"password":null}},{"type":"Feature","geometry":{"type":"Point","coordinates":[-9.096474,38.7678922]},"properties":{"id":"way/1058148828","source":"osm","name":null,"fee":"no","charge":null,"access":null,"wheelchair":"yes","opening_hours":null,"operator":"Centro Comercial Vasco da Gama","description":null,"password":null}},{"type":"Feature","geometry":{"type":"Point","coordinates":[-9.0964218,38.7678708]},"properties":{"id":"way/1058148829","source":"osm","name":null,"fee":"no","charge":null,"access":null,"wheelchair":null,"opening_hours":null,"operator":"Centro Comercial Vasco da Gama","description":null,"password":null}},{"type":"Feature","geometry":{"type":"Point","coordinates":[-9.1259365,38.7555509]},"properties":{"id":"way/1182199693","source":"osm","name":null,"fee":null,"charge":null,"access":null,"wheelchair":null,"opening_hours":null,"operator":null,"description":null,"password":null}},{"type":"Feature","geometry":{"type":"Point","coordinates":[-9.1654555,38.7175692]},"properties":{"id":"way/1191439445","source":"osm","name":null,"fee":"no","charge":null,"access":"yes","wheelchair":"limited","opening_hours":"Mo-Su 08:00-19:00","operator":"Câmara Municipal de Lisboa","description":"Rua Almeida e Sousa CML, R/C","password":null}},{"type":"Feature","geometry":{"type":"Point","coordinates":[-9.1721351,38.7451058]},"properties":{"id":"way/1284501597","source":"osm","name":null,"fee":null,"charge":null,"access":null,"wheelchair":null,"opening_hours":null,"operator":null,"description":null,"password":null}},{"type":"Feature","geometry":{"type":"Point","coordinates":[-9.1784138,38.7016874]},"properties":{"id":"way/1306262851","source":"osm","name":null,"fee":null,"charge":null,"access":null,"wheelchair":null,"opening_hours":null,"operator":null,"description":null,"password":null}},{"type":"Feature","geometry":{"type":"Point","coordinates":[-9.1784986,38.7016443]},"properties":{"id":"way/1306262852","source":"osm","name":null,"fee":null,"charge":null,"access":null,"wheelchair":null,"opening_hours":null,"operator":null,"description":null,"password":null}},{"type":"Feature","geometry":{"type":"Point","coordinates":[-9.1783689,38.702127]},"properties":{"id":"way/1306262857","source":"osm","name":null,"fee":null,"charge":null,"access":null,"wheelchair":null,"opening_hours":null,"operator":null,"description":null,"password":null}},{"type":"Feature","geometry":{"type":"Point","coordinates":[-9.1450012,38.7328067]},"properties":{"id":"way/1374444023","source":"osm","name":null,"fee":"no","charge":null,"access":null,"wheelchair":"yes","opening_hours":null,"operator":null,"description":null,"password":null}},{"type":"Feature","geometry":{"type":"Point","coordinates":[-9.1450175,38.7328622]},"properties":{"id":"way/1374444024","source":"osm","name":null,"fee":"no","charge":null,"access":null,"wheelchair":"yes","opening_hours":null,"operator":null,"description":null,"password":null}},{"type":"Feature","geometry":{"type":"Point","coordinates":[-9.1450352,38.732831]},"properties":{"id":"way/1374444026","source":"osm","name":null,"fee":"no","charge":null,"access":null,"wheelchair":"yes","opening_hours":null,"operator":null,"description":null,"password":null}},{"type":"Feature","geometry":{"type":"Point","coordinates":[-9.1450236,38.7328646]},"properties":{"id":"way/1374548157","source":"osm","name":null,"fee":null,"charge":null,"access":null,"wheelchair":null,"opening_hours":null,"operator":null,"description":null,"password":null}},{"type":"Feature","geometry":{"type":"Point","coordinates":[-9.1450339,38.732831]},"properties":{"id":"way/1374548158","source":"osm","name":null,"fee":null,"charge":null,"access":null,"wheelchair":null,"opening_hours":null,"operator":null,"description":null,"password":null}},{"type":"Feature","geometry":{"type":"Point","coordinates":[-9.099502,38.7673794]},"properties":{"id":"way/1434221944","source":"osm","name":null,"fee":null,"charge":null,"access":"yes","wheelchair":null,"opening_hours":null,"operator":null,"description":null,"password":null}},{"type":"Feature","geometry":{"type":"Point","coordinates":[-9.0994179,38.7683046]},"properties":{"id":"way/1434221951","source":"osm","name":null,"fee":null,"charge":null,"access":"yes","wheelchair":null,"opening_hours":null,"operator":null,"description":null,"password":null}},{"type":"Feature","geometry":{"type":"Point","coordinates":[-9.1877714,38.7544847]},"properties":{"id":"way/1464595739","source":"osm","name":null,"fee":null,"charge":null,"access":null,"wheelchair":null,"opening_hours":null,"operator":null,"description":null,"password":null}},{"type":"Feature","geometry":{"type":"Point","coordinates":[-9.189143,38.7543125]},"properties":{"id":"way/1465394577","source":"osm","name":null,"fee":null,"charge":null,"access":null,"wheelchair":null,"opening_hours":null,"operator":null,"description":null,"password":null}},{"type":"Feature","geometry":{"type":"Point","coordinates":[-9.1878276,38.7545414]},"properties":{"id":"way/1465610328","source":"osm","name":null,"fee":null,"charge":null,"access":null,"wheelchair":null,"opening_hours":null,"operator":null,"description":null,"password":null}},{"type":"Feature","geometry":{"type":"Point","coordinates":[-9.1890811,38.7543354]},"properties":{"id":"way/1465654335","source":"osm","name":null,"fee":null,"charge":null,"access":null,"wheelchair":null,"opening_hours":null,"operator":null,"description":null,"password":null}},{"type":"Feature","geometry":{"type":"Point","coordinates":[-9.1894329,38.7545874]},"properties":{"id":"way/1465714954","source":"osm","name":null,"fee":null,"charge":null,"access":null,"wheelchair":null,"opening_hours":null,"operator":null,"description":null,"password":null}},{"type":"Feature","geometry":{"type":"Point","coordinates":[-9.1878354,38.7545174]},"properties":{"id":"way/1466122914","source":"osm","name":null,"fee":null,"charge":null,"access":null,"wheelchair":null,"opening_hours":null,"operator":null,"description":null,"password":null}},{"type":"Feature","geometry":{"type":"Point","coordinates":[-9.1890786,38.754359]},"properties":{"id":"way/1466236797","source":"osm","name":null,"fee":null,"charge":null,"access":null,"wheelchair":null,"opening_hours":null,"operator":null,"description":null,"password":null}},{"type":"Feature","geometry":{"type":"Point","coordinates":[-9.1022148,38.7426203]},"properties":{"id":"way/1487350461","source":"osm","name":null,"fee":"no","charge":null,"access":"yes","wheelchair":null,"opening_hours":"Mo-Fr 08:00-11:30,13:00-17:00; Sa,Su,PH off","operator":null,"description":null,"password":null}},{"type":"Feature","geometry":{"type":"Point","coordinates":[-9.1088621,38.7643508]},"properties":{"id":"way/1498839652","source":"osm","name":null,"fee":null,"charge":null,"access":"yes","wheelchair":null,"opening_hours":null,"operator":"Câmara Municipal de Lisboa","description":"Avenida de Pádua Cemitério (I.S. Públicas), R/C-I.S. Públicas","password":null}},{"type":"Feature","geometry":{"type":"Point","coordinates":[-9.1069948,38.7643812]},"properties":{"id":"way/1498839708","source":"osm","name":null,"fee":null,"charge":null,"access":"yes","wheelchair":null,"opening_hours":null,"operator":"Câmara Municipal de Lisboa","description":"Avenida de Pádua Cemitério (I.S. Públicas), R/C-I.S. Públicas","password":null}},{"type":"Feature","geometry":{"type":"Point","coordinates":[-9.2038249,38.7490468]},"properties":{"id":"way/1547045918","source":"osm","name":"WC Público","fee":"no","charge":null,"access":"yes","wheelchair":null,"opening_hours":null,"operator":"Câmara Municipal de Lisboa","description":"Alameda Padre Álvaro Proença I.S. Públicas, R/C","password":null}}]}