{"type":"FeatureCollection","attribution":"© OpenStreetMap contributors (ODbL)","generated_at":"2026-08-21T08:42:52.241Z","features":[{"type":"Feature","geometry":{"type":"Point","coordinates":[2.1527984,41.413503]},"properties":{"id":"node/402894800","source":"osm","name":null,"fee":"no","charge":null,"access":null,"wheelchair":"yes","opening_hours":null,"operator":null,"description":null,"password":null}},{"type":"Feature","geometry":{"type":"Point","coordinates":[2.1436004,41.4101005]},"properties":{"id":"node/708459262","source":"osm","name":null,"fee":"no","charge":null,"access":null,"wheelchair":null,"opening_hours":null,"operator":null,"description":null,"password":null}},{"type":"Feature","geometry":{"type":"Point","coordinates":[2.1520534,41.4144653]},"properties":{"id":"node/1456774552","source":"osm","name":null,"fee":"no","charge":null,"access":null,"wheelchair":"yes","opening_hours":null,"operator":null,"description":null,"password":null}},{"type":"Feature","geometry":{"type":"Point","coordinates":[2.1491,41.3687737]},"properties":{"id":"node/1456826129","source":"osm","name":null,"fee":null,"charge":null,"access":null,"wheelchair":"no","opening_hours":null,"operator":null,"description":null,"password":null}},{"type":"Feature","geometry":{"type":"Point","coordinates":[2.1480825,41.3685525]},"properties":{"id":"node/1457528583","source":"osm","name":null,"fee":null,"charge":null,"access":null,"wheelchair":"no","opening_hours":null,"operator":null,"description":null,"password":null}},{"type":"Feature","geometry":{"type":"Point","coordinates":[2.1474415,41.3686543]},"properties":{"id":"node/1457528585","source":"osm","name":null,"fee":null,"charge":null,"access":null,"wheelchair":"limited","opening_hours":null,"operator":null,"description":null,"password":null}},{"type":"Feature","geometry":{"type":"Point","coordinates":[2.1464232,41.3688287]},"properties":{"id":"node/1457528586","source":"osm","name":null,"fee":null,"charge":null,"access":null,"wheelchair":"yes","opening_hours":null,"operator":null,"description":null,"password":null}},{"type":"Feature","geometry":{"type":"Point","coordinates":[2.1495173,41.3689284]},"properties":{"id":"node/1457528589","source":"osm","name":null,"fee":"no","charge":null,"access":null,"wheelchair":"no","opening_hours":null,"operator":null,"description":null,"password":null}},{"type":"Feature","geometry":{"type":"Point","coordinates":[2.1474288,41.3689424]},"properties":{"id":"node/1457528590","source":"osm","name":null,"fee":null,"charge":null,"access":null,"wheelchair":"only","opening_hours":null,"operator":null,"description":null,"password":null}},{"type":"Feature","geometry":{"type":"Point","coordinates":[2.1833616,41.3755121]},"properties":{"id":"node/1553073573","source":"osm","name":null,"fee":"yes","charge":"1.20 EUR","access":"yes","wheelchair":"yes","opening_hours":null,"operator":"One hundred restrooms","description":null,"password":null}},{"type":"Feature","geometry":{"type":"Point","coordinates":[2.1485139,41.3758819]},"properties":{"id":"node/1719727430","source":"osm","name":null,"fee":null,"charge":null,"access":null,"wheelchair":null,"opening_hours":null,"operator":null,"description":null,"password":null}},{"type":"Feature","geometry":{"type":"Point","coordinates":[2.1872253,41.3853967]},"properties":{"id":"node/1792088947","source":"osm","name":null,"fee":"no","charge":null,"access":null,"wheelchair":null,"opening_hours":null,"operator":null,"description":null,"password":null}},{"type":"Feature","geometry":{"type":"Point","coordinates":[2.191352,41.3863119]},"properties":{"id":"node/1793491014","source":"osm","name":null,"fee":"no","charge":null,"access":null,"wheelchair":null,"opening_hours":null,"operator":null,"description":null,"password":null}},{"type":"Feature","geometry":{"type":"Point","coordinates":[2.1900577,41.3852205]},"properties":{"id":"node/1794936028","source":"osm","name":null,"fee":"no","charge":null,"access":null,"wheelchair":null,"opening_hours":null,"operator":null,"description":null,"password":null}},{"type":"Feature","geometry":{"type":"Point","coordinates":[2.198336,41.3908997]},"properties":{"id":"node/1878684099","source":"osm","name":null,"fee":null,"charge":null,"access":"yes","wheelchair":null,"opening_hours":null,"operator":null,"description":null,"password":null}},{"type":"Feature","geometry":{"type":"Point","coordinates":[2.1540326,41.3526725]},"properties":{"id":"node/2239776724","source":"osm","name":null,"fee":null,"charge":null,"access":null,"wheelchair":null,"opening_hours":null,"operator":null,"description":null,"password":null}},{"type":"Feature","geometry":{"type":"Point","coordinates":[2.165666,41.3635185]},"properties":{"id":"node/2246376632","source":"osm","name":null,"fee":"yes","charge":null,"access":"customers","wheelchair":"limited","opening_hours":null,"operator":null,"description":null,"password":null}},{"type":"Feature","geometry":{"type":"Point","coordinates":[2.2019773,41.3952591]},"properties":{"id":"node/2262682194","source":"osm","name":null,"fee":null,"charge":null,"access":null,"wheelchair":null,"opening_hours":null,"operator":null,"description":null,"password":null}},{"type":"Feature","geometry":{"type":"Point","coordinates":[2.1214695,41.3831626]},"properties":{"id":"node/2262749098","source":"osm","name":null,"fee":null,"charge":null,"access":null,"wheelchair":null,"opening_hours":null,"operator":null,"description":null,"password":null}},{"type":"Feature","geometry":{"type":"Point","coordinates":[2.1830208,41.3829974]},"properties":{"id":"node/2268401930","source":"osm","name":null,"fee":"no","charge":null,"access":"yes","wheelchair":"yes","opening_hours":null,"operator":null,"description":null,"password":null}},{"type":"Feature","geometry":{"type":"Point","coordinates":[2.1757722,41.3787175]},"properties":{"id":"node/2268401931","source":"osm","name":null,"fee":"no","charge":null,"access":"yes","wheelchair":"yes","opening_hours":null,"operator":null,"description":null,"password":null}},{"type":"Feature","geometry":{"type":"Point","coordinates":[2.1742176,41.4031714]},"properties":{"id":"node/2304798676","source":"osm","name":null,"fee":null,"charge":null,"access":null,"wheelchair":null,"opening_hours":null,"operator":null,"description":null,"password":null}},{"type":"Feature","geometry":{"type":"Point","coordinates":[2.1946843,41.3828121]},"properties":{"id":"node/2458518443","source":"osm","name":null,"fee":"no","charge":null,"access":"yes","wheelchair":null,"opening_hours":null,"operator":null,"description":null,"password":null}},{"type":"Feature","geometry":{"type":"Point","coordinates":[2.1496086,41.3765219]},"properties":{"id":"node/2464737321","source":"osm","name":null,"fee":"no","charge":null,"access":null,"wheelchair":null,"opening_hours":null,"operator":"CC Las Arenas","description":null,"password":null}},{"type":"Feature","geometry":{"type":"Point","coordinates":[2.1189495,41.4223217]},"properties":{"id":"node/2481709695","source":"osm","name":null,"fee":"no","charge":null,"access":"yes","wheelchair":null,"opening_hours":null,"operator":null,"description":null,"password":null}},{"type":"Feature","geometry":{"type":"Point","coordinates":[2.1195838,41.4220556]},"properties":{"id":"node/2481709701","source":"osm","name":null,"fee":"no","charge":null,"access":"yes","wheelchair":"yes","opening_hours":null,"operator":null,"description":null,"password":null}},{"type":"Feature","geometry":{"type":"Point","coordinates":[2.1312437,41.4132868]},"properties":{"id":"node/2484274479","source":"osm","name":null,"fee":"no","charge":null,"access":null,"wheelchair":null,"opening_hours":null,"operator":null,"description":null,"password":null}},{"type":"Feature","geometry":{"type":"Point","coordinates":[2.1713258,41.3824638]},"properties":{"id":"node/2501123852","source":"osm","name":null,"fee":"no","charge":null,"access":"yes","wheelchair":"limited","opening_hours":null,"operator":null,"description":null,"password":null}},{"type":"Feature","geometry":{"type":"Point","coordinates":[2.1554864,41.3658473]},"properties":{"id":"node/2560389388","source":"osm","name":null,"fee":null,"charge":null,"access":null,"wheelchair":null,"opening_hours":null,"operator":null,"description":null,"password":null}},{"type":"Feature","geometry":{"type":"Point","coordinates":[2.1106039,41.3995371]},"properties":{"id":"node/2636927610","source":"osm","name":null,"fee":null,"charge":null,"access":null,"wheelchair":null,"opening_hours":null,"operator":null,"description":null,"password":null}},{"type":"Feature","geometry":{"type":"Point","coordinates":[2.1524606,41.3718148]},"properties":{"id":"node/2850658471","source":"osm","name":null,"fee":null,"charge":null,"access":null,"wheelchair":null,"opening_hours":null,"operator":null,"description":null,"password":null}},{"type":"Feature","geometry":{"type":"Point","coordinates":[2.1505911,41.3711245]},"properties":{"id":"node/2850672884","source":"osm","name":null,"fee":"no","charge":null,"access":null,"wheelchair":"yes","opening_hours":null,"operator":null,"description":null,"password":null}},{"type":"Feature","geometry":{"type":"Point","coordinates":[2.1720751,41.3806155]},"properties":{"id":"node/2971983664","source":"osm","name":null,"fee":"no","charge":null,"access":"yes","wheelchair":"yes","opening_hours":"Mo-Su 06:00-03:00","operator":"Ajuntament de Barcelona","description":null,"password":null}},{"type":"Feature","geometry":{"type":"Point","coordinates":[2.1822458,41.393778]},"properties":{"id":"node/3096999601","source":"osm","name":null,"fee":null,"charge":null,"access":"yes","wheelchair":null,"opening_hours":null,"operator":null,"description":null,"password":null}},{"type":"Feature","geometry":{"type":"Point","coordinates":[2.1830277,41.3943776]},"properties":{"id":"node/3096999602","source":"osm","name":null,"fee":null,"charge":null,"access":"yes","wheelchair":null,"opening_hours":null,"operator":null,"description":null,"password":null}},{"type":"Feature","geometry":{"type":"Point","coordinates":[2.1829512,41.3943474]},"properties":{"id":"node/3097009502","source":"osm","name":null,"fee":"no","charge":null,"access":"yes","wheelchair":null,"opening_hours":"Mo-Su 05:15-23:15","operator":null,"description":null,"password":null}},{"type":"Feature","geometry":{"type":"Point","coordinates":[2.1749835,41.4037529]},"properties":{"id":"node/3350092767","source":"osm","name":null,"fee":null,"charge":null,"access":null,"wheelchair":"yes","opening_hours":null,"operator":null,"description":null,"password":null}},{"type":"Feature","geometry":{"type":"Point","coordinates":[2.1448844,41.4405672]},"properties":{"id":"node/3388626871","source":"osm","name":null,"fee":"no","charge":null,"access":"yes","wheelchair":null,"opening_hours":null,"operator":"Ajuntament de Barcelona","description":null,"password":null}},{"type":"Feature","geometry":{"type":"Point","coordinates":[2.1802418,41.387115]},"properties":{"id":"node/3538875293","source":"osm","name":null,"fee":"no","charge":null,"access":"yes","wheelchair":"yes","opening_hours":null,"operator":null,"description":null,"password":null}},{"type":"Feature","geometry":{"type":"Point","coordinates":[2.2193475,41.4056301]},"properties":{"id":"node/3643891414","source":"osm","name":null,"fee":"no","charge":null,"access":"yes","wheelchair":null,"opening_hours":"10:00-19:30","operator":null,"description":null,"password":null}},{"type":"Feature","geometry":{"type":"Point","coordinates":[2.1576959,41.3679351]},"properties":{"id":"node/3726585746","source":"osm","name":null,"fee":null,"charge":null,"access":null,"wheelchair":null,"opening_hours":null,"operator":null,"description":null,"password":null}},{"type":"Feature","geometry":{"type":"Point","coordinates":[2.172376,41.3709995]},"properties":{"id":"node/3749379713","source":"osm","name":null,"fee":"no","charge":null,"access":"customers","wheelchair":null,"opening_hours":null,"operator":null,"description":null,"password":null}},{"type":"Feature","geometry":{"type":"Point","coordinates":[2.1549344,41.415474]},"properties":{"id":"node/3921855845","source":"osm","name":null,"fee":null,"charge":null,"access":null,"wheelchair":"yes","opening_hours":null,"operator":null,"description":null,"password":null}},{"type":"Feature","geometry":{"type":"Point","coordinates":[2.1844612,41.3856409]},"properties":{"id":"node/4191907193","source":"osm","name":null,"fee":"no","charge":null,"access":null,"wheelchair":null,"opening_hours":null,"operator":null,"description":null,"password":null}},{"type":"Feature","geometry":{"type":"Point","coordinates":[2.1831868,41.3860622]},"properties":{"id":"node/4368547492","source":"osm","name":null,"fee":"no","charge":null,"access":"yes","wheelchair":"yes","opening_hours":null,"operator":null,"description":null,"password":null}},{"type":"Feature","geometry":{"type":"Point","coordinates":[2.1489926,41.3761199]},"properties":{"id":"node/4551543971","source":"osm","name":null,"fee":"no","charge":null,"access":null,"wheelchair":"yes","opening_hours":null,"operator":"CC Las Arenas","description":null,"password":null}},{"type":"Feature","geometry":{"type":"Point","coordinates":[2.1748974,41.4036661]},"properties":{"id":"node/4553139833","source":"osm","name":null,"fee":null,"charge":null,"access":null,"wheelchair":"yes","opening_hours":null,"operator":null,"description":null,"password":null}},{"type":"Feature","geometry":{"type":"Point","coordinates":[2.1710505,41.3880093]},"properties":{"id":"node/4648423611","source":"osm","name":null,"fee":"no","charge":null,"access":"permissive","wheelchair":"yes","opening_hours":"Mo-Sa 09:30-21:30; PH off","operator":"El Corte inglés","description":null,"password":null}},{"type":"Feature","geometry":{"type":"Point","coordinates":[2.1397129,41.3796463]},"properties":{"id":"node/4673383798","source":"osm","name":null,"fee":"yes","charge":"1 EUR","access":"yes","wheelchair":"yes","opening_hours":null,"operator":"One Hundred Restrooms","description":null,"password":null}},{"type":"Feature","geometry":{"type":"Point","coordinates":[2.1734299,41.3635671]},"properties":{"id":"node/4717072590","source":"osm","name":null,"fee":null,"charge":null,"access":null,"wheelchair":null,"opening_hours":null,"operator":null,"description":null,"password":null}},{"type":"Feature","geometry":{"type":"Point","coordinates":[2.1761962,41.3838149]},"properties":{"id":"node/4762566527","source":"osm","name":null,"fee":"yes","charge":"1 €","access":null,"wheelchair":"yes","opening_hours":null,"operator":null,"description":null,"password":null}},{"type":"Feature","geometry":{"type":"Point","coordinates":[2.1339787,41.3891435]},"properties":{"id":"node/4769494223","source":"osm","name":null,"fee":null,"charge":null,"access":null,"wheelchair":null,"opening_hours":null,"operator":null,"description":null,"password":null}},{"type":"Feature","geometry":{"type":"Point","coordinates":[2.1355657,41.3898616]},"properties":{"id":"node/4769552323","source":"osm","name":null,"fee":"yes","charge":null,"access":null,"wheelchair":"yes","opening_hours":null,"operator":null,"description":null,"password":null}},{"type":"Feature","geometry":{"type":"Point","coordinates":[2.1742598,41.4032884]},"properties":{"id":"node/4806446950","source":"osm","name":null,"fee":"no","charge":null,"access":null,"wheelchair":"yes","opening_hours":null,"operator":null,"description":null,"password":null}},{"type":"Feature","geometry":{"type":"Point","coordinates":[2.1205095,41.4217663]},"properties":{"id":"node/4826947380","source":"osm","name":null,"fee":null,"charge":null,"access":null,"wheelchair":null,"opening_hours":null,"operator":null,"description":null,"password":null}},{"type":"Feature","geometry":{"type":"Point","coordinates":[2.1594073,41.396041]},"properties":{"id":"node/4835402152","source":"osm","name":null,"fee":"no","charge":null,"access":"yes","wheelchair":"yes","opening_hours":null,"operator":null,"description":null,"password":null}},{"type":"Feature","geometry":{"type":"Point","coordinates":[2.1653864,41.3838677]},"properties":{"id":"node/4838655321","source":"osm","name":null,"fee":null,"charge":null,"access":null,"wheelchair":null,"opening_hours":null,"operator":null,"description":null,"password":null}},{"type":"Feature","geometry":{"type":"Point","coordinates":[2.1719465,41.3873106]},"properties":{"id":"node/4838801424","source":"osm","name":null,"fee":null,"charge":null,"access":null,"wheelchair":null,"opening_hours":null,"operator":"Mediamarkt","description":null,"password":null}},{"type":"Feature","geometry":{"type":"Point","coordinates":[2.2048617,41.3918219]},"properties":{"id":"node/4849972722","source":"osm","name":null,"fee":"no","charge":"0","access":"yes","wheelchair":"limited","opening_hours":"10:30-18:00","operator":null,"description":null,"password":null}},{"type":"Feature","geometry":{"type":"Point","coordinates":[2.1691939,41.3857767]},"properties":{"id":"node/4856443123","source":"osm","name":null,"fee":"yes","charge":"1 EUR","access":null,"wheelchair":null,"opening_hours":null,"operator":"2theloo","description":null,"password":null}},{"type":"Feature","geometry":{"type":"Point","coordinates":[2.1520879,41.3660382]},"properties":{"id":"node/4861354124","source":"osm","name":null,"fee":"no","charge":null,"access":null,"wheelchair":"yes","opening_hours":null,"operator":null,"description":null,"password":null}},{"type":"Feature","geometry":{"type":"Point","coordinates":[2.1832792,41.3749201]},"properties":{"id":"node/4866309721","source":"osm","name":null,"fee":"yes","charge":null,"access":null,"wheelchair":null,"opening_hours":null,"operator":"CC Maremágnum","description":null,"password":null}},{"type":"Feature","geometry":{"type":"Point","coordinates":[2.1884542,41.3724096]},"properties":{"id":"node/4866481021","source":"osm","name":null,"fee":"no","charge":null,"access":null,"wheelchair":"yes","opening_hours":null,"operator":null,"description":null,"password":null}},{"type":"Feature","geometry":{"type":"Point","coordinates":[2.1361953,41.3900699]},"properties":{"id":"node/4868214933","source":"osm","name":null,"fee":null,"charge":null,"access":null,"wheelchair":"yes","opening_hours":null,"operator":null,"description":null,"password":null}},{"type":"Feature","geometry":{"type":"Point","coordinates":[2.1400363,41.3789656]},"properties":{"id":"node/4935518519","source":"osm","name":null,"fee":"yes","charge":null,"access":"yes","wheelchair":"designated","opening_hours":null,"operator":"Sanifair","description":null,"password":null}},{"type":"Feature","geometry":{"type":"Point","coordinates":[2.1931792,41.405114]},"properties":{"id":"node/5055818021","source":"osm","name":null,"fee":"no","charge":null,"access":null,"wheelchair":null,"opening_hours":null,"operator":null,"description":null,"password":null}},{"type":"Feature","geometry":{"type":"Point","coordinates":[2.1576963,41.3621079]},"properties":{"id":"node/5076868749","source":"osm","name":null,"fee":"no","charge":null,"access":"permissive","wheelchair":"yes","opening_hours":null,"operator":null,"description":null,"password":null}},{"type":"Feature","geometry":{"type":"Point","coordinates":[2.1995097,41.40674]},"properties":{"id":"node/5125419922","source":"osm","name":null,"fee":null,"charge":null,"access":null,"wheelchair":null,"opening_hours":null,"operator":null,"description":null,"password":null}},{"type":"Feature","geometry":{"type":"Point","coordinates":[2.169443,41.3675895]},"properties":{"id":"node/5158902021","source":"osm","name":null,"fee":"no","charge":null,"access":"yes","wheelchair":"yes","opening_hours":null,"operator":null,"description":null,"password":null}},{"type":"Feature","geometry":{"type":"Point","coordinates":[2.1866069,41.3890146]},"properties":{"id":"node/5198231408","source":"osm","name":null,"fee":"no","charge":null,"access":null,"wheelchair":"yes","opening_hours":null,"operator":null,"description":null,"password":null}},{"type":"Feature","geometry":{"type":"Point","coordinates":[2.1746446,41.4116736]},"properties":{"id":"node/5238211521","source":"osm","name":null,"fee":null,"charge":null,"access":null,"wheelchair":null,"opening_hours":null,"operator":null,"description":null,"password":null}},{"type":"Feature","geometry":{"type":"Point","coordinates":[2.1713935,41.3786813]},"properties":{"id":"node/5306339055","source":"osm","name":null,"fee":"no","charge":null,"access":null,"wheelchair":"yes","opening_hours":null,"operator":null,"description":null,"password":null}},{"type":"Feature","geometry":{"type":"Point","coordinates":[2.1687152,41.3907671]},"properties":{"id":"node/5385230422","source":"osm","name":null,"fee":"no","charge":null,"access":null,"wheelchair":"yes","opening_hours":null,"operator":null,"description":null,"password":null}},{"type":"Feature","geometry":{"type":"Point","coordinates":[2.1816107,41.4066081]},"properties":{"id":"node/5552708122","source":"osm","name":null,"fee":"no","charge":null,"access":null,"wheelchair":"yes","opening_hours":"Mo-Sa 09:15-21:15","operator":"Mercadona","description":null,"password":null}},{"type":"Feature","geometry":{"type":"Point","coordinates":[2.1733848,41.4038375]},"properties":{"id":"node/5578654623","source":"osm","name":null,"fee":"no","charge":null,"access":"permissive","wheelchair":null,"opening_hours":null,"operator":"Mc Donald's","description":null,"password":null}},{"type":"Feature","geometry":{"type":"Point","coordinates":[2.1743956,41.3803282]},"properties":{"id":"node/5578658021","source":"osm","name":null,"fee":"no","charge":null,"access":"permissive","wheelchair":null,"opening_hours":null,"operator":"KFC","description":null,"password":null}},{"type":"Feature","geometry":{"type":"Point","coordinates":[2.1759153,41.377189]},"properties":{"id":"node/5578658588","source":"osm","name":null,"fee":"no","charge":null,"access":"permissive","wheelchair":null,"opening_hours":null,"operator":"Arts Santa Mònica","description":null,"password":null}},{"type":"Feature","geometry":{"type":"Point","coordinates":[2.1522737,41.3693946]},"properties":{"id":"node/5641658323","source":"osm","name":null,"fee":null,"charge":null,"access":null,"wheelchair":null,"opening_hours":null,"operator":null,"description":null,"password":null}},{"type":"Feature","geometry":{"type":"Point","coordinates":[2.1788253,41.386323]},"properties":{"id":"node/5726217966","source":"osm","name":null,"fee":"yes","charge":null,"access":null,"wheelchair":"yes","opening_hours":null,"operator":null,"description":"free with receipt","password":null}},{"type":"Feature","geometry":{"type":"Point","coordinates":[2.1983474,41.4424551]},"properties":{"id":"node/5851809960","source":"osm","name":null,"fee":null,"charge":null,"access":null,"wheelchair":null,"opening_hours":null,"operator":null,"description":null,"password":null}},{"type":"Feature","geometry":{"type":"Point","coordinates":[2.1535989,41.3678452]},"properties":{"id":"node/6241175832","source":"osm","name":null,"fee":"no","charge":null,"access":null,"wheelchair":null,"opening_hours":null,"operator":null,"description":null,"password":null}},{"type":"Feature","geometry":{"type":"Point","coordinates":[2.1533832,41.3682051]},"properties":{"id":"node/6241175834","source":"osm","name":null,"fee":null,"charge":null,"access":null,"wheelchair":null,"opening_hours":null,"operator":null,"description":null,"password":null}},{"type":"Feature","geometry":{"type":"Point","coordinates":[2.1466391,41.4179085]},"properties":{"id":"node/6301003485","source":"osm","name":null,"fee":"no","charge":null,"access":"yes","wheelchair":null,"opening_hours":null,"operator":null,"description":null,"password":null}},{"type":"Feature","geometry":{"type":"Point","coordinates":[2.1356112,41.4057151]},"properties":{"id":"node/6356131087","source":"osm","name":null,"fee":null,"charge":null,"access":"yes","wheelchair":null,"opening_hours":null,"operator":null,"description":null,"password":null}},{"type":"Feature","geometry":{"type":"Point","coordinates":[2.1752797,41.3873604]},"properties":{"id":"node/6400631008","source":"osm","name":null,"fee":"no","charge":null,"access":"yes","wheelchair":null,"opening_hours":null,"operator":null,"description":null,"password":null}},{"type":"Feature","geometry":{"type":"Point","coordinates":[2.1345253,41.3940903]},"properties":{"id":"node/6511796283","source":"osm","name":"Keik","fee":null,"charge":null,"access":null,"wheelchair":null,"opening_hours":null,"operator":null,"description":null,"password":null}},{"type":"Feature","geometry":{"type":"Point","coordinates":[2.1749593,41.3784132]},"properties":{"id":"node/6862311885","source":"osm","name":null,"fee":null,"charge":null,"access":null,"wheelchair":null,"opening_hours":null,"operator":null,"description":null,"password":null}},{"type":"Feature","geometry":{"type":"Point","coordinates":[2.1126942,41.3957161]},"properties":{"id":"node/6968889890","source":"osm","name":null,"fee":null,"charge":null,"access":"yes","wheelchair":null,"opening_hours":null,"operator":null,"description":null,"password":null}},{"type":"Feature","geometry":{"type":"Point","coordinates":[2.1720713,41.4163046]},"properties":{"id":"node/6971098285","source":"osm","name":null,"fee":null,"charge":null,"access":null,"wheelchair":null,"opening_hours":null,"operator":null,"description":null,"password":null}},{"type":"Feature","geometry":{"type":"Point","coordinates":[2.1763602,41.3758413]},"properties":{"id":"node/6977518385","source":"osm","name":null,"fee":null,"charge":null,"access":"yes","wheelchair":null,"opening_hours":null,"operator":null,"description":null,"password":null}},{"type":"Feature","geometry":{"type":"Point","coordinates":[2.1858392,41.3858952]},"properties":{"id":"node/7007970805","source":"osm","name":null,"fee":"yes","charge":null,"access":"yes","wheelchair":"yes","opening_hours":"24/7","operator":null,"description":null,"password":null}},{"type":"Feature","geometry":{"type":"Point","coordinates":[2.1763468,41.3851819]},"properties":{"id":"node/7057918290","source":"osm","name":null,"fee":"no","charge":null,"access":"yes","wheelchair":"no","opening_hours":"24/7","operator":null,"description":null,"password":null}},{"type":"Feature","geometry":{"type":"Point","coordinates":[2.1538633,41.3656984]},"properties":{"id":"node/7124793085","source":"osm","name":null,"fee":"no","charge":null,"access":null,"wheelchair":null,"opening_hours":null,"operator":null,"description":null,"password":null}},{"type":"Feature","geometry":{"type":"Point","coordinates":[2.166457,41.3834565]},"properties":{"id":"node/7296709882","source":"osm","name":null,"fee":null,"charge":null,"access":"customers","wheelchair":"yes","opening_hours":null,"operator":null,"description":"Wc on et pots netejar la copa","password":null}},{"type":"Feature","geometry":{"type":"Point","coordinates":[2.1786675,41.3784014]},"properties":{"id":"node/7944324085","source":"osm","name":null,"fee":null,"charge":null,"access":null,"wheelchair":null,"opening_hours":null,"operator":null,"description":null,"password":null}},{"type":"Feature","geometry":{"type":"Point","coordinates":[2.1771233,41.4051848]},"properties":{"id":"node/8065986287","source":"osm","name":null,"fee":"no","charge":null,"access":null,"wheelchair":"yes","opening_hours":null,"operator":null,"description":null,"password":null}},{"type":"Feature","geometry":{"type":"Point","coordinates":[2.1605134,41.3619993]},"properties":{"id":"node/8690846049","source":"osm","name":null,"fee":null,"charge":null,"access":"customers","wheelchair":null,"opening_hours":null,"operator":null,"description":null,"password":null}},{"type":"Feature","geometry":{"type":"Point","coordinates":[2.2267263,41.4100856]},"properties":{"id":"node/8788260318","source":"osm","name":null,"fee":null,"charge":null,"access":null,"wheelchair":null,"opening_hours":null,"operator":null,"description":null,"password":null}},{"type":"Feature","geometry":{"type":"Point","coordinates":[2.1415015,41.3793201]},"properties":{"id":"node/8989399376","source":"osm","name":null,"fee":"no","charge":null,"access":"yes","wheelchair":"yes","opening_hours":null,"operator":null,"description":null,"password":null}},{"type":"Feature","geometry":{"type":"Point","coordinates":[2.2178345,41.410033]},"properties":{"id":"node/9019833448","source":"osm","name":null,"fee":"no","charge":null,"access":null,"wheelchair":null,"opening_hours":null,"operator":null,"description":null,"password":null}},{"type":"Feature","geometry":{"type":"Point","coordinates":[2.2178418,41.410021]},"properties":{"id":"node/9019920984","source":"osm","name":null,"fee":"no","charge":null,"access":null,"wheelchair":"yes","opening_hours":null,"operator":null,"description":null,"password":null}},{"type":"Feature","geometry":{"type":"Point","coordinates":[2.2051996,41.4009762]},"properties":{"id":"node/9052669617","source":"osm","name":null,"fee":"no","charge":null,"access":"yes","wheelchair":null,"opening_hours":null,"operator":null,"description":null,"password":null}},{"type":"Feature","geometry":{"type":"Point","coordinates":[2.1834698,41.3752268]},"properties":{"id":"node/9429053219","source":"osm","name":null,"fee":null,"charge":null,"access":null,"wheelchair":null,"opening_hours":null,"operator":null,"description":null,"password":null}},{"type":"Feature","geometry":{"type":"Point","coordinates":[2.1906692,41.404745]},"properties":{"id":"node/9431243824","source":"osm","name":null,"fee":null,"charge":null,"access":null,"wheelchair":null,"opening_hours":null,"operator":null,"description":null,"password":null}},{"type":"Feature","geometry":{"type":"Point","coordinates":[2.1879374,41.4274583]},"properties":{"id":"node/9502330717","source":"osm","name":null,"fee":null,"charge":null,"access":null,"wheelchair":null,"opening_hours":null,"operator":null,"description":null,"password":null}},{"type":"Feature","geometry":{"type":"Point","coordinates":[2.1031101,41.4153373]},"properties":{"id":"node/9520042769","source":"osm","name":null,"fee":null,"charge":null,"access":null,"wheelchair":null,"opening_hours":null,"operator":null,"description":null,"password":null}},{"type":"Feature","geometry":{"type":"Point","coordinates":[2.1940258,41.3815982]},"properties":{"id":"node/9532065480","source":"osm","name":null,"fee":"no","charge":null,"access":"yes","wheelchair":null,"opening_hours":null,"operator":null,"description":null,"password":null}},{"type":"Feature","geometry":{"type":"Point","coordinates":[2.1692272,41.3789234]},"properties":{"id":"node/9556244741","source":"osm","name":null,"fee":"no","charge":null,"access":"yes","wheelchair":"yes","opening_hours":null,"operator":"Ajuntament de Barcelona","description":null,"password":null}},{"type":"Feature","geometry":{"type":"Point","coordinates":[2.1937193,41.4256186]},"properties":{"id":"node/9582558117","source":"osm","name":null,"fee":null,"charge":null,"access":"yes","wheelchair":null,"opening_hours":null,"operator":null,"description":null,"password":null}},{"type":"Feature","geometry":{"type":"Point","coordinates":[2.1933133,41.4277381]},"properties":{"id":"node/9583823692","source":"osm","name":null,"fee":"no","charge":null,"access":"permissive","wheelchair":null,"opening_hours":null,"operator":null,"description":null,"password":null}},{"type":"Feature","geometry":{"type":"Point","coordinates":[2.1761661,41.4270273]},"properties":{"id":"node/9585923583","source":"osm","name":null,"fee":null,"charge":null,"access":"yes","wheelchair":null,"opening_hours":null,"operator":null,"description":null,"password":null}},{"type":"Feature","geometry":{"type":"Point","coordinates":[2.1399081,41.3989925]},"properties":{"id":"node/9596955717","source":"osm","name":null,"fee":null,"charge":null,"access":"yes","wheelchair":null,"opening_hours":null,"operator":null,"description":null,"password":null}},{"type":"Feature","geometry":{"type":"Point","coordinates":[2.1357667,41.405903]},"properties":{"id":"node/9596993817","source":"osm","name":null,"fee":null,"charge":null,"access":"yes","wheelchair":null,"opening_hours":null,"operator":null,"description":null,"password":null}},{"type":"Feature","geometry":{"type":"Point","coordinates":[2.1683668,41.3959634]},"properties":{"id":"node/9602469817","source":"osm","name":null,"fee":null,"charge":null,"access":null,"wheelchair":null,"opening_hours":null,"operator":null,"description":null,"password":null}},{"type":"Feature","geometry":{"type":"Point","coordinates":[2.1721654,41.3952538]},"properties":{"id":"node/9602469917","source":"osm","name":null,"fee":null,"charge":null,"access":"yes","wheelchair":null,"opening_hours":null,"operator":null,"description":null,"password":null}},{"type":"Feature","geometry":{"type":"Point","coordinates":[2.1821128,41.4159305]},"properties":{"id":"node/9605130017","source":"osm","name":null,"fee":null,"charge":null,"access":"yes","wheelchair":null,"opening_hours":null,"operator":null,"description":null,"password":null}},{"type":"Feature","geometry":{"type":"Point","coordinates":[2.188671,41.3703165]},"properties":{"id":"node/9658016746","source":"osm","name":null,"fee":"no","charge":null,"access":"yes","wheelchair":null,"opening_hours":null,"operator":null,"description":null,"password":null}},{"type":"Feature","geometry":{"type":"Point","coordinates":[2.1761248,41.3786977]},"properties":{"id":"node/9658054940","source":"osm","name":null,"fee":null,"charge":null,"access":"permissive","wheelchair":null,"opening_hours":null,"operator":null,"description":null,"password":null}},{"type":"Feature","geometry":{"type":"Point","coordinates":[2.1887939,41.379254]},"properties":{"id":"node/9658061455","source":"osm","name":null,"fee":null,"charge":null,"access":"yes","wheelchair":null,"opening_hours":null,"operator":null,"description":null,"password":null}},{"type":"Feature","geometry":{"type":"Point","coordinates":[2.1494222,41.4073594]},"properties":{"id":"node/9692633338","source":"osm","name":null,"fee":"no","charge":null,"access":"yes","wheelchair":"yes","opening_hours":null,"operator":null,"description":null,"password":null}},{"type":"Feature","geometry":{"type":"Point","coordinates":[2.1881484,41.4025338]},"properties":{"id":"node/9692635718","source":"osm","name":null,"fee":null,"charge":null,"access":"yes","wheelchair":null,"opening_hours":null,"operator":null,"description":null,"password":null}},{"type":"Feature","geometry":{"type":"Point","coordinates":[2.1762872,41.451376]},"properties":{"id":"node/9718389177","source":"osm","name":null,"fee":"no","charge":null,"access":"yes","wheelchair":null,"opening_hours":null,"operator":"Ajuntament de Barcelona","description":null,"password":null}},{"type":"Feature","geometry":{"type":"Point","coordinates":[2.1612802,41.3808911]},"properties":{"id":"node/9865550532","source":"osm","name":null,"fee":null,"charge":null,"access":"customers","wheelchair":"limited","opening_hours":null,"operator":null,"description":null,"password":null}},{"type":"Feature","geometry":{"type":"Point","coordinates":[2.1830174,41.4310485]},"properties":{"id":"node/9869760224","source":"osm","name":null,"fee":"no","charge":null,"access":"yes","wheelchair":null,"opening_hours":null,"operator":null,"description":null,"password":null}},{"type":"Feature","geometry":{"type":"Point","coordinates":[2.1859806,41.401305]},"properties":{"id":"node/9894958484","source":"osm","name":null,"fee":"no","charge":null,"access":null,"wheelchair":null,"opening_hours":"Mo,We,Fr,Sa 09:00-20:00","operator":null,"description":null,"password":null}},{"type":"Feature","geometry":{"type":"Point","coordinates":[2.1198979,41.4252346]},"properties":{"id":"node/9936987217","source":"osm","name":null,"fee":null,"charge":null,"access":null,"wheelchair":null,"opening_hours":null,"operator":null,"description":null,"password":null}},{"type":"Feature","geometry":{"type":"Point","coordinates":[2.1654206,41.3693098]},"properties":{"id":"node/9945215123","source":"osm","name":null,"fee":null,"charge":null,"access":"customers","wheelchair":null,"opening_hours":null,"operator":null,"description":null,"password":null}},{"type":"Feature","geometry":{"type":"Point","coordinates":[2.1355908,41.3837593]},"properties":{"id":"node/10044988692","source":"osm","name":null,"fee":null,"charge":null,"access":"yes","wheelchair":null,"opening_hours":null,"operator":null,"description":null,"password":null}},{"type":"Feature","geometry":{"type":"Point","coordinates":[2.1535175,41.3985753]},"properties":{"id":"node/10046799733","source":"osm","name":null,"fee":null,"charge":null,"access":"private","wheelchair":null,"opening_hours":null,"operator":null,"description":null,"password":null}},{"type":"Feature","geometry":{"type":"Point","coordinates":[2.1458086,41.3583287]},"properties":{"id":"node/10137449318","source":"osm","name":null,"fee":null,"charge":null,"access":null,"wheelchair":null,"opening_hours":null,"operator":null,"description":null,"password":null}},{"type":"Feature","geometry":{"type":"Point","coordinates":[2.1641027,41.3740271]},"properties":{"id":"node/10167451886","source":"osm","name":null,"fee":null,"charge":null,"access":"yes","wheelchair":null,"opening_hours":null,"operator":null,"description":null,"password":null}},{"type":"Feature","geometry":{"type":"Point","coordinates":[2.1628213,41.3774361]},"properties":{"id":"node/10167454265","source":"osm","name":null,"fee":null,"charge":null,"access":"yes","wheelchair":null,"opening_hours":null,"operator":null,"description":null,"password":null}},{"type":"Feature","geometry":{"type":"Point","coordinates":[2.196614,41.4196634]},"properties":{"id":"node/10199039518","source":"osm","name":null,"fee":null,"charge":null,"access":null,"wheelchair":null,"opening_hours":null,"operator":null,"description":null,"password":null}},{"type":"Feature","geometry":{"type":"Point","coordinates":[2.1911247,41.3880465]},"properties":{"id":"node/10221745627","source":"osm","name":null,"fee":null,"charge":null,"access":"customers","wheelchair":null,"opening_hours":null,"operator":null,"description":null,"password":null}},{"type":"Feature","geometry":{"type":"Point","coordinates":[2.1450892,41.4407819]},"properties":{"id":"node/10310615909","source":"osm","name":null,"fee":"no","charge":null,"access":"yes","wheelchair":null,"opening_hours":null,"operator":"Ajuntament de Barcelona","description":null,"password":null}},{"type":"Feature","geometry":{"type":"Point","coordinates":[2.1991906,41.4401458]},"properties":{"id":"node/10565329029","source":"osm","name":null,"fee":"no","charge":null,"access":"yes","wheelchair":null,"opening_hours":null,"operator":null,"description":null,"password":null}},{"type":"Feature","geometry":{"type":"Point","coordinates":[2.1674459,41.3767978]},"properties":{"id":"node/10605646007","source":"osm","name":null,"fee":"no","charge":null,"access":null,"wheelchair":null,"opening_hours":null,"operator":null,"description":null,"password":null}},{"type":"Feature","geometry":{"type":"Point","coordinates":[2.1705544,41.3761968]},"properties":{"id":"node/10605665006","source":"osm","name":null,"fee":"no","charge":null,"access":null,"wheelchair":null,"opening_hours":null,"operator":null,"description":null,"password":null}},{"type":"Feature","geometry":{"type":"Point","coordinates":[2.1841445,41.3853586]},"properties":{"id":"node/10676171482","source":"osm","name":null,"fee":"no","charge":null,"access":null,"wheelchair":null,"opening_hours":null,"operator":null,"description":null,"password":null}},{"type":"Feature","geometry":{"type":"Point","coordinates":[2.1854403,41.4224947]},"properties":{"id":"node/10692622411","source":"osm","name":null,"fee":null,"charge":null,"access":null,"wheelchair":null,"opening_hours":null,"operator":null,"description":null,"password":null}},{"type":"Feature","geometry":{"type":"Point","coordinates":[2.1645093,41.3929241]},"properties":{"id":"node/10775126605","source":"osm","name":null,"fee":null,"charge":null,"access":null,"wheelchair":null,"opening_hours":null,"operator":"Casa del Llibre","description":null,"password":null}},{"type":"Feature","geometry":{"type":"Point","coordinates":[2.1531827,41.3683001]},"properties":{"id":"node/10846389699","source":"osm","name":null,"fee":null,"charge":null,"access":null,"wheelchair":null,"opening_hours":null,"operator":null,"description":null,"password":null}},{"type":"Feature","geometry":{"type":"Point","coordinates":[2.2012571,41.3861282]},"properties":{"id":"node/10870493550","source":"osm","name":null,"fee":null,"charge":null,"access":"customers","wheelchair":"yes","opening_hours":null,"operator":null,"description":null,"password":null}},{"type":"Feature","geometry":{"type":"Point","coordinates":[2.1451048,41.383383]},"properties":{"id":"node/10896058319","source":"osm","name":null,"fee":null,"charge":null,"access":null,"wheelchair":null,"opening_hours":null,"operator":null,"description":null,"password":null}},{"type":"Feature","geometry":{"type":"Point","coordinates":[2.2117485,41.4165123]},"properties":{"id":"node/10926005047","source":"osm","name":null,"fee":null,"charge":null,"access":"yes","wheelchair":null,"opening_hours":null,"operator":null,"description":null,"password":null}},{"type":"Feature","geometry":{"type":"Point","coordinates":[2.1336085,41.3747301]},"properties":{"id":"node/10982018706","source":"osm","name":null,"fee":"no","charge":null,"access":null,"wheelchair":"yes","opening_hours":null,"operator":null,"description":null,"password":null}},{"type":"Feature","geometry":{"type":"Point","coordinates":[2.1853089,41.3840501]},"properties":{"id":"node/11104931631","source":"osm","name":"Serveis","fee":"no","charge":null,"access":null,"wheelchair":"yes","opening_hours":null,"operator":null,"description":null,"password":null}},{"type":"Feature","geometry":{"type":"Point","coordinates":[2.1704983,41.436672]},"properties":{"id":"node/11125334454","source":"osm","name":null,"fee":"no","charge":null,"access":"yes","wheelchair":null,"opening_hours":null,"operator":null,"description":null,"password":null}},{"type":"Feature","geometry":{"type":"Point","coordinates":[2.1575922,41.4155972]},"properties":{"id":"node/11136628806","source":"osm","name":null,"fee":null,"charge":null,"access":null,"wheelchair":null,"opening_hours":null,"operator":null,"description":null,"password":null}},{"type":"Feature","geometry":{"type":"Point","coordinates":[2.1569939,41.4149655]},"properties":{"id":"node/11136628842","source":"osm","name":null,"fee":null,"charge":null,"access":"customers","wheelchair":null,"opening_hours":null,"operator":null,"description":null,"password":null}},{"type":"Feature","geometry":{"type":"Point","coordinates":[2.1569807,41.4149765]},"properties":{"id":"node/11136657498","source":"osm","name":null,"fee":null,"charge":null,"access":"customers","wheelchair":null,"opening_hours":null,"operator":null,"description":null,"password":null}},{"type":"Feature","geometry":{"type":"Point","coordinates":[2.1828494,41.4361626]},"properties":{"id":"node/11146333206","source":"osm","name":null,"fee":null,"charge":null,"access":null,"wheelchair":null,"opening_hours":null,"operator":null,"description":null,"password":null}},{"type":"Feature","geometry":{"type":"Point","coordinates":[2.1827828,41.4361552]},"properties":{"id":"node/11146333229","source":"osm","name":null,"fee":null,"charge":null,"access":null,"wheelchair":null,"opening_hours":null,"operator":null,"description":null,"password":null}},{"type":"Feature","geometry":{"type":"Point","coordinates":[2.132606,41.3867757]},"properties":{"id":"node/11189021145","source":"osm","name":null,"fee":"no","charge":null,"access":"yes","wheelchair":"no","opening_hours":null,"operator":null,"description":null,"password":null}},{"type":"Feature","geometry":{"type":"Point","coordinates":[2.1771949,41.4455192]},"properties":{"id":"node/11205299254","source":"osm","name":null,"fee":null,"charge":null,"access":"yes","wheelchair":null,"opening_hours":null,"operator":null,"description":null,"password":null}},{"type":"Feature","geometry":{"type":"Point","coordinates":[2.1908689,41.449257]},"properties":{"id":"node/11210229345","source":"osm","name":null,"fee":null,"charge":null,"access":"yes","wheelchair":null,"opening_hours":null,"operator":null,"description":null,"password":null}},{"type":"Feature","geometry":{"type":"Point","coordinates":[2.1405495,41.3949114]},"properties":{"id":"node/11218039785","source":"osm","name":null,"fee":null,"charge":null,"access":null,"wheelchair":null,"opening_hours":null,"operator":null,"description":null,"password":null}},{"type":"Feature","geometry":{"type":"Point","coordinates":[2.146578,41.39443]},"properties":{"id":"node/11280104526","source":"osm","name":null,"fee":null,"charge":null,"access":null,"wheelchair":null,"opening_hours":null,"operator":null,"description":null,"password":null}},{"type":"Feature","geometry":{"type":"Point","coordinates":[2.191792,41.4085218]},"properties":{"id":"node/11292685943","source":"osm","name":null,"fee":null,"charge":null,"access":"yes","wheelchair":null,"opening_hours":null,"operator":null,"description":null,"password":null}},{"type":"Feature","geometry":{"type":"Point","coordinates":[2.2044941,41.401388]},"properties":{"id":"node/11292761916","source":"osm","name":null,"fee":null,"charge":null,"access":"yes","wheelchair":null,"opening_hours":null,"operator":null,"description":null,"password":null}},{"type":"Feature","geometry":{"type":"Point","coordinates":[2.2039985,41.4016391]},"properties":{"id":"node/11292783407","source":"osm","name":null,"fee":null,"charge":null,"access":"yes","wheelchair":null,"opening_hours":null,"operator":null,"description":null,"password":null}},{"type":"Feature","geometry":{"type":"Point","coordinates":[2.1642503,41.4437469]},"properties":{"id":"node/11303308372","source":"osm","name":null,"fee":null,"charge":null,"access":"yes","wheelchair":null,"opening_hours":null,"operator":null,"description":null,"password":null}},{"type":"Feature","geometry":{"type":"Point","coordinates":[2.1297191,41.3997365]},"properties":{"id":"node/11329481769","source":"osm","name":null,"fee":null,"charge":null,"access":"yes","wheelchair":null,"opening_hours":null,"operator":null,"description":null,"password":null}},{"type":"Feature","geometry":{"type":"Point","coordinates":[2.1761443,41.3865382]},"properties":{"id":"node/11341465481","source":"osm","name":null,"fee":null,"charge":null,"access":"yes","wheelchair":null,"opening_hours":null,"operator":null,"description":null,"password":null}},{"type":"Feature","geometry":{"type":"Point","coordinates":[2.1889038,41.3806235]},"properties":{"id":"node/11350481469","source":"osm","name":null,"fee":"yes","charge":null,"access":null,"wheelchair":null,"opening_hours":null,"operator":null,"description":null,"password":null}},{"type":"Feature","geometry":{"type":"Point","coordinates":[2.1919166,41.383307]},"properties":{"id":"node/11350495769","source":"osm","name":null,"fee":null,"charge":null,"access":null,"wheelchair":null,"opening_hours":null,"operator":null,"description":null,"password":null}},{"type":"Feature","geometry":{"type":"Point","coordinates":[2.1915742,41.4049246]},"properties":{"id":"node/11359735875","source":"osm","name":null,"fee":null,"charge":null,"access":"yes","wheelchair":null,"opening_hours":null,"operator":null,"description":null,"password":null}},{"type":"Feature","geometry":{"type":"Point","coordinates":[2.1887341,41.4072471]},"properties":{"id":"node/11359749170","source":"osm","name":null,"fee":null,"charge":null,"access":"yes","wheelchair":null,"opening_hours":null,"operator":null,"description":null,"password":null}},{"type":"Feature","geometry":{"type":"Point","coordinates":[2.1864992,41.4005343]},"properties":{"id":"node/11360018233","source":"osm","name":null,"fee":null,"charge":null,"access":"yes","wheelchair":"yes","opening_hours":null,"operator":null,"description":null,"password":null}},{"type":"Feature","geometry":{"type":"Point","coordinates":[2.1881847,41.4052251]},"properties":{"id":"node/11360097218","source":"osm","name":null,"fee":null,"charge":null,"access":"yes","wheelchair":"yes","opening_hours":null,"operator":null,"description":null,"password":null}},{"type":"Feature","geometry":{"type":"Point","coordinates":[2.154183,41.3882909]},"properties":{"id":"node/11363662070","source":"osm","name":null,"fee":null,"charge":null,"access":"yes","wheelchair":null,"opening_hours":null,"operator":null,"description":null,"password":null}},{"type":"Feature","geometry":{"type":"Point","coordinates":[2.167584,41.4058244]},"properties":{"id":"node/11374979069","source":"osm","name":null,"fee":null,"charge":null,"access":"yes","wheelchair":null,"opening_hours":null,"operator":null,"description":null,"password":null}},{"type":"Feature","geometry":{"type":"Point","coordinates":[2.1582808,41.4015064]},"properties":{"id":"node/11377908450","source":"osm","name":null,"fee":"no","charge":null,"access":"yes","wheelchair":"limited","opening_hours":null,"operator":null,"description":null,"password":null}},{"type":"Feature","geometry":{"type":"Point","coordinates":[2.1683511,41.3962661]},"properties":{"id":"node/11380936969","source":"osm","name":null,"fee":null,"charge":null,"access":null,"wheelchair":null,"opening_hours":null,"operator":null,"description":null,"password":null}},{"type":"Feature","geometry":{"type":"Point","coordinates":[2.1712431,41.3815504]},"properties":{"id":"node/11381071269","source":"osm","name":null,"fee":"yes","charge":null,"access":null,"wheelchair":"yes","opening_hours":null,"operator":null,"description":null,"password":null}},{"type":"Feature","geometry":{"type":"Point","coordinates":[2.1693024,41.3813664]},"properties":{"id":"node/11381186669","source":"osm","name":null,"fee":null,"charge":null,"access":null,"wheelchair":null,"opening_hours":null,"operator":null,"description":null,"password":null}},{"type":"Feature","geometry":{"type":"Point","coordinates":[2.1438668,41.3749995]},"properties":{"id":"node/11422395870","source":"osm","name":null,"fee":null,"charge":null,"access":null,"wheelchair":null,"opening_hours":null,"operator":null,"description":null,"password":null}},{"type":"Feature","geometry":{"type":"Point","coordinates":[2.1627938,41.3785867]},"properties":{"id":"node/11422453569","source":"osm","name":null,"fee":"no","charge":null,"access":"yes","wheelchair":"yes","opening_hours":null,"operator":null,"description":null,"password":null}},{"type":"Feature","geometry":{"type":"Point","coordinates":[2.1884011,41.4348009]},"properties":{"id":"node/11431794470","source":"osm","name":null,"fee":"yes","charge":null,"access":null,"wheelchair":null,"opening_hours":null,"operator":null,"description":null,"password":null}},{"type":"Feature","geometry":{"type":"Point","coordinates":[2.1883921,41.4342007]},"properties":{"id":"node/11431794471","source":"osm","name":null,"fee":null,"charge":null,"access":null,"wheelchair":null,"opening_hours":null,"operator":null,"description":null,"password":null}},{"type":"Feature","geometry":{"type":"Point","coordinates":[2.1986031,41.4165671]},"properties":{"id":"node/11431919670","source":"osm","name":null,"fee":null,"charge":null,"access":null,"wheelchair":null,"opening_hours":null,"operator":null,"description":null,"password":null}},{"type":"Feature","geometry":{"type":"Point","coordinates":[2.1999063,41.4171818]},"properties":{"id":"node/11433095175","source":"osm","name":null,"fee":null,"charge":null,"access":"yes","wheelchair":null,"opening_hours":null,"operator":null,"description":null,"password":null}},{"type":"Feature","geometry":{"type":"Point","coordinates":[2.1710189,41.4368807]},"properties":{"id":"node/11434531469","source":"osm","name":null,"fee":null,"charge":null,"access":null,"wheelchair":null,"opening_hours":null,"operator":null,"description":null,"password":null}},{"type":"Feature","geometry":{"type":"Point","coordinates":[2.1569324,41.4295341]},"properties":{"id":"node/11434605174","source":"osm","name":null,"fee":null,"charge":null,"access":null,"wheelchair":null,"opening_hours":null,"operator":null,"description":null,"password":null}},{"type":"Feature","geometry":{"type":"Point","coordinates":[2.1763492,41.4271447]},"properties":{"id":"node/11435064657","source":"osm","name":null,"fee":null,"charge":null,"access":"yes","wheelchair":null,"opening_hours":null,"operator":null,"description":null,"password":null}},{"type":"Feature","geometry":{"type":"Point","coordinates":[2.1762067,41.433006]},"properties":{"id":"node/11435108989","source":"osm","name":null,"fee":null,"charge":null,"access":null,"wheelchair":null,"opening_hours":null,"operator":null,"description":null,"password":null}},{"type":"Feature","geometry":{"type":"Point","coordinates":[2.1788484,41.4193605]},"properties":{"id":"node/11436729269","source":"osm","name":null,"fee":null,"charge":null,"access":"yes","wheelchair":null,"opening_hours":null,"operator":null,"description":null,"password":null}},{"type":"Feature","geometry":{"type":"Point","coordinates":[2.1677117,41.4098614]},"properties":{"id":"node/11436844069","source":"osm","name":null,"fee":null,"charge":null,"access":"yes","wheelchair":null,"opening_hours":null,"operator":null,"description":null,"password":null}},{"type":"Feature","geometry":{"type":"Point","coordinates":[2.1207538,41.4000652]},"properties":{"id":"node/11445904269","source":"osm","name":null,"fee":"yes","charge":null,"access":null,"wheelchair":null,"opening_hours":null,"operator":null,"description":null,"password":null}},{"type":"Feature","geometry":{"type":"Point","coordinates":[2.1797881,41.4371504]},"properties":{"id":"node/11449666383","source":"osm","name":null,"fee":null,"charge":null,"access":"yes","wheelchair":null,"opening_hours":null,"operator":null,"description":null,"password":null}},{"type":"Feature","geometry":{"type":"Point","coordinates":[2.1382949,41.4052733]},"properties":{"id":"node/11462322769","source":"osm","name":null,"fee":null,"charge":null,"access":null,"wheelchair":null,"opening_hours":null,"operator":null,"description":null,"password":null}},{"type":"Feature","geometry":{"type":"Point","coordinates":[2.1310099,41.4000757]},"properties":{"id":"node/11468794870","source":"osm","name":null,"fee":null,"charge":null,"access":null,"wheelchair":null,"opening_hours":null,"operator":null,"description":null,"password":null}},{"type":"Feature","geometry":{"type":"Point","coordinates":[2.1029572,41.4153688]},"properties":{"id":"node/11502630270","source":"osm","name":null,"fee":null,"charge":null,"access":null,"wheelchair":null,"opening_hours":null,"operator":null,"description":null,"password":null}},{"type":"Feature","geometry":{"type":"Point","coordinates":[2.160091,41.3686081]},"properties":{"id":"node/11545651369","source":"osm","name":null,"fee":"no","charge":null,"access":"yes","wheelchair":null,"opening_hours":null,"operator":null,"description":null,"password":null}},{"type":"Feature","geometry":{"type":"Point","coordinates":[2.1344461,41.376804]},"properties":{"id":"node/11581511069","source":"osm","name":null,"fee":null,"charge":null,"access":null,"wheelchair":null,"opening_hours":null,"operator":null,"description":null,"password":null}},{"type":"Feature","geometry":{"type":"Point","coordinates":[2.1390162,41.3796994]},"properties":{"id":"node/11581546269","source":"osm","name":null,"fee":"yes","charge":null,"access":null,"wheelchair":null,"opening_hours":null,"operator":null,"description":null,"password":null}},{"type":"Feature","geometry":{"type":"Point","coordinates":[2.1647587,41.4213534]},"properties":{"id":"node/11660300631","source":"osm","name":null,"fee":null,"charge":null,"access":"yes","wheelchair":"no","opening_hours":null,"operator":null,"description":null,"password":null}},{"type":"Feature","geometry":{"type":"Point","coordinates":[2.1760225,41.3756252]},"properties":{"id":"node/11678892573","source":"osm","name":null,"fee":null,"charge":null,"access":null,"wheelchair":null,"opening_hours":null,"operator":null,"description":null,"password":null}},{"type":"Feature","geometry":{"type":"Point","coordinates":[2.1956568,41.3839416]},"properties":{"id":"node/11728686476","source":"osm","name":null,"fee":null,"charge":null,"access":"yes","wheelchair":null,"opening_hours":null,"operator":null,"description":null,"password":null}},{"type":"Feature","geometry":{"type":"Point","coordinates":[2.145347,41.3621316]},"properties":{"id":"node/11735002270","source":"osm","name":null,"fee":null,"charge":null,"access":null,"wheelchair":null,"opening_hours":null,"operator":null,"description":null,"password":null}},{"type":"Feature","geometry":{"type":"Point","coordinates":[2.1643545,41.4418305]},"properties":{"id":"node/11811194216","source":"osm","name":null,"fee":null,"charge":null,"access":null,"wheelchair":null,"opening_hours":null,"operator":null,"description":null,"password":null}},{"type":"Feature","geometry":{"type":"Point","coordinates":[2.1558994,41.4237271]},"properties":{"id":"node/11875888569","source":"osm","name":null,"fee":null,"charge":null,"access":null,"wheelchair":null,"opening_hours":null,"operator":null,"description":null,"password":null}},{"type":"Feature","geometry":{"type":"Point","coordinates":[2.1912654,41.3775688]},"properties":{"id":"node/11888499755","source":"osm","name":null,"fee":"no","charge":null,"access":"yes","wheelchair":"yes","opening_hours":null,"operator":"Ajuntament de Barcelona","description":null,"password":null}},{"type":"Feature","geometry":{"type":"Point","coordinates":[2.1796837,41.4610281]},"properties":{"id":"node/11972425169","source":"osm","name":null,"fee":null,"charge":null,"access":"yes","wheelchair":null,"opening_hours":null,"operator":null,"description":null,"password":null}},{"type":"Feature","geometry":{"type":"Point","coordinates":[2.2257659,41.408461]},"properties":{"id":"node/11983572311","source":"osm","name":null,"fee":null,"charge":null,"access":null,"wheelchair":null,"opening_hours":null,"operator":null,"description":null,"password":null}},{"type":"Feature","geometry":{"type":"Point","coordinates":[2.2048391,41.4254588]},"properties":{"id":"node/12026801279","source":"osm","name":null,"fee":null,"charge":null,"access":"yes","wheelchair":null,"opening_hours":null,"operator":null,"description":null,"password":null}},{"type":"Feature","geometry":{"type":"Point","coordinates":[2.1125934,41.3885443]},"properties":{"id":"node/12038444569","source":"osm","name":null,"fee":"no","charge":null,"access":null,"wheelchair":null,"opening_hours":null,"operator":null,"description":null,"password":null}},{"type":"Feature","geometry":{"type":"Point","coordinates":[2.1871574,41.3682275]},"properties":{"id":"node/12041423933","source":"osm","name":null,"fee":null,"charge":null,"access":null,"wheelchair":null,"opening_hours":null,"operator":null,"description":null,"password":null}},{"type":"Feature","geometry":{"type":"Point","coordinates":[2.1477608,41.3789648]},"properties":{"id":"node/12076473869","source":"osm","name":null,"fee":null,"charge":null,"access":null,"wheelchair":null,"opening_hours":null,"operator":null,"description":null,"password":null}},{"type":"Feature","geometry":{"type":"Point","coordinates":[2.1412212,41.3791593]},"properties":{"id":"node/12092262571","source":"osm","name":null,"fee":"no","charge":null,"access":"customers","wheelchair":null,"opening_hours":null,"operator":null,"description":null,"password":null}},{"type":"Feature","geometry":{"type":"Point","coordinates":[2.1734235,41.4169702]},"properties":{"id":"node/12183522701","source":"osm","name":null,"fee":null,"charge":null,"access":null,"wheelchair":null,"opening_hours":null,"operator":null,"description":null,"password":null}},{"type":"Feature","geometry":{"type":"Point","coordinates":[2.139447,41.3788859]},"properties":{"id":"node/12195612667","source":"osm","name":null,"fee":"yes","charge":null,"access":null,"wheelchair":"yes","opening_hours":null,"operator":null,"description":null,"password":null}},{"type":"Feature","geometry":{"type":"Point","coordinates":[2.1897926,41.3792988]},"properties":{"id":"node/12254607901","source":"osm","name":null,"fee":"no","charge":null,"access":null,"wheelchair":"yes","opening_hours":null,"operator":null,"description":null,"password":null}},{"type":"Feature","geometry":{"type":"Point","coordinates":[2.1876572,41.4526687]},"properties":{"id":"node/12317951401","source":"osm","name":null,"fee":null,"charge":null,"access":null,"wheelchair":null,"opening_hours":null,"operator":null,"description":null,"password":null}},{"type":"Feature","geometry":{"type":"Point","coordinates":[2.1652023,41.3869276]},"properties":{"id":"node/12365165045","source":"osm","name":null,"fee":"yes","charge":null,"access":null,"wheelchair":null,"opening_hours":null,"operator":null,"description":null,"password":null}},{"type":"Feature","geometry":{"type":"Point","coordinates":[2.1979125,41.3911441]},"properties":{"id":"node/12390422401","source":"osm","name":null,"fee":null,"charge":null,"access":null,"wheelchair":null,"opening_hours":null,"operator":null,"description":null,"password":null}},{"type":"Feature","geometry":{"type":"Point","coordinates":[2.1462945,41.3854769]},"properties":{"id":"node/12458634102","source":"osm","name":null,"fee":null,"charge":null,"access":null,"wheelchair":null,"opening_hours":null,"operator":null,"description":null,"password":null}},{"type":"Feature","geometry":{"type":"Point","coordinates":[2.1805274,41.4419192]},"properties":{"id":"node/12464967201","source":"osm","name":null,"fee":null,"charge":null,"access":"yes","wheelchair":null,"opening_hours":null,"operator":null,"description":null,"password":null}},{"type":"Feature","geometry":{"type":"Point","coordinates":[2.1798158,41.441779]},"properties":{"id":"node/12464974601","source":"osm","name":null,"fee":null,"charge":null,"access":"yes","wheelchair":null,"opening_hours":null,"operator":null,"description":null,"password":null}},{"type":"Feature","geometry":{"type":"Point","coordinates":[2.1790929,41.4341365]},"properties":{"id":"node/12465003701","source":"osm","name":null,"fee":null,"charge":null,"access":null,"wheelchair":null,"opening_hours":null,"operator":null,"description":null,"password":null}},{"type":"Feature","geometry":{"type":"Point","coordinates":[2.1872772,41.4056874]},"properties":{"id":"node/12488009284","source":"osm","name":null,"fee":null,"charge":null,"access":"customers","wheelchair":null,"opening_hours":null,"operator":null,"description":null,"password":null}},{"type":"Feature","geometry":{"type":"Point","coordinates":[2.2046949,41.4351363]},"properties":{"id":"node/12647758910","source":"osm","name":null,"fee":"no","charge":null,"access":"yes","wheelchair":null,"opening_hours":null,"operator":null,"description":null,"password":null}},{"type":"Feature","geometry":{"type":"Point","coordinates":[2.1552427,41.4210022]},"properties":{"id":"node/12647766896","source":"osm","name":null,"fee":null,"charge":null,"access":"yes","wheelchair":null,"opening_hours":null,"operator":null,"description":null,"password":null}},{"type":"Feature","geometry":{"type":"Point","coordinates":[2.1824412,41.3953828]},"properties":{"id":"node/12647792409","source":"osm","name":null,"fee":"yes","charge":null,"access":"yes","wheelchair":null,"opening_hours":null,"operator":null,"description":null,"password":null}},{"type":"Feature","geometry":{"type":"Point","coordinates":[2.1520555,41.3867972]},"properties":{"id":"node/12647792410","source":"osm","name":null,"fee":null,"charge":null,"access":"yes","wheelchair":null,"opening_hours":null,"operator":null,"description":null,"password":null}},{"type":"Feature","geometry":{"type":"Point","coordinates":[2.1361307,41.3616131]},"properties":{"id":"node/12647796820","source":"osm","name":null,"fee":null,"charge":null,"access":"yes","wheelchair":null,"opening_hours":null,"operator":null,"description":null,"password":null}},{"type":"Feature","geometry":{"type":"Point","coordinates":[2.2158253,41.4030062]},"properties":{"id":"node/12666314201","source":"osm","name":null,"fee":null,"charge":null,"access":"yes","wheelchair":null,"opening_hours":null,"operator":null,"description":null,"password":null}},{"type":"Feature","geometry":{"type":"Point","coordinates":[2.181329,41.4354574]},"properties":{"id":"node/12669683001","source":"osm","name":null,"fee":"no","charge":null,"access":null,"wheelchair":"yes","opening_hours":null,"operator":null,"description":null,"password":null}},{"type":"Feature","geometry":{"type":"Point","coordinates":[2.1468824,41.4323903]},"properties":{"id":"node/12679683401","source":"osm","name":null,"fee":null,"charge":null,"access":null,"wheelchair":null,"opening_hours":null,"operator":null,"description":null,"password":null}},{"type":"Feature","geometry":{"type":"Point","coordinates":[2.1227534,41.3923888]},"properties":{"id":"node/12679862901","source":"osm","name":null,"fee":"yes","charge":null,"access":null,"wheelchair":null,"opening_hours":null,"operator":null,"description":null,"password":null}},{"type":"Feature","geometry":{"type":"Point","coordinates":[2.122248,41.4000496]},"properties":{"id":"node/12681352435","source":"osm","name":null,"fee":null,"charge":null,"access":"yes","wheelchair":null,"opening_hours":null,"operator":null,"description":null,"password":null}},{"type":"Feature","geometry":{"type":"Point","coordinates":[2.1544931,41.4107812]},"properties":{"id":"node/12785426701","source":"osm","name":null,"fee":null,"charge":null,"access":null,"wheelchair":null,"opening_hours":null,"operator":null,"description":null,"password":null}},{"type":"Feature","geometry":{"type":"Point","coordinates":[2.1859009,41.4023917]},"properties":{"id":"node/12788553070","source":"osm","name":null,"fee":null,"charge":null,"access":"yes","wheelchair":"yes","opening_hours":null,"operator":null,"description":null,"password":null}},{"type":"Feature","geometry":{"type":"Point","coordinates":[2.1847218,41.403271]},"properties":{"id":"node/12844635201","source":"osm","name":null,"fee":null,"charge":null,"access":null,"wheelchair":null,"opening_hours":null,"operator":null,"description":null,"password":null}},{"type":"Feature","geometry":{"type":"Point","coordinates":[2.1535299,41.40476]},"properties":{"id":"node/12848411578","source":"osm","name":null,"fee":"no","charge":null,"access":"yes","wheelchair":null,"opening_hours":"08:00-21:00","operator":null,"description":null,"password":null}},{"type":"Feature","geometry":{"type":"Point","coordinates":[2.1666015,41.3836941]},"properties":{"id":"node/12884205907","source":"osm","name":null,"fee":null,"charge":null,"access":"yes","wheelchair":null,"opening_hours":"Tu-Su 10:00-20:00","operator":null,"description":null,"password":null}},{"type":"Feature","geometry":{"type":"Point","coordinates":[2.1906634,41.4284735]},"properties":{"id":"node/12991879201","source":"osm","name":null,"fee":null,"charge":null,"access":null,"wheelchair":null,"opening_hours":null,"operator":null,"description":null,"password":null}},{"type":"Feature","geometry":{"type":"Point","coordinates":[2.1245606,41.3984167]},"properties":{"id":"node/13003748101","source":"osm","name":null,"fee":null,"charge":null,"access":null,"wheelchair":null,"opening_hours":null,"operator":null,"description":null,"password":null}},{"type":"Feature","geometry":{"type":"Point","coordinates":[2.171446,41.4163114]},"properties":{"id":"node/13058310411","source":"osm","name":null,"fee":null,"charge":null,"access":null,"wheelchair":null,"opening_hours":null,"operator":null,"description":null,"password":null}},{"type":"Feature","geometry":{"type":"Point","coordinates":[2.1712555,41.4164166]},"properties":{"id":"node/13058310443","source":"osm","name":null,"fee":null,"charge":null,"access":null,"wheelchair":null,"opening_hours":null,"operator":null,"description":null,"password":null}},{"type":"Feature","geometry":{"type":"Point","coordinates":[2.1953732,41.4142843]},"properties":{"id":"node/13147393901","source":"osm","name":null,"fee":null,"charge":null,"access":null,"wheelchair":null,"opening_hours":null,"operator":null,"description":null,"password":null}},{"type":"Feature","geometry":{"type":"Point","coordinates":[2.1311152,41.3705008]},"properties":{"id":"node/13255485901","source":"osm","name":null,"fee":null,"charge":null,"access":null,"wheelchair":null,"opening_hours":null,"operator":null,"description":null,"password":null}},{"type":"Feature","geometry":{"type":"Point","coordinates":[2.1821293,41.4057668]},"properties":{"id":"node/13317269303","source":"osm","name":null,"fee":null,"charge":null,"access":null,"wheelchair":null,"opening_hours":null,"operator":null,"description":null,"password":null}},{"type":"Feature","geometry":{"type":"Point","coordinates":[2.1131531,41.3339182]},"properties":{"id":"node/13333873872","source":"osm","name":null,"fee":"no","charge":null,"access":"yes","wheelchair":null,"opening_hours":null,"operator":null,"description":null,"password":null}},{"type":"Feature","geometry":{"type":"Point","coordinates":[2.1651822,41.4242528]},"properties":{"id":"node/13371461301","source":"osm","name":null,"fee":null,"charge":null,"access":"yes","wheelchair":null,"opening_hours":null,"operator":null,"description":null,"password":null}},{"type":"Feature","geometry":{"type":"Point","coordinates":[2.1649361,41.3890019]},"properties":{"id":"node/13470250601","source":"osm","name":null,"fee":"no","charge":null,"access":"yes","wheelchair":"yes","opening_hours":null,"operator":null,"description":null,"password":null}},{"type":"Feature","geometry":{"type":"Point","coordinates":[2.1880192,41.4024705]},"properties":{"id":"node/13470743801","source":"osm","name":null,"fee":null,"charge":null,"access":null,"wheelchair":null,"opening_hours":null,"operator":null,"description":null,"password":null}},{"type":"Feature","geometry":{"type":"Point","coordinates":[2.1763801,41.4057154]},"properties":{"id":"node/13473601001","source":"osm","name":null,"fee":null,"charge":null,"access":null,"wheelchair":null,"opening_hours":null,"operator":null,"description":null,"password":null}},{"type":"Feature","geometry":{"type":"Point","coordinates":[2.1844973,41.3917398]},"properties":{"id":"node/13521974101","source":"osm","name":null,"fee":null,"charge":null,"access":null,"wheelchair":null,"opening_hours":null,"operator":null,"description":null,"password":null}},{"type":"Feature","geometry":{"type":"Point","coordinates":[2.1785145,41.3873193]},"properties":{"id":"node/13522001501","source":"osm","name":null,"fee":null,"charge":null,"access":null,"wheelchair":null,"opening_hours":null,"operator":null,"description":null,"password":null}},{"type":"Feature","geometry":{"type":"Point","coordinates":[2.1872909,41.403842]},"properties":{"id":"node/13524818150","source":"osm","name":null,"fee":null,"charge":null,"access":"yes","wheelchair":null,"opening_hours":null,"operator":null,"description":null,"password":null}},{"type":"Feature","geometry":{"type":"Point","coordinates":[2.193566,41.4510065]},"properties":{"id":"node/13619695601","source":"osm","name":null,"fee":null,"charge":null,"access":null,"wheelchair":null,"opening_hours":null,"operator":null,"description":null,"password":null}},{"type":"Feature","geometry":{"type":"Point","coordinates":[2.1607189,41.3597136]},"properties":{"id":"node/13626756266","source":"osm","name":null,"fee":"no","charge":null,"access":"yes","wheelchair":"no","opening_hours":null,"operator":null,"description":null,"password":null}},{"type":"Feature","geometry":{"type":"Point","coordinates":[2.1921083,41.3783417]},"properties":{"id":"node/13671457659","source":"osm","name":null,"fee":null,"charge":null,"access":"yes","wheelchair":null,"opening_hours":null,"operator":null,"description":null,"password":null}},{"type":"Feature","geometry":{"type":"Point","coordinates":[2.1922624,41.3786191]},"properties":{"id":"node/13671487373","source":"osm","name":null,"fee":null,"charge":null,"access":"yes","wheelchair":null,"opening_hours":null,"operator":null,"description":null,"password":null}},{"type":"Feature","geometry":{"type":"Point","coordinates":[2.1854651,41.3847419]},"properties":{"id":"node/13672711065","source":"osm","name":"Serveis","fee":"no","charge":null,"access":null,"wheelchair":"yes","opening_hours":null,"operator":null,"description":null,"password":null}},{"type":"Feature","geometry":{"type":"Point","coordinates":[2.1501651,41.413521]},"properties":{"id":"node/13674176778","source":"osm","name":null,"fee":"no","charge":null,"access":null,"wheelchair":"no","opening_hours":null,"operator":null,"description":null,"password":null}},{"type":"Feature","geometry":{"type":"Point","coordinates":[2.1637747,41.3815728]},"properties":{"id":"node/13722577802","source":"osm","name":null,"fee":null,"charge":null,"access":null,"wheelchair":null,"opening_hours":null,"operator":null,"description":null,"password":null}},{"type":"Feature","geometry":{"type":"Point","coordinates":[2.1630218,41.3779276]},"properties":{"id":"node/13722603601","source":"osm","name":null,"fee":null,"charge":null,"access":null,"wheelchair":null,"opening_hours":null,"operator":null,"description":null,"password":null}},{"type":"Feature","geometry":{"type":"Point","coordinates":[2.1676502,41.367117]},"properties":{"id":"node/13766384810","source":"osm","name":null,"fee":null,"charge":null,"access":null,"wheelchair":null,"opening_hours":null,"operator":null,"description":null,"password":null}},{"type":"Feature","geometry":{"type":"Point","coordinates":[2.1752159,41.4122005]},"properties":{"id":"node/13808054301","source":"osm","name":null,"fee":null,"charge":null,"access":null,"wheelchair":null,"opening_hours":null,"operator":null,"description":null,"password":null}},{"type":"Feature","geometry":{"type":"Point","coordinates":[2.1743473,41.4123907]},"properties":{"id":"node/13808120402","source":"osm","name":null,"fee":null,"charge":null,"access":null,"wheelchair":null,"opening_hours":null,"operator":null,"description":null,"password":null}},{"type":"Feature","geometry":{"type":"Point","coordinates":[2.1747085,41.4129398]},"properties":{"id":"node/13808127601","source":"osm","name":null,"fee":null,"charge":null,"access":null,"wheelchair":null,"opening_hours":null,"operator":null,"description":null,"password":null}},{"type":"Feature","geometry":{"type":"Point","coordinates":[2.2131747,41.3997405]},"properties":{"id":"node/13848579181","source":"osm","name":null,"fee":null,"charge":null,"access":null,"wheelchair":null,"opening_hours":null,"operator":null,"description":null,"password":null}},{"type":"Feature","geometry":{"type":"Point","coordinates":[2.1929224,41.3798885]},"properties":{"id":"node/13875323501","source":"osm","name":null,"fee":"no","charge":null,"access":"yes","wheelchair":"yes","opening_hours":null,"operator":null,"description":null,"password":null}},{"type":"Feature","geometry":{"type":"Point","coordinates":[2.1890337,41.3758795]},"properties":{"id":"node/13922158101","source":"osm","name":null,"fee":null,"charge":null,"access":null,"wheelchair":null,"opening_hours":null,"operator":null,"description":null,"password":null}},{"type":"Feature","geometry":{"type":"Point","coordinates":[2.1910947,41.3768215]},"properties":{"id":"node/13981406872","source":"osm","name":null,"fee":null,"charge":null,"access":null,"wheelchair":null,"opening_hours":null,"operator":null,"description":null,"password":null}},{"type":"Feature","geometry":{"type":"Point","coordinates":[2.1895262,41.3736736]},"properties":{"id":"node/13981410224","source":"osm","name":null,"fee":null,"charge":null,"access":null,"wheelchair":null,"opening_hours":null,"operator":null,"description":null,"password":null}},{"type":"Feature","geometry":{"type":"Point","coordinates":[2.1905295,41.3756945]},"properties":{"id":"node/13981414640","source":"osm","name":null,"fee":null,"charge":null,"access":null,"wheelchair":null,"opening_hours":null,"operator":null,"description":null,"password":null}},{"type":"Feature","geometry":{"type":"Point","coordinates":[2.1901625,41.374814]},"properties":{"id":"node/13981414648","source":"osm","name":null,"fee":"no","charge":null,"access":"yes","wheelchair":null,"opening_hours":"24/7","operator":null,"description":null,"password":null}},{"type":"Feature","geometry":{"type":"Point","coordinates":[2.17166,41.4409285]},"properties":{"id":"way/151407864","source":"osm","name":null,"fee":null,"charge":null,"access":null,"wheelchair":null,"opening_hours":null,"operator":null,"description":null,"password":null}},{"type":"Feature","geometry":{"type":"Point","coordinates":[2.1683438,41.3682013]},"properties":{"id":"way/315204647","source":"osm","name":null,"fee":"no","charge":null,"access":"yes","wheelchair":"yes","opening_hours":null,"operator":null,"description":null,"password":null}},{"type":"Feature","geometry":{"type":"Point","coordinates":[2.1525572,41.3683261]},"properties":{"id":"way/666599303","source":"osm","name":null,"fee":null,"charge":null,"access":null,"wheelchair":null,"opening_hours":null,"operator":null,"description":null,"password":null}},{"type":"Feature","geometry":{"type":"Point","coordinates":[2.1526332,41.3682101]},"properties":{"id":"way/666599304","source":"osm","name":null,"fee":null,"charge":null,"access":null,"wheelchair":null,"opening_hours":null,"operator":null,"description":null,"password":null}},{"type":"Feature","geometry":{"type":"Point","coordinates":[2.1542905,41.3689832]},"properties":{"id":"way/666599305","source":"osm","name":null,"fee":null,"charge":null,"access":null,"wheelchair":null,"opening_hours":null,"operator":null,"description":null,"password":null}},{"type":"Feature","geometry":{"type":"Point","coordinates":[2.1531571,41.3680236]},"properties":{"id":"way/666599325","source":"osm","name":null,"fee":null,"charge":null,"access":null,"wheelchair":null,"opening_hours":null,"operator":null,"description":null,"password":null}},{"type":"Feature","geometry":{"type":"Point","coordinates":[2.153226,41.3679224]},"properties":{"id":"way/666599326","source":"osm","name":null,"fee":null,"charge":null,"access":null,"wheelchair":null,"opening_hours":null,"operator":null,"description":null,"password":null}},{"type":"Feature","geometry":{"type":"Point","coordinates":[2.1535399,41.3688378]},"properties":{"id":"way/666599329","source":"osm","name":null,"fee":"yes","charge":null,"access":null,"wheelchair":null,"opening_hours":null,"operator":null,"description":null,"password":null}},{"type":"Feature","geometry":{"type":"Point","coordinates":[2.1623849,41.4196377]},"properties":{"id":"way/871931025","source":"osm","name":null,"fee":null,"charge":null,"access":"yes","wheelchair":null,"opening_hours":null,"operator":null,"description":null,"password":null}},{"type":"Feature","geometry":{"type":"Point","coordinates":[2.2122128,41.3998348]},"properties":{"id":"way/924744119","source":"osm","name":null,"fee":"no","charge":null,"access":"customers","wheelchair":"yes","opening_hours":null,"operator":null,"description":null,"password":null}},{"type":"Feature","geometry":{"type":"Point","coordinates":[2.1958147,41.3846929]},"properties":{"id":"way/1020886877","source":"osm","name":null,"fee":"no","charge":null,"access":"yes","wheelchair":"yes","opening_hours":null,"operator":"Ajuntament de Barcelona","description":null,"password":null}},{"type":"Feature","geometry":{"type":"Point","coordinates":[2.1418514,41.4332846]},"properties":{"id":"way/1270208317","source":"osm","name":null,"fee":null,"charge":null,"access":"private","wheelchair":null,"opening_hours":null,"operator":"Transports Metropolitans de Barcelona","description":null,"password":null}},{"type":"Feature","geometry":{"type":"Point","coordinates":[2.1675669,41.3828459]},"properties":{"id":"way/1433942003","source":"osm","name":null,"fee":"no","charge":null,"access":null,"wheelchair":"yes","opening_hours":null,"operator":null,"description":null,"password":null}},{"type":"Feature","geometry":{"type":"Point","coordinates":[2.2035883,41.3913174]},"properties":{"id":"way/1497300121","source":"osm","name":null,"fee":null,"charge":null,"access":"yes","wheelchair":"yes","opening_hours":null,"operator":null,"description":null,"password":null}},{"type":"Feature","geometry":{"type":"Point","coordinates":[2.205031,41.3923336]},"properties":{"id":"way/1497300295","source":"osm","name":null,"fee":null,"charge":null,"access":"yes","wheelchair":"yes","opening_hours":null,"operator":null,"description":null,"password":null}},{"type":"Feature","geometry":{"type":"Point","coordinates":[2.2021907,41.3908118]},"properties":{"id":"way/1497300651","source":"osm","name":null,"fee":null,"charge":null,"access":"yes","wheelchair":null,"opening_hours":null,"operator":null,"description":null,"password":null}},{"type":"Feature","geometry":{"type":"Point","coordinates":[2.2062772,41.3941871]},"properties":{"id":"way/1497300962","source":"osm","name":null,"fee":null,"charge":null,"access":"yes","wheelchair":null,"opening_hours":null,"operator":null,"description":null,"password":null}},{"type":"Feature","geometry":{"type":"Point","coordinates":[2.20789,41.3954392]},"properties":{"id":"way/1497301345","source":"osm","name":null,"fee":null,"charge":null,"access":"yes","wheelchair":null,"opening_hours":null,"operator":null,"description":null,"password":null}},{"type":"Feature","geometry":{"type":"Point","coordinates":[2.2056218,41.3933022]},"properties":{"id":"way/1521242065","source":"osm","name":null,"fee":null,"charge":null,"access":null,"wheelchair":null,"opening_hours":null,"operator":null,"description":null,"password":null}},{"type":"Feature","geometry":{"type":"Point","coordinates":[2.2012815,41.3903071]},"properties":{"id":"way/1521242652","source":"osm","name":null,"fee":null,"charge":null,"access":null,"wheelchair":null,"opening_hours":null,"operator":null,"description":null,"password":null}},{"type":"Feature","geometry":{"type":"Point","coordinates":[2.174663,41.40476]},"properties":{"id":"xhs/kfc-sagrada-fam-lia","source":"xhs","name":"KFC (Sagrada Família)","fee":"yes","charge":null,"access":null,"wheelchair":null,"opening_hours":null,"operator":null,"description":"楼下输一次密码，厕所门口需再输一次；另一网友记录为 2604#","password":"1975#","code_confirmed_at":"2026-08-11","cleanliness":null,"city":"spain/barcelona"}},{"type":"Feature","geometry":{"type":"Point","coordinates":[2.1743,41.4038]},"properties":{"id":"xhs/buenas-migas-sagrada-fam-lia","source":"xhs","name":"Buenas Migas (Sagrada Família)","fee":"no","charge":null,"access":null,"wheelchair":null,"opening_hours":null,"operator":null,"description":"圣家堂斜对面，免费用无人看守","password":null,"code_confirmed_at":null,"cleanliness":null,"city":"spain/barcelona"}},{"type":"Feature","geometry":{"type":"Point","coordinates":[2.1708,41.3872]},"properties":{"id":"xhs/starbucks-pla-a-de-catalunya","source":"xhs","name":"Starbucks (Plaça de Catalunya)","fee":"yes","charge":null,"access":null,"wheelchair":null,"opening_hours":null,"operator":null,"description":"","password":"#24420A","code_confirmed_at":null,"cleanliness":null,"city":"spain/barcelona"}},{"type":"Feature","geometry":{"type":"Point","coordinates":[2.169,41.3874]},"properties":{"id":"xhs/kfc-pla-a-de-catalunya","source":"xhs","name":"KFC (Plaça de Catalunya)","fee":"yes","charge":null,"access":null,"wheelchair":null,"opening_hours":null,"operator":null,"description":"","password":"1214A","code_confirmed_at":null,"cleanliness":null,"city":"spain/barcelona"}},{"type":"Feature","geometry":{"type":"Point","coordinates":[2.1494,41.3748]},"properties":{"id":"xhs/kfc-pla-a-d-espanya","source":"xhs","name":"KFC (Plaça d'Espanya)","fee":"yes","charge":null,"access":null,"wheelchair":null,"opening_hours":null,"operator":null,"description":"","password":"4444 / 20190","code_confirmed_at":null,"cleanliness":null,"city":"spain/barcelona"}},{"type":"Feature","geometry":{"type":"Point","coordinates":[2.172632,41.382146]},"properties":{"id":"xhs/taco-bell-near-la-boqueria","source":"xhs","name":"Taco Bell (near La Boqueria)","fee":"yes","charge":null,"access":null,"wheelchair":null,"opening_hours":null,"operator":null,"description":"","password":"9753#","code_confirmed_at":null,"cleanliness":null,"city":"spain/barcelona"}},{"type":"Feature","geometry":{"type":"Point","coordinates":[2.170313,41.388218]},"properties":{"id":"xhs/farggi-passeig-de-gr-cia","source":"xhs","name":"Farggi (Passeig de Gràcia)","fee":"yes","charge":null,"access":null,"wheelchair":null,"opening_hours":null,"operator":null,"description":"","password":"164766#","code_confirmed_at":null,"cleanliness":null,"city":"spain/barcelona"}},{"type":"Feature","geometry":{"type":"Point","coordinates":[2.187118,41.381423]},"properties":{"id":"xhs/burger-king-beachside","source":"xhs","name":"Burger King (beachside)","fee":"yes","charge":null,"access":null,"wheelchair":null,"opening_hours":null,"operator":null,"description":"","password":"3535","code_confirmed_at":null,"cleanliness":null,"city":"spain/barcelona"}},{"type":"Feature","geometry":{"type":"Point","coordinates":[2.1502,41.4042]},"properties":{"id":"xhs/mcdonald-s-near-casa-vicens","source":"xhs","name":"McDonald's (near Casa Vicens)","fee":"yes","charge":null,"access":null,"wheelchair":null,"opening_hours":null,"operator":null,"description":"","password":"2854#","code_confirmed_at":null,"cleanliness":null,"city":"spain/barcelona"}},{"type":"Feature","geometry":{"type":"Point","coordinates":[2.164472,41.392966]},"properties":{"id":"xhs/casa-del-libro-near-casa-mil","source":"xhs","name":"Casa del Libro (near Casa Milà)","fee":"no","charge":null,"access":null,"wheelchair":null,"opening_hours":null,"operator":null,"description":"米拉之家旁绿色书店","password":null,"code_confirmed_at":null,"cleanliness":null,"city":"spain/barcelona"}},{"type":"Feature","geometry":{"type":"Point","coordinates":[2.171026,41.387747]},"properties":{"id":"xhs/el-corte-ingl-s-pla-a-de-catalunya","source":"xhs","name":"El Corte Inglés (Plaça de Catalunya)","fee":"no","charge":null,"access":null,"wheelchair":null,"opening_hours":null,"operator":null,"description":"","password":null,"code_confirmed_at":null,"cleanliness":null,"city":"spain/barcelona"}}]}