{"type":"FeatureCollection","attribution":"© OpenStreetMap contributors (ODbL)","generated_at":"2026-08-24T09:48:10.893Z","features":[{"type":"Feature","geometry":{"type":"Point","coordinates":[-6.0020424,37.4037959]},"properties":{"id":"node/1309090406","source":"osm","name":null,"fee":null,"charge":null,"access":null,"wheelchair":null,"opening_hours":null,"operator":null,"description":null,"password":null}},{"type":"Feature","geometry":{"type":"Point","coordinates":[-6.0040221,37.3920806]},"properties":{"id":"node/1542910645","source":"osm","name":null,"fee":null,"charge":null,"access":null,"wheelchair":null,"opening_hours":null,"operator":null,"description":null,"password":null}},{"type":"Feature","geometry":{"type":"Point","coordinates":[-6.0020184,37.3915437]},"properties":{"id":"node/1731000930","source":"osm","name":null,"fee":null,"charge":null,"access":null,"wheelchair":null,"opening_hours":null,"operator":null,"description":null,"password":null}},{"type":"Feature","geometry":{"type":"Point","coordinates":[-5.8996717,37.4237764]},"properties":{"id":"node/1935807875","source":"osm","name":null,"fee":"no","charge":null,"access":"yes","wheelchair":null,"opening_hours":null,"operator":null,"description":null,"password":null}},{"type":"Feature","geometry":{"type":"Point","coordinates":[-5.901255,37.4219524]},"properties":{"id":"node/2318135426","source":"osm","name":null,"fee":"no","charge":null,"access":null,"wheelchair":"yes","opening_hours":null,"operator":null,"description":null,"password":null}},{"type":"Feature","geometry":{"type":"Point","coordinates":[-5.9966623,37.4182559]},"properties":{"id":"node/2500335398","source":"osm","name":null,"fee":null,"charge":null,"access":null,"wheelchair":null,"opening_hours":null,"operator":null,"description":null,"password":null}},{"type":"Feature","geometry":{"type":"Point","coordinates":[-5.9194096,37.412223]},"properties":{"id":"node/3189882925","source":"osm","name":"WC Parque Tamarguillo","fee":null,"charge":null,"access":null,"wheelchair":null,"opening_hours":null,"operator":null,"description":null,"password":null}},{"type":"Feature","geometry":{"type":"Point","coordinates":[-5.989574,37.381845]},"properties":{"id":"node/3575801897","source":"osm","name":null,"fee":null,"charge":null,"access":"customers","wheelchair":null,"opening_hours":null,"operator":null,"description":null,"password":null}},{"type":"Feature","geometry":{"type":"Point","coordinates":[-5.9914069,37.3839823]},"properties":{"id":"node/3575801900","source":"osm","name":null,"fee":null,"charge":null,"access":"customers","wheelchair":"designated","opening_hours":null,"operator":null,"description":null,"password":null}},{"type":"Feature","geometry":{"type":"Point","coordinates":[-6.0077979,37.398416]},"properties":{"id":"node/3811371852","source":"osm","name":null,"fee":"no","charge":null,"access":null,"wheelchair":"yes","opening_hours":null,"operator":null,"description":null,"password":null}},{"type":"Feature","geometry":{"type":"Point","coordinates":[-5.9897134,37.3843434]},"properties":{"id":"node/4100676192","source":"osm","name":null,"fee":null,"charge":null,"access":"customers","wheelchair":null,"opening_hours":null,"operator":null,"description":null,"password":null}},{"type":"Feature","geometry":{"type":"Point","coordinates":[-5.9995824,37.4097553]},"properties":{"id":"node/5274427208","source":"osm","name":null,"fee":null,"charge":null,"access":null,"wheelchair":"designated","opening_hours":null,"operator":null,"description":null,"password":null}},{"type":"Feature","geometry":{"type":"Point","coordinates":[-6.0018239,37.4076131]},"properties":{"id":"node/5276507856","source":"osm","name":null,"fee":null,"charge":null,"access":null,"wheelchair":null,"opening_hours":null,"operator":null,"description":null,"password":null}},{"type":"Feature","geometry":{"type":"Point","coordinates":[-6.0021833,37.4070741]},"properties":{"id":"node/5276507857","source":"osm","name":null,"fee":null,"charge":null,"access":null,"wheelchair":null,"opening_hours":null,"operator":null,"description":null,"password":null}},{"type":"Feature","geometry":{"type":"Point","coordinates":[-5.9879341,37.3764854]},"properties":{"id":"node/5395768524","source":"osm","name":null,"fee":"0,6€","charge":null,"access":null,"wheelchair":null,"opening_hours":"Mo-Su 10:00-19:00","operator":null,"description":null,"password":null}},{"type":"Feature","geometry":{"type":"Point","coordinates":[-5.9613427,37.4179864]},"properties":{"id":"node/5503492108","source":"osm","name":null,"fee":null,"charge":null,"access":"yes","wheelchair":null,"opening_hours":null,"operator":"Público","description":null,"password":null}},{"type":"Feature","geometry":{"type":"Point","coordinates":[-6.0000274,37.3877914]},"properties":{"id":"node/6309101902","source":"osm","name":null,"fee":null,"charge":null,"access":"permit","wheelchair":null,"opening_hours":null,"operator":null,"description":null,"password":null}},{"type":"Feature","geometry":{"type":"Point","coordinates":[-5.9907238,37.3808854]},"properties":{"id":"node/6387482886","source":"osm","name":null,"fee":"no","charge":null,"access":null,"wheelchair":"yes","opening_hours":null,"operator":null,"description":null,"password":null}},{"type":"Feature","geometry":{"type":"Point","coordinates":[-5.9894877,37.3773738]},"properties":{"id":"node/6400351825","source":"osm","name":null,"fee":"no","charge":null,"access":null,"wheelchair":"yes","opening_hours":"Mo-Su 08:00-22:00","operator":null,"description":null,"password":null}},{"type":"Feature","geometry":{"type":"Point","coordinates":[-5.9849694,37.3811442]},"properties":{"id":"node/6581572465","source":"osm","name":null,"fee":"no","charge":null,"access":"yes","wheelchair":null,"opening_hours":null,"operator":null,"description":null,"password":null}},{"type":"Feature","geometry":{"type":"Point","coordinates":[-6.0024351,37.412144]},"properties":{"id":"node/7023341861","source":"osm","name":null,"fee":null,"charge":null,"access":null,"wheelchair":null,"opening_hours":null,"operator":null,"description":null,"password":null}},{"type":"Feature","geometry":{"type":"Point","coordinates":[-6.0020703,37.4120832]},"properties":{"id":"node/7023341862","source":"osm","name":null,"fee":null,"charge":null,"access":null,"wheelchair":null,"opening_hours":null,"operator":null,"description":null,"password":null}},{"type":"Feature","geometry":{"type":"Point","coordinates":[-6.0018611,37.4115986]},"properties":{"id":"node/7023341863","source":"osm","name":null,"fee":null,"charge":null,"access":null,"wheelchair":null,"opening_hours":null,"operator":null,"description":null,"password":null}},{"type":"Feature","geometry":{"type":"Point","coordinates":[-6.0021964,37.4116795]},"properties":{"id":"node/7023341864","source":"osm","name":null,"fee":null,"charge":null,"access":null,"wheelchair":null,"opening_hours":null,"operator":null,"description":null,"password":null}},{"type":"Feature","geometry":{"type":"Point","coordinates":[-6.0022514,37.4114537]},"properties":{"id":"node/7023341865","source":"osm","name":null,"fee":null,"charge":null,"access":null,"wheelchair":null,"opening_hours":null,"operator":null,"description":null,"password":null}},{"type":"Feature","geometry":{"type":"Point","coordinates":[-5.9740235,37.3480763]},"properties":{"id":"node/8120999535","source":"osm","name":null,"fee":null,"charge":null,"access":null,"wheelchair":null,"opening_hours":null,"operator":null,"description":null,"password":null}},{"type":"Feature","geometry":{"type":"Point","coordinates":[-5.9932375,37.4175315]},"properties":{"id":"node/8479340653","source":"osm","name":null,"fee":null,"charge":null,"access":null,"wheelchair":null,"opening_hours":null,"operator":null,"description":null,"password":null}},{"type":"Feature","geometry":{"type":"Point","coordinates":[-5.993595,37.3852428]},"properties":{"id":"node/9311857251","source":"osm","name":null,"fee":null,"charge":null,"access":"customers","wheelchair":"designated","opening_hours":null,"operator":null,"description":null,"password":null}},{"type":"Feature","geometry":{"type":"Point","coordinates":[-5.9936438,37.3861438]},"properties":{"id":"node/9623176600","source":"osm","name":null,"fee":"no","charge":null,"access":"customers","wheelchair":"yes","opening_hours":null,"operator":null,"description":null,"password":null}},{"type":"Feature","geometry":{"type":"Point","coordinates":[-5.9713043,37.3383569]},"properties":{"id":"node/9876865488","source":"osm","name":null,"fee":null,"charge":null,"access":"customers","wheelchair":"yes","opening_hours":null,"operator":null,"description":null,"password":null}},{"type":"Feature","geometry":{"type":"Point","coordinates":[-5.8980392,37.424215]},"properties":{"id":"node/10084582945","source":"osm","name":null,"fee":null,"charge":null,"access":"customers","wheelchair":"yes","opening_hours":null,"operator":null,"description":null,"password":null}},{"type":"Feature","geometry":{"type":"Point","coordinates":[-5.9863168,37.3814403]},"properties":{"id":"node/10291329055","source":"osm","name":null,"fee":"no","charge":null,"access":"yes","wheelchair":null,"opening_hours":null,"operator":null,"description":null,"password":null}},{"type":"Feature","geometry":{"type":"Point","coordinates":[-5.9862738,37.3815346]},"properties":{"id":"node/10291329056","source":"osm","name":null,"fee":"no","charge":null,"access":"yes","wheelchair":null,"opening_hours":null,"operator":null,"description":null,"password":null}},{"type":"Feature","geometry":{"type":"Point","coordinates":[-5.9924312,37.389846]},"properties":{"id":"node/11027858915","source":"osm","name":null,"fee":null,"charge":null,"access":"customers","wheelchair":null,"opening_hours":null,"operator":null,"description":null,"password":null}},{"type":"Feature","geometry":{"type":"Point","coordinates":[-6.0099345,37.392379]},"properties":{"id":"node/11184273558","source":"osm","name":null,"fee":null,"charge":null,"access":"permissive","wheelchair":"yes","opening_hours":null,"operator":null,"description":null,"password":null}},{"type":"Feature","geometry":{"type":"Point","coordinates":[-5.9745916,37.3918546]},"properties":{"id":"node/11305188951","source":"osm","name":null,"fee":"no","charge":null,"access":"yes","wheelchair":"yes","opening_hours":null,"operator":null,"description":null,"password":null}},{"type":"Feature","geometry":{"type":"Point","coordinates":[-5.9290714,37.4152604]},"properties":{"id":"node/11786344601","source":"osm","name":null,"fee":null,"charge":null,"access":null,"wheelchair":null,"opening_hours":null,"operator":null,"description":null,"password":null}},{"type":"Feature","geometry":{"type":"Point","coordinates":[-5.975727,37.3924843]},"properties":{"id":"node/11809140492","source":"osm","name":null,"fee":"no","charge":null,"access":"yes","wheelchair":"yes","opening_hours":null,"operator":null,"description":null,"password":null}},{"type":"Feature","geometry":{"type":"Point","coordinates":[-6.0038707,37.3855722]},"properties":{"id":"node/11889427769","source":"osm","name":null,"fee":null,"charge":null,"access":null,"wheelchair":null,"opening_hours":null,"operator":null,"description":null,"password":null}},{"type":"Feature","geometry":{"type":"Point","coordinates":[-5.900171,37.423242]},"properties":{"id":"node/12188493873","source":"osm","name":null,"fee":null,"charge":null,"access":null,"wheelchair":null,"opening_hours":null,"operator":null,"description":null,"password":null}},{"type":"Feature","geometry":{"type":"Point","coordinates":[-5.8995423,37.4233814]},"properties":{"id":"node/12188493876","source":"osm","name":null,"fee":null,"charge":null,"access":null,"wheelchair":null,"opening_hours":null,"operator":null,"description":null,"password":null}},{"type":"Feature","geometry":{"type":"Point","coordinates":[-6.0023109,37.3915673]},"properties":{"id":"node/12195245119","source":"osm","name":null,"fee":null,"charge":null,"access":null,"wheelchair":null,"opening_hours":null,"operator":null,"description":null,"password":null}},{"type":"Feature","geometry":{"type":"Point","coordinates":[-5.9801468,37.3830294]},"properties":{"id":"node/12323233252","source":"osm","name":null,"fee":"no","charge":null,"access":"customers","wheelchair":"limited","opening_hours":null,"operator":null,"description":null,"password":null}},{"type":"Feature","geometry":{"type":"Point","coordinates":[-6.0073614,37.3982531]},"properties":{"id":"node/12579546265","source":"osm","name":null,"fee":null,"charge":null,"access":null,"wheelchair":"no","opening_hours":null,"operator":null,"description":null,"password":null}},{"type":"Feature","geometry":{"type":"Point","coordinates":[-6.0069874,37.3984418]},"properties":{"id":"node/12579546266","source":"osm","name":null,"fee":null,"charge":null,"access":null,"wheelchair":"yes","opening_hours":null,"operator":null,"description":null,"password":null}},{"type":"Feature","geometry":{"type":"Point","coordinates":[-5.9931614,37.3845403]},"properties":{"id":"node/12584798470","source":"osm","name":null,"fee":"no","charge":null,"access":null,"wheelchair":null,"opening_hours":null,"operator":null,"description":"inside Archivo de indias","password":null}},{"type":"Feature","geometry":{"type":"Point","coordinates":[-5.9895688,37.3785272]},"properties":{"id":"node/12697223220","source":"osm","name":null,"fee":"no","charge":null,"access":null,"wheelchair":"yes","opening_hours":null,"operator":null,"description":null,"password":null}},{"type":"Feature","geometry":{"type":"Point","coordinates":[-6.0033581,37.391195]},"properties":{"id":"node/13286006551","source":"osm","name":null,"fee":null,"charge":null,"access":null,"wheelchair":null,"opening_hours":null,"operator":null,"description":null,"password":null}},{"type":"Feature","geometry":{"type":"Point","coordinates":[-5.991425,37.3994076]},"properties":{"id":"node/13647212933","source":"osm","name":null,"fee":null,"charge":null,"access":"yes","wheelchair":null,"opening_hours":null,"operator":null,"description":null,"password":null}},{"type":"Feature","geometry":{"type":"Point","coordinates":[-5.9877141,37.3795853]},"properties":{"id":"node/13708289501","source":"osm","name":null,"fee":null,"charge":null,"access":null,"wheelchair":null,"opening_hours":null,"operator":null,"description":null,"password":null}},{"type":"Feature","geometry":{"type":"Point","coordinates":[-5.9309334,37.3926613]},"properties":{"id":"way/333437701","source":"osm","name":null,"fee":null,"charge":null,"access":null,"wheelchair":null,"opening_hours":null,"operator":null,"description":null,"password":null}},{"type":"Feature","geometry":{"type":"Point","coordinates":[-5.9285568,37.3926766]},"properties":{"id":"way/333437702","source":"osm","name":null,"fee":null,"charge":null,"access":null,"wheelchair":null,"opening_hours":null,"operator":null,"description":null,"password":null}},{"type":"Feature","geometry":{"type":"Point","coordinates":[-6.0046571,37.3744942]},"properties":{"id":"way/418892413","source":"osm","name":null,"fee":null,"charge":null,"access":null,"wheelchair":null,"opening_hours":null,"operator":null,"description":null,"password":null}},{"type":"Feature","geometry":{"type":"Point","coordinates":[-5.9154072,37.4108642]},"properties":{"id":"way/424521761","source":"osm","name":null,"fee":"no","charge":null,"access":"yes","wheelchair":null,"opening_hours":null,"operator":null,"description":null,"password":null}},{"type":"Feature","geometry":{"type":"Point","coordinates":[-6.0015013,37.4059332]},"properties":{"id":"way/545702372","source":"osm","name":null,"fee":null,"charge":null,"access":null,"wheelchair":"designated","opening_hours":null,"operator":null,"description":null,"password":null}},{"type":"Feature","geometry":{"type":"Point","coordinates":[-6.0004783,37.4072463]},"properties":{"id":"way/545702796","source":"osm","name":null,"fee":null,"charge":null,"access":null,"wheelchair":"designated","opening_hours":null,"operator":null,"description":null,"password":null}},{"type":"Feature","geometry":{"type":"Point","coordinates":[-5.9988135,37.4067666]},"properties":{"id":"way/545710519","source":"osm","name":null,"fee":null,"charge":null,"access":null,"wheelchair":"designated","opening_hours":null,"operator":null,"description":null,"password":null}},{"type":"Feature","geometry":{"type":"Point","coordinates":[-5.9995171,37.4098748]},"properties":{"id":"way/545909250","source":"osm","name":null,"fee":null,"charge":null,"access":null,"wheelchair":"yes","opening_hours":null,"operator":null,"description":null,"password":null}},{"type":"Feature","geometry":{"type":"Point","coordinates":[-6.0011903,37.4095511]},"properties":{"id":"way/545911998","source":"osm","name":null,"fee":null,"charge":null,"access":null,"wheelchair":"yes","opening_hours":null,"operator":null,"description":null,"password":null}},{"type":"Feature","geometry":{"type":"Point","coordinates":[-6.0007018,37.4082329]},"properties":{"id":"way/545918892","source":"osm","name":null,"fee":null,"charge":null,"access":null,"wheelchair":"designated","opening_hours":null,"operator":null,"description":null,"password":null}},{"type":"Feature","geometry":{"type":"Point","coordinates":[-5.9997792,37.4055554]},"properties":{"id":"way/545948018","source":"osm","name":null,"fee":null,"charge":null,"access":null,"wheelchair":"designated","opening_hours":null,"operator":null,"description":null,"password":null}},{"type":"Feature","geometry":{"type":"Point","coordinates":[-5.9969468,37.4082704]},"properties":{"id":"way/547665938","source":"osm","name":null,"fee":null,"charge":null,"access":null,"wheelchair":"designated","opening_hours":null,"operator":null,"description":null,"password":null}},{"type":"Feature","geometry":{"type":"Point","coordinates":[-5.9890175,37.375198]},"properties":{"id":"way/1489727999","source":"osm","name":null,"fee":"no","charge":null,"access":"yes","wheelchair":"limited","opening_hours":null,"operator":null,"description":null,"password":null}},{"type":"Feature","geometry":{"type":"Point","coordinates":[-5.9926,37.3938]},"properties":{"id":"xhs/mcdonald-s-metropol-parasol","source":"xhs","name":"McDonald's (Metropol Parasol)","fee":"yes","charge":null,"access":null,"wheelchair":null,"opening_hours":null,"operator":null,"description":"都市阳伞旁","password":"1507 / 1507A","code_confirmed_at":null,"cleanliness":null,"city":"spain/seville"}},{"type":"Feature","geometry":{"type":"Point","coordinates":[-5.996,37.3828]},"properties":{"id":"xhs/mcdonald-s-torre-del-oro-2f","source":"xhs","name":"McDonald's (Torre del Oro, 2F)","fee":"yes","charge":null,"access":null,"wheelchair":null,"opening_hours":null,"operator":null,"description":"河边黄金塔旁，二楼右手边","password":"0915A","code_confirmed_at":null,"cleanliness":null,"city":"spain/seville"}},{"type":"Feature","geometry":{"type":"Point","coordinates":[-5.9869,37.3772]},"properties":{"id":"xhs/university-of-seville","source":"xhs","name":"University of Seville","fee":"no","charge":null,"access":null,"wheelchair":null,"opening_hours":null,"operator":null,"description":"可充电","password":null,"code_confirmed_at":null,"cleanliness":null,"city":"spain/seville"}}]}