{"type":"FeatureCollection","attribution":"© OpenStreetMap contributors (ODbL)","generated_at":"2026-08-24T09:48:05.552Z","features":[{"type":"Feature","geometry":{"type":"Point","coordinates":[4.8304548,45.7694579]},"properties":{"id":"node/81757615","source":"osm","name":"Sanitaire Public de la Montée de l’Amphithéâtre","fee":"no","charge":null,"access":"yes","wheelchair":"no","opening_hours":"24/7","operator":"Ville de Lyon","description":null,"password":null}},{"type":"Feature","geometry":{"type":"Point","coordinates":[4.8263532,45.7600171]},"properties":{"id":"node/95836798","source":"osm","name":"Sanitaire Public de l’Avenue du Doyenné","fee":"no","charge":null,"access":"permissive","wheelchair":"yes","opening_hours":"Mo-Su 08:00-19:30","operator":"Ville de Lyon","description":null,"password":null}},{"type":"Feature","geometry":{"type":"Point","coordinates":[4.8711419,45.7441136]},"properties":{"id":"node/245490205","source":"osm","name":"Sanitaire Public de la Place Ambroise Courtois","fee":"no","charge":null,"access":"yes","wheelchair":"yes","opening_hours":"Mo-Su 06:00-02:00","operator":"Ville de Lyon","description":null,"password":null}},{"type":"Feature","geometry":{"type":"Point","coordinates":[4.8239754,45.7518291]},"properties":{"id":"node/249498602","source":"osm","name":"Sanitaire Public du Quai du Maréchal Joffre","fee":"no","charge":null,"access":"yes","wheelchair":"no","opening_hours":"24/7","operator":"Ville de Lyon","description":null,"password":null}},{"type":"Feature","geometry":{"type":"Point","coordinates":[4.8236592,45.7444204]},"properties":{"id":"node/257109600","source":"osm","name":"Sanitaire Public de la Place de l’Hippodrome","fee":"no","charge":null,"access":"yes","wheelchair":"yes","opening_hours":"Mo-Su 05:00-22:00","operator":"Ville de Lyon","description":null,"password":null}},{"type":"Feature","geometry":{"type":"Point","coordinates":[4.8568753,45.7703351]},"properties":{"id":"node/262998572","source":"osm","name":"Sanitaire Public du Square du Capitaine Billon","fee":"no","charge":null,"access":"yes","wheelchair":"yes","opening_hours":"Mo-Su 05:00-22:00","operator":"Ville de Lyon","description":null,"password":null}},{"type":"Feature","geometry":{"type":"Point","coordinates":[4.823567,45.7741561]},"properties":{"id":"node/273529893","source":"osm","name":null,"fee":"no","charge":null,"access":"yes","wheelchair":"yes","opening_hours":"Mo-Su 05:00-22:00","operator":"Ville de Lyon","description":"Sanitaire Public de la Place Édouard Millaud","password":null}},{"type":"Feature","geometry":{"type":"Point","coordinates":[4.8270946,45.7511993]},"properties":{"id":"node/355958596","source":"osm","name":"Sanitaire Public de la Place Carnot","fee":"no","charge":null,"access":"yes","wheelchair":"yes","opening_hours":"Mo-Su 06:00-02:00","operator":"Ville de Lyon","description":null,"password":null}},{"type":"Feature","geometry":{"type":"Point","coordinates":[4.8480611,45.7489473]},"properties":{"id":"node/356344919","source":"osm","name":"Sanitaire Public de la Place Saint-Louis","fee":"no","charge":null,"access":"yes","wheelchair":"yes","opening_hours":"Mo-Su 05:00-22:00","operator":"Ville de Lyon","description":null,"password":null}},{"type":"Feature","geometry":{"type":"Point","coordinates":[4.8549794,45.7530037]},"properties":{"id":"node/362773771","source":"osm","name":"Sanitaire Public de la Place de Bir Hakeim","fee":"no","charge":null,"access":"yes","wheelchair":"yes","opening_hours":"Mo-Su 06:00-02:00","operator":"Ville de Lyon","description":null,"password":null}},{"type":"Feature","geometry":{"type":"Point","coordinates":[4.8436067,45.7766215]},"properties":{"id":"node/362797261","source":"osm","name":"Sanitaire Public de l’Avenue de Grande-Bretagne","fee":"no","charge":null,"access":"yes","wheelchair":"yes","opening_hours":"Mo-Su 06:00-02:00","operator":"Ville de Lyon","description":null,"password":null}},{"type":"Feature","geometry":{"type":"Point","coordinates":[4.831406,45.7620722]},"properties":{"id":"node/363769885","source":"osm","name":"Sanitaire Public du Quai Saint-Antoine","fee":"no","charge":null,"access":"yes","wheelchair":"yes","opening_hours":"24/7","operator":"Ville de Lyon","description":null,"password":null}},{"type":"Feature","geometry":{"type":"Point","coordinates":[4.8304508,45.7603524]},"properties":{"id":"node/363769905","source":"osm","name":"Sanitaire Public du Quai des Célestins","fee":"yes","charge":null,"access":"yes","wheelchair":"yes","opening_hours":"24/7","operator":"Ville de Lyon","description":null,"password":null}},{"type":"Feature","geometry":{"type":"Point","coordinates":[4.8081362,45.7733292]},"properties":{"id":"node/410296259","source":"osm","name":"Sanitaire Public de la Place Vanderpol","fee":"no","charge":null,"access":"yes","wheelchair":"yes","opening_hours":"Mo-Su 06:00-02:00","operator":"Ville de Lyon","description":null,"password":null}},{"type":"Feature","geometry":{"type":"Point","coordinates":[4.8617571,45.7626354]},"properties":{"id":"node/434018016","source":"osm","name":"Sanitaire Public de la Rue de la Villette","fee":"no","charge":null,"access":"yes","wheelchair":"no","opening_hours":"Mo-Su 05:00-22:00","operator":"Ville de Lyon","description":null,"password":null}},{"type":"Feature","geometry":{"type":"Point","coordinates":[4.8532281,45.7569064]},"properties":{"id":"node/434018029","source":"osm","name":null,"fee":"no","charge":null,"access":"yes","wheelchair":"yes","opening_hours":"Mo-Su 06:00-02:00","operator":"Ville de Lyon","description":null,"password":null}},{"type":"Feature","geometry":{"type":"Point","coordinates":[4.8455927,45.7599387]},"properties":{"id":"node/534114167","source":"osm","name":"Sanitaire Public de l’Avenue du Maréchal de Saxe","fee":"no","charge":null,"access":"yes","wheelchair":"yes","opening_hours":"Mo-Su 06:00-02:00","operator":"Ville de Lyon","description":null,"password":null}},{"type":"Feature","geometry":{"type":"Point","coordinates":[4.8444152,45.7712701]},"properties":{"id":"node/639615062","source":"osm","name":"Sanitaire Public de la Place Puvis de Chavannes","fee":"no","charge":null,"access":"yes","wheelchair":"yes","opening_hours":"Mo-Su 06:00-02:00","operator":"Ville de Lyon","description":null,"password":null}},{"type":"Feature","geometry":{"type":"Point","coordinates":[4.8459002,45.7650264]},"properties":{"id":"node/639616513","source":"osm","name":"Sanitaire Public de la Rue Vendôme","fee":"no","charge":null,"access":"yes","wheelchair":"yes","opening_hours":"Mo-Su 05:00-22:00","operator":"Ville de Lyon","description":null,"password":null}},{"type":"Feature","geometry":{"type":"Point","coordinates":[4.8477248,45.7593125]},"properties":{"id":"node/639641294","source":"osm","name":"Sanitaire Public de la Place Guichard","fee":"no","charge":null,"access":"yes","wheelchair":"yes","opening_hours":"Mo-Su 06:00-22:00","operator":"Ville de Lyon","description":null,"password":null}},{"type":"Feature","geometry":{"type":"Point","coordinates":[4.8619475,45.753788]},"properties":{"id":"node/924091166","source":"osm","name":null,"fee":"no","charge":null,"access":null,"wheelchair":"yes","opening_hours":null,"operator":null,"description":null,"password":null}},{"type":"Feature","geometry":{"type":"Point","coordinates":[4.8210085,45.7592539]},"properties":{"id":"node/975480675","source":"osm","name":null,"fee":"no","charge":null,"access":null,"wheelchair":"yes","opening_hours":null,"operator":null,"description":null,"password":null}},{"type":"Feature","geometry":{"type":"Point","coordinates":[4.8265739,45.774548]},"properties":{"id":"node/987566590","source":"osm","name":null,"fee":"no","charge":null,"access":"yes","wheelchair":"yes","opening_hours":"24/7","operator":"Ville de Lyon","description":null,"password":null}},{"type":"Feature","geometry":{"type":"Point","coordinates":[4.8445497,45.7500088]},"properties":{"id":"node/1029543030","source":"osm","name":"Sanitaire Public de la Rue Saint-Jérôme","fee":"no","charge":null,"access":"yes","wheelchair":"yes","opening_hours":"Mo-Su 06:00-02:00","operator":"Ville de Lyon","description":null,"password":null}},{"type":"Feature","geometry":{"type":"Point","coordinates":[4.8099247,45.7734122]},"properties":{"id":"node/1099868525","source":"osm","name":"Sanitaire Public du Quai Arloing","fee":"no","charge":null,"access":"yes","wheelchair":"yes","opening_hours":"Mo-Su 06:00-02:00","operator":"Ville de Lyon","description":null,"password":null}},{"type":"Feature","geometry":{"type":"Point","coordinates":[4.8227395,45.762978]},"properties":{"id":"node/1226412827","source":"osm","name":null,"fee":"no","charge":null,"access":"yes","wheelchair":"yes","opening_hours":"07:00-20:00","operator":null,"description":null,"password":null}},{"type":"Feature","geometry":{"type":"Point","coordinates":[4.843397,45.7560456]},"properties":{"id":"node/1361340483","source":"osm","name":"Sanitaire Public de la Place Pierre-Simon Ballanche","fee":"no","charge":null,"access":"permissive","wheelchair":"yes","opening_hours":"Mo-Su 10:00-18:00","operator":"Ville de Lyon","description":null,"password":null}},{"type":"Feature","geometry":{"type":"Point","coordinates":[4.8780017,45.7275214]},"properties":{"id":"node/1385071389","source":"osm","name":null,"fee":"no","charge":null,"access":"yes","wheelchair":"yes","opening_hours":"24/7","operator":null,"description":null,"password":null}},{"type":"Feature","geometry":{"type":"Point","coordinates":[4.807096,45.7549684]},"properties":{"id":"node/1432580428","source":"osm","name":"Sanitaire Public du Square Jean Tricou","fee":"no","charge":null,"access":"yes","wheelchair":"yes","opening_hours":"Mo-Su 05:00-22:00","operator":"Ville de Lyon","description":null,"password":null}},{"type":"Feature","geometry":{"type":"Point","coordinates":[4.8660106,45.763827]},"properties":{"id":"node/1460468629","source":"osm","name":"Sanitaire Public du Cours Lafayette","fee":"no","charge":null,"access":"yes","wheelchair":"yes","opening_hours":"Mo-Su 06:00-02:00","operator":"Ville de Lyon","description":null,"password":null}},{"type":"Feature","geometry":{"type":"Point","coordinates":[4.8252719,45.7799439]},"properties":{"id":"node/1561071669","source":"osm","name":"Sanitaire Public du Square Hénon","fee":"no","charge":null,"access":"yes","wheelchair":"no","opening_hours":"24/7","operator":"Ville de Lyon","description":null,"password":null}},{"type":"Feature","geometry":{"type":"Point","coordinates":[4.8480798,45.7642915]},"properties":{"id":"node/1785407405","source":"osm","name":"Sanitaire Public du Square Louis Blanc","fee":"no","charge":null,"access":"yes","wheelchair":"yes","opening_hours":"24/7","operator":"Ville de Lyon","description":null,"password":null}},{"type":"Feature","geometry":{"type":"Point","coordinates":[4.8395206,45.7552993]},"properties":{"id":"node/1789286442","source":"osm","name":null,"fee":"no","charge":null,"access":null,"wheelchair":"no","opening_hours":null,"operator":null,"description":null,"password":null}},{"type":"Feature","geometry":{"type":"Point","coordinates":[4.7872307,45.7561184]},"properties":{"id":"node/1852659176","source":"osm","name":null,"fee":"no","charge":null,"access":"yes","wheelchair":"yes","opening_hours":null,"operator":"Ville de Lyon","description":null,"password":null}},{"type":"Feature","geometry":{"type":"Point","coordinates":[4.8348116,45.779685]},"properties":{"id":"node/1866962212","source":"osm","name":"Sanitaire Public de la Place du Commandant Arnaud","fee":"no","charge":null,"access":"yes","wheelchair":"yes","opening_hours":"Mo-Su 05:00-22:00","operator":"Ville de Lyon","description":null,"password":null}},{"type":"Feature","geometry":{"type":"Point","coordinates":[4.8632057,45.7464937]},"properties":{"id":"node/1904126100","source":"osm","name":null,"fee":"no","charge":null,"access":null,"wheelchair":"yes","opening_hours":null,"operator":null,"description":null,"password":null}},{"type":"Feature","geometry":{"type":"Point","coordinates":[4.8545154,45.7725409]},"properties":{"id":"node/1952405371","source":"osm","name":"Sanitaire Public de l’Avenue Verguin","fee":"no","charge":null,"access":"yes","wheelchair":"yes","opening_hours":"Mo-Su 05:00-22:00","operator":"Ville de Lyon","description":null,"password":null}},{"type":"Feature","geometry":{"type":"Point","coordinates":[4.8295891,45.7680133]},"properties":{"id":"node/1975521478","source":"osm","name":"Sanitaire Public de la Place Gabriel Rambaud","fee":"no","charge":null,"access":"yes","wheelchair":"yes","opening_hours":"Mo-Su 00:00+","operator":"Ville de Lyon","description":null,"password":null}},{"type":"Feature","geometry":{"type":"Point","coordinates":[4.834092,45.7709299]},"properties":{"id":"node/2078750070","source":"osm","name":null,"fee":"no","charge":null,"access":null,"wheelchair":"yes","opening_hours":null,"operator":null,"description":null,"password":null}},{"type":"Feature","geometry":{"type":"Point","coordinates":[4.8413827,45.7654487]},"properties":{"id":"node/2094121587","source":"osm","name":"Sanitaire Public du Quai du Général Sarrail","fee":"no","charge":null,"access":"yes","wheelchair":"yes","opening_hours":"Mo-Su 06:00-02:00","operator":"Ville de Lyon","description":null,"password":null}},{"type":"Feature","geometry":{"type":"Point","coordinates":[4.8407031,45.7589249]},"properties":{"id":"node/2094121929","source":"osm","name":"Sanitaire Public du 19 Quai Victor Augagneur","fee":"no","charge":null,"access":"yes","wheelchair":"yes","opening_hours":"Mo-Su 06:00-02:00","operator":"Ville de Lyon","description":null,"password":null}},{"type":"Feature","geometry":{"type":"Point","coordinates":[4.8053037,45.7811273]},"properties":{"id":"node/2113305197","source":"osm","name":null,"fee":"no","charge":null,"access":null,"wheelchair":"yes","opening_hours":null,"operator":null,"description":null,"password":null}},{"type":"Feature","geometry":{"type":"Point","coordinates":[4.8452784,45.7570988]},"properties":{"id":"node/2180292442","source":"osm","name":null,"fee":"no","charge":null,"access":null,"wheelchair":"yes","opening_hours":null,"operator":null,"description":null,"password":null}},{"type":"Feature","geometry":{"type":"Point","coordinates":[4.8270376,45.7727923]},"properties":{"id":"node/2274488993","source":"osm","name":"Sanitaire Public du Parc Sutter","fee":"no","charge":null,"access":"yes","wheelchair":"no","opening_hours":"Oct 1-Apr 30 08:00-19:00; May 1-Sep 30 08:00-22:00","operator":"Ville de Lyon","description":null,"password":null}},{"type":"Feature","geometry":{"type":"Point","coordinates":[4.8209995,45.7590735]},"properties":{"id":"node/2304478589","source":"osm","name":null,"fee":"no","charge":null,"access":null,"wheelchair":null,"opening_hours":null,"operator":null,"description":null,"password":null}},{"type":"Feature","geometry":{"type":"Point","coordinates":[4.828917,45.7742874]},"properties":{"id":"node/2356915396","source":"osm","name":null,"fee":"no","charge":null,"access":"yes","wheelchair":"yes","opening_hours":"Mo-Su 06:00-02:00","operator":"Ville de Lyon","description":null,"password":null}},{"type":"Feature","geometry":{"type":"Point","coordinates":[4.8111548,45.7870652]},"properties":{"id":"node/2383842342","source":"osm","name":"Sanitaire Public du Jardin des Saules","fee":"no","charge":null,"access":"yes","wheelchair":"yes","opening_hours":"24/7","operator":"Ville de Lyon","description":null,"password":null}},{"type":"Feature","geometry":{"type":"Point","coordinates":[4.8411318,45.7616677]},"properties":{"id":"node/2457655444","source":"osm","name":"Sanitaire Public du 4 Quai Victor Augagneur","fee":"no","charge":null,"access":"yes","wheelchair":"yes","opening_hours":"Mo-Su 06:00-02:00","operator":"Ville de Lyon","description":null,"password":null}},{"type":"Feature","geometry":{"type":"Point","coordinates":[4.7903159,45.7600105]},"properties":{"id":"node/2461557902","source":"osm","name":null,"fee":"no","charge":null,"access":"yes","wheelchair":"yes","opening_hours":null,"operator":null,"description":null,"password":null}},{"type":"Feature","geometry":{"type":"Point","coordinates":[4.7968245,45.7637774]},"properties":{"id":"node/2472261699","source":"osm","name":"Sanitaire Public de l’Avenue Barthélemy Buyer","fee":"no","charge":null,"access":"yes","wheelchair":"yes","opening_hours":"Mo-Su 05:00-22:00","operator":"Ville de Lyon","description":null,"password":null}},{"type":"Feature","geometry":{"type":"Point","coordinates":[4.8286684,45.7532383]},"properties":{"id":"node/2476993866","source":"osm","name":"Sanitaire Public de la Place Ampère","fee":"no","charge":null,"access":"yes","wheelchair":"yes","opening_hours":"Mo-Su 06:00-02:00","operator":"Ville de Lyon","description":null,"password":null}},{"type":"Feature","geometry":{"type":"Point","coordinates":[4.8261203,45.7560027]},"properties":{"id":"node/2476993918","source":"osm","name":"Sanitaire Public du Quai de Tilsitt","fee":"no","charge":null,"access":"yes","wheelchair":"yes","opening_hours":"Mo-Su 06:00-02:00","operator":"Ville de Lyon","description":null,"password":null}},{"type":"Feature","geometry":{"type":"Point","coordinates":[4.8041517,45.7667908]},"properties":{"id":"node/2507941374","source":"osm","name":null,"fee":null,"charge":null,"access":null,"wheelchair":null,"opening_hours":null,"operator":null,"description":null,"password":null}},{"type":"Feature","geometry":{"type":"Point","coordinates":[4.8155663,45.7591527]},"properties":{"id":"node/2600713657","source":"osm","name":null,"fee":"no","charge":null,"access":"yes","wheelchair":"no","opening_hours":null,"operator":null,"description":null,"password":null}},{"type":"Feature","geometry":{"type":"Point","coordinates":[4.8419382,45.7459519]},"properties":{"id":"node/2600872734","source":"osm","name":"Sanitaire Public de la Place Jean Macé","fee":"no","charge":null,"access":"yes","wheelchair":"yes","opening_hours":"Mo-Su 06:00-22:00","operator":"Ville de Lyon","description":null,"password":null}},{"type":"Feature","geometry":{"type":"Point","coordinates":[4.8664896,45.7302677]},"properties":{"id":"node/2606839831","source":"osm","name":"Sanitaire Public de la Place du 8 Mai 1945 Nord-Est","fee":"no","charge":null,"access":"yes","wheelchair":"yes","opening_hours":"24/7","operator":"Ville de Lyon","description":null,"password":null}},{"type":"Feature","geometry":{"type":"Point","coordinates":[4.8205706,45.7680397]},"properties":{"id":"node/2637312979","source":"osm","name":"Sanitaire Public du Quai Saint-Vincent","fee":"no","charge":null,"access":"yes","wheelchair":"yes","opening_hours":"Mo-Su 05:00-22:00","operator":"Ville de Lyon","description":null,"password":null}},{"type":"Feature","geometry":{"type":"Point","coordinates":[4.8248041,45.7581244]},"properties":{"id":"node/2749210882","source":"osm","name":null,"fee":"no","charge":null,"access":"yes","wheelchair":"yes","opening_hours":null,"operator":null,"description":null,"password":null}},{"type":"Feature","geometry":{"type":"Point","coordinates":[4.8087375,45.7802096]},"properties":{"id":"node/2768801836","source":"osm","name":"Sanitaire Public du Quai de la Gare d’Eau","fee":"no","charge":null,"access":"yes","wheelchair":"yes","opening_hours":"Mo-Su 05:00-22:00","operator":"Ville de Lyon","description":null,"password":null}},{"type":"Feature","geometry":{"type":"Point","coordinates":[4.8328695,45.7569893]},"properties":{"id":"node/2782648704","source":"osm","name":"Sanitaire Public de la Place Bellecour","fee":"no","charge":null,"access":"yes","wheelchair":"yes","opening_hours":"Mo-Su 08:00-19:30","operator":"Ville de Lyon","description":null,"password":null}},{"type":"Feature","geometry":{"type":"Point","coordinates":[4.854027,45.7461721]},"properties":{"id":"node/2864224259","source":"osm","name":null,"fee":"no","charge":null,"access":"yes","wheelchair":"yes","opening_hours":null,"operator":null,"description":null,"password":null}},{"type":"Feature","geometry":{"type":"Point","coordinates":[4.7921213,45.7792587]},"properties":{"id":"node/2922542953","source":"osm","name":null,"fee":null,"charge":null,"access":"yes","wheelchair":"yes","opening_hours":null,"operator":null,"description":null,"password":null}},{"type":"Feature","geometry":{"type":"Point","coordinates":[4.8855896,45.7293259]},"properties":{"id":"node/2963872211","source":"osm","name":null,"fee":"no","charge":null,"access":"yes","wheelchair":null,"opening_hours":null,"operator":null,"description":null,"password":null}},{"type":"Feature","geometry":{"type":"Point","coordinates":[4.8523424,45.7264438]},"properties":{"id":"node/3043559494","source":"osm","name":null,"fee":"no","charge":null,"access":null,"wheelchair":"yes","opening_hours":null,"operator":null,"description":null,"password":null}},{"type":"Feature","geometry":{"type":"Point","coordinates":[4.815856,45.7574285]},"properties":{"id":"node/3046205812","source":"osm","name":"Sanitaire Public de la Place du Père François Varillon","fee":"no","charge":null,"access":"yes","wheelchair":"yes","opening_hours":"Mo-Su 06:00-02:00","operator":"Ville de Lyon","description":null,"password":null}},{"type":"Feature","geometry":{"type":"Point","coordinates":[4.8840942,45.7541642]},"properties":{"id":"node/3065611123","source":"osm","name":null,"fee":"no","charge":null,"access":"no","wheelchair":"no","opening_hours":"24/7","operator":null,"description":null,"password":null}},{"type":"Feature","geometry":{"type":"Point","coordinates":[4.8312629,45.7969871]},"properties":{"id":"node/3161195231","source":"osm","name":"Sanitaire public du jardin de l’Île Barbe","fee":"no","charge":null,"access":"yes","wheelchair":"no","opening_hours":"Mo-Su 05:00-22:00","operator":"Ville de Lyon","description":null,"password":null}},{"type":"Feature","geometry":{"type":"Point","coordinates":[4.8107786,45.7764408]},"properties":{"id":"node/3190099821","source":"osm","name":null,"fee":"no","charge":null,"access":null,"wheelchair":"yes","opening_hours":null,"operator":null,"description":null,"password":null}},{"type":"Feature","geometry":{"type":"Point","coordinates":[4.8044492,45.7789714]},"properties":{"id":"node/3354698297","source":"osm","name":"Sanitaire Public de la Place de Paris","fee":"no","charge":null,"access":"yes","wheelchair":"yes","opening_hours":"Mo-Su 06:00-02:00","operator":"Ville de Lyon","description":null,"password":null}},{"type":"Feature","geometry":{"type":"Point","coordinates":[4.7919331,45.7838502]},"properties":{"id":"node/3380175916","source":"osm","name":null,"fee":"no","charge":null,"access":"yes","wheelchair":"yes","opening_hours":null,"operator":null,"description":null,"password":null}},{"type":"Feature","geometry":{"type":"Point","coordinates":[4.8431634,45.7522029]},"properties":{"id":"node/3405755405","source":"osm","name":null,"fee":"no","charge":null,"access":"yes","wheelchair":"yes","opening_hours":null,"operator":null,"description":null,"password":null}},{"type":"Feature","geometry":{"type":"Point","coordinates":[4.8576535,45.7400129]},"properties":{"id":"node/3444405418","source":"osm","name":null,"fee":null,"charge":null,"access":null,"wheelchair":null,"opening_hours":null,"operator":null,"description":null,"password":null}},{"type":"Feature","geometry":{"type":"Point","coordinates":[4.857692,45.7400004]},"properties":{"id":"node/3444405440","source":"osm","name":null,"fee":null,"charge":null,"access":null,"wheelchair":null,"opening_hours":null,"operator":null,"description":null,"password":null}},{"type":"Feature","geometry":{"type":"Point","coordinates":[4.8123105,45.7614916]},"properties":{"id":"node/3455394909","source":"osm","name":null,"fee":"no","charge":null,"access":"yes","wheelchair":"yes","opening_hours":null,"operator":null,"description":null,"password":null}},{"type":"Feature","geometry":{"type":"Point","coordinates":[4.8247964,45.7228473]},"properties":{"id":"node/3474591920","source":"osm","name":"Sanitaire Public du Parc de Gerland Police","fee":"no","charge":null,"access":"yes","wheelchair":"yes","opening_hours":"We,Sa,Su 10:00-17:00; Apr-May SH 10:00-17:00; Jul-Aug: Mo-Su 10:00-17:00","operator":"Ville de Lyon","description":null,"password":null}},{"type":"Feature","geometry":{"type":"Point","coordinates":[4.8230708,45.7473065]},"properties":{"id":"node/3637297363","source":"osm","name":"Sanitaire Public du Cours Suchet","fee":"no","charge":null,"access":"yes","wheelchair":"no","opening_hours":"24/7","operator":"Ville de Lyon","description":null,"password":null}},{"type":"Feature","geometry":{"type":"Point","coordinates":[4.8530411,45.766884]},"properties":{"id":"node/3896149963","source":"osm","name":"Sanitaire Public de la Place Jacques Elmaleh","fee":"no","charge":null,"access":"yes","wheelchair":"yes","opening_hours":"Mo-Su 06:00-02:00","operator":"Ville de Lyon","description":null,"password":null}},{"type":"Feature","geometry":{"type":"Point","coordinates":[4.8202906,45.7794309]},"properties":{"id":"node/4215903708","source":"osm","name":"Sanitaire Public de la Place Camille Flammarion","fee":"no","charge":null,"access":"yes","wheelchair":"yes","opening_hours":"Mo-Su 05:00-22:00","operator":"Ville de Lyon","description":null,"password":null}},{"type":"Feature","geometry":{"type":"Point","coordinates":[4.8559873,45.7854999]},"properties":{"id":"node/4377086591","source":"osm","name":"28","fee":"no","charge":null,"access":"yes","wheelchair":"yes","opening_hours":null,"operator":null,"description":null,"password":null}},{"type":"Feature","geometry":{"type":"Point","coordinates":[4.8538702,45.7343459]},"properties":{"id":"node/4388680599","source":"osm","name":"Sanitaire Public de la Place Belleville","fee":"no","charge":null,"access":"yes","wheelchair":"yes","opening_hours":"24/7","operator":"Ville de Lyon","description":null,"password":null}},{"type":"Feature","geometry":{"type":"Point","coordinates":[4.8508775,45.7630555]},"properties":{"id":"node/4427432402","source":"osm","name":null,"fee":"no","charge":null,"access":"yes","wheelchair":"limited","opening_hours":null,"operator":null,"description":null,"password":null}},{"type":"Feature","geometry":{"type":"Point","coordinates":[4.8314164,45.7651786]},"properties":{"id":"node/4655313805","source":"osm","name":"Sanitaire Public du Quai de la Pêcherie","fee":"no","charge":null,"access":"yes","wheelchair":"yes","opening_hours":"Mo-Su 06:00-24:00","operator":"Ville de Lyon","description":null,"password":null}},{"type":"Feature","geometry":{"type":"Point","coordinates":[4.8831366,45.7323408]},"properties":{"id":"node/4969891890","source":"osm","name":"Sanitaire Public de la Place Marc Sangnier","fee":"no","charge":null,"access":"yes","wheelchair":"yes","opening_hours":"Mo-Su 05:00-22:00","operator":"Ville de Lyon","description":null,"password":null}},{"type":"Feature","geometry":{"type":"Point","coordinates":[4.834752,45.7753428]},"properties":{"id":"node/5154025105","source":"osm","name":"Sanitaire Public de la Rue Aimé Boussange","fee":"no","charge":null,"access":"yes","wheelchair":"yes","opening_hours":"Mo-Su 06:00-02:00","operator":"Ville de Lyon","description":null,"password":null}},{"type":"Feature","geometry":{"type":"Point","coordinates":[4.8346174,45.7722636]},"properties":{"id":"node/5154025106","source":"osm","name":"Sanitaire Public de la Place Colbert","fee":"no","charge":null,"access":"yes","wheelchair":"no","opening_hours":"Mo-Su 05:00-22:00","operator":"Ville de Lyon","description":null,"password":null}},{"type":"Feature","geometry":{"type":"Point","coordinates":[4.877503,45.7477869]},"properties":{"id":"node/5314752167","source":"osm","name":null,"fee":"no","charge":null,"access":null,"wheelchair":"yes","opening_hours":null,"operator":null,"description":null,"password":null}},{"type":"Feature","geometry":{"type":"Point","coordinates":[4.8774662,45.7477927]},"properties":{"id":"node/5314752168","source":"osm","name":null,"fee":"no","charge":null,"access":null,"wheelchair":"yes","opening_hours":null,"operator":null,"description":null,"password":null}},{"type":"Feature","geometry":{"type":"Point","coordinates":[4.8217633,45.7220922]},"properties":{"id":"node/5535738586","source":"osm","name":null,"fee":"no","charge":null,"access":"yes","wheelchair":"yes","opening_hours":null,"operator":null,"description":"Toilettes sèches","password":null}},{"type":"Feature","geometry":{"type":"Point","coordinates":[4.834509,45.7493628]},"properties":{"id":"node/5600088677","source":"osm","name":null,"fee":"no","charge":null,"access":null,"wheelchair":"no","opening_hours":null,"operator":null,"description":null,"password":null}},{"type":"Feature","geometry":{"type":"Point","coordinates":[4.8425606,45.768765]},"properties":{"id":"node/5866213297","source":"osm","name":"Sanitaire Public de la Place du Maréchal Lyautey","fee":"no","charge":null,"access":"yes","wheelchair":"yes","opening_hours":"Mo-Su 06:00-02:00","operator":"Ville de Lyon","description":null,"password":null}},{"type":"Feature","geometry":{"type":"Point","coordinates":[4.8237769,45.7428701]},"properties":{"id":"node/5947847664","source":"osm","name":"Sanitaire Public du Cours Bayard","fee":"no","charge":null,"access":"yes","wheelchair":"yes","opening_hours":"05:00-22:00","operator":"Ville de Lyon","description":null,"password":null}},{"type":"Feature","geometry":{"type":"Point","coordinates":[4.8345643,45.7394751]},"properties":{"id":"node/5988526324","source":"osm","name":null,"fee":"no","charge":null,"access":null,"wheelchair":"yes","opening_hours":null,"operator":null,"description":null,"password":null}},{"type":"Feature","geometry":{"type":"Point","coordinates":[4.8504093,45.7622412]},"properties":{"id":"node/6227204691","source":"osm","name":null,"fee":"no","charge":null,"access":null,"wheelchair":"no","opening_hours":null,"operator":null,"description":null,"password":null}},{"type":"Feature","geometry":{"type":"Point","coordinates":[4.8502446,45.7631665]},"properties":{"id":"node/6236464774","source":"osm","name":null,"fee":"no","charge":null,"access":"yes","wheelchair":null,"opening_hours":null,"operator":null,"description":null,"password":null}},{"type":"Feature","geometry":{"type":"Point","coordinates":[4.8239261,45.7693977]},"properties":{"id":"node/6282768738","source":"osm","name":"Sanitaire Public du 49 Cours du Général Giraud","fee":"no","charge":null,"access":"yes","wheelchair":"yes","opening_hours":"Mo-Su 06:00-02:00","operator":"Ville de Lyon","description":null,"password":null}},{"type":"Feature","geometry":{"type":"Point","coordinates":[4.8877248,45.7444429]},"properties":{"id":"node/6339822678","source":"osm","name":"Sanitaire Public du Cours Eugénie","fee":"no","charge":null,"access":"yes","wheelchair":"no","opening_hours":"24/7","operator":"Ville de Lyon","description":null,"password":null}},{"type":"Feature","geometry":{"type":"Point","coordinates":[4.8683838,45.7371833]},"properties":{"id":"node/6339827281","source":"osm","name":"Sanitaire Public de la Place du 11 Novembre 1918","fee":"no","charge":null,"access":"yes","wheelchair":"yes","opening_hours":"Mo-Su 06:00-02:00","operator":"Ville de Lyon","description":null,"password":null}},{"type":"Feature","geometry":{"type":"Point","coordinates":[4.7958107,45.7863962]},"properties":{"id":"node/6347493282","source":"osm","name":"Sanitaire Public de la Place de l’Abbé Pierre","fee":"no","charge":null,"access":"yes","wheelchair":"yes","opening_hours":"Mo-Su 05:00-22:00","operator":"Ville de Lyon","description":null,"password":null}},{"type":"Feature","geometry":{"type":"Point","coordinates":[4.8790233,45.7435968]},"properties":{"id":"node/6347574720","source":"osm","name":"Sanitaire Public de la Place d’Arsonval","fee":"no","charge":null,"access":"yes","wheelchair":null,"opening_hours":"Mo-Su 05:00-22:00","operator":"Ville de Lyon","description":null,"password":null}},{"type":"Feature","geometry":{"type":"Point","coordinates":[4.8186764,45.7558728]},"properties":{"id":"node/6347601124","source":"osm","name":null,"fee":"no","charge":null,"access":"yes","wheelchair":"no","opening_hours":"24/7","operator":"Ville de Lyon","description":null,"password":null}},{"type":"Feature","geometry":{"type":"Point","coordinates":[4.8319861,45.7295578]},"properties":{"id":"node/6353854733","source":"osm","name":"Sanitaire Public du Square Monseigneur Alfred Ancel","fee":"no","charge":null,"access":"yes","wheelchair":"yes","opening_hours":"Mo-Su 08:00-19:00","operator":"Ville de Lyon","description":null,"password":null}},{"type":"Feature","geometry":{"type":"Point","coordinates":[4.8661363,45.7303508]},"properties":{"id":"node/6353862898","source":"osm","name":"Sanitaire Public de la Place 8 Mai 1945 Nord-Ouest","fee":"no","charge":null,"access":"yes","wheelchair":null,"opening_hours":"24/7","operator":"Ville de Lyon","description":null,"password":null}},{"type":"Feature","geometry":{"type":"Point","coordinates":[4.8302192,45.7986378]},"properties":{"id":"node/6353873320","source":"osm","name":"Sanitaire Public de la Place Henri Barbusse","fee":"no","charge":null,"access":"yes","wheelchair":"no","opening_hours":"24/7","operator":"Ville de Lyon","description":null,"password":null}},{"type":"Feature","geometry":{"type":"Point","coordinates":[4.8400313,45.7796078]},"properties":{"id":"node/6353987084","source":"osm","name":"Sanitaire Public de la Rue Eugène Pons","fee":"no","charge":null,"access":"yes","wheelchair":"no","opening_hours":"24/7","operator":"Ville de Lyon","description":null,"password":null}},{"type":"Feature","geometry":{"type":"Point","coordinates":[4.7962141,45.7634092]},"properties":{"id":"node/6354012939","source":"osm","name":"Sanitaire Public Parc Champvert","fee":"no","charge":null,"access":"yes","wheelchair":null,"opening_hours":"Oct 1-Apr 30 08:00-19:00; May 1-Sep 30 08:00-22:00","operator":"Ville de Lyon","description":null,"password":null}},{"type":"Feature","geometry":{"type":"Point","coordinates":[4.8366615,45.7747314]},"properties":{"id":"node/6354026083","source":"osm","name":"Sanitaire Public de la Montée du Boulevard","fee":"no","charge":null,"access":"yes","wheelchair":"no","opening_hours":"24/7","operator":"Ville de Lyon","description":null,"password":null}},{"type":"Feature","geometry":{"type":"Point","coordinates":[4.7954884,45.7727816]},"properties":{"id":"node/6354037916","source":"osm","name":"Sanitaire Public de l’Avenue Sidoine Apollinaire","fee":"no","charge":null,"access":"yes","wheelchair":"no","opening_hours":"24/7","operator":"Ville de Lyon","description":null,"password":null}},{"type":"Feature","geometry":{"type":"Point","coordinates":[4.8500517,45.7478331]},"properties":{"id":"node/6354053930","source":"osm","name":"Sanitaire Public du Square du Béguin","fee":"no","charge":null,"access":"yes","wheelchair":"no","opening_hours":"Oct 1-Apr 30 08:00-19:00; May 1-Sep 30 08:00-22:00","operator":"Ville de Lyon","description":null,"password":null}},{"type":"Feature","geometry":{"type":"Point","coordinates":[4.8257849,45.732629]},"properties":{"id":"node/6354067554","source":"osm","name":"Sanitaire Public de la Place des Docteurs Charles et Christophe Mérieux","fee":"no","charge":null,"access":"yes","wheelchair":"yes","opening_hours":"24/7","operator":"Ville de Lyon","description":null,"password":null}},{"type":"Feature","geometry":{"type":"Point","coordinates":[4.8202066,45.7689107]},"properties":{"id":"node/6365101376","source":"osm","name":"Sanitaire Public du 35 Cours du Général Giraud","fee":"no","charge":null,"access":"yes","wheelchair":"no","opening_hours":"24/7","operator":"Ville de Lyon","description":null,"password":null}},{"type":"Feature","geometry":{"type":"Point","coordinates":[4.8228055,45.7488549]},"properties":{"id":"node/6365121347","source":"osm","name":"Sanitaire Public de la Rue Dugas-Montbel","fee":"no","charge":null,"access":"yes","wheelchair":"no","opening_hours":"24/7","operator":"Ville de Lyon","description":null,"password":null}},{"type":"Feature","geometry":{"type":"Point","coordinates":[4.8474415,45.7719324]},"properties":{"id":"node/6376554197","source":"osm","name":"Sanitaire Public de la Rue Félix Jacquier","fee":"no","charge":null,"access":"yes","wheelchair":"yes","opening_hours":"Mo-Su 05:00-22:00","operator":"Ville de Lyon","description":null,"password":null}},{"type":"Feature","geometry":{"type":"Point","coordinates":[4.8647416,45.7570288]},"properties":{"id":"node/6376578748","source":"osm","name":"Sanitaire Public de la Rue Gabillot","fee":"no","charge":null,"access":"yes","wheelchair":"yes","opening_hours":"Mo-Su 06:00-02:00","operator":"Ville de Lyon","description":null,"password":null}},{"type":"Feature","geometry":{"type":"Point","coordinates":[4.8324883,45.7467214]},"properties":{"id":"node/6376740121","source":"osm","name":"Sanitaire Public de l’Avenue Leclerc","fee":"no","charge":null,"access":"yes","wheelchair":"no","opening_hours":"24/7","operator":"Ville de Lyon","description":null,"password":null}},{"type":"Feature","geometry":{"type":"Point","coordinates":[4.8670078,45.7296153]},"properties":{"id":"node/6376747118","source":"osm","name":"Sanitaire Public de la Place du 8 Mai 1945 Sud-Est","fee":"no","charge":null,"access":"yes","wheelchair":null,"opening_hours":"24/7","operator":"Ville de Lyon","description":null,"password":null}},{"type":"Feature","geometry":{"type":"Point","coordinates":[4.7912413,45.7892391]},"properties":{"id":"node/6376750941","source":"osm","name":"Sanitaire Public de la Rue de Beer-Sheva","fee":"no","charge":null,"access":"yes","wheelchair":"yes","opening_hours":"Mo-Su 05:00-22:00","operator":"Ville de Lyon","description":null,"password":null}},{"type":"Feature","geometry":{"type":"Point","coordinates":[4.8266675,45.8018271]},"properties":{"id":"node/6376754654","source":"osm","name":"Sanitaire Public de la Rue des Docteurs Cordier","fee":"no","charge":null,"access":"yes","wheelchair":"yes","opening_hours":"24/7","operator":"Ville de Lyon","description":null,"password":null}},{"type":"Feature","geometry":{"type":"Point","coordinates":[4.7975992,45.78963]},"properties":{"id":"node/6376782482","source":"osm","name":"Sanitaire Public du Boulevard de Balmont","fee":"no","charge":null,"access":"yes","wheelchair":"yes","opening_hours":"Mo-Su 05:00-22:00","operator":"Ville de Lyon","description":null,"password":null}},{"type":"Feature","geometry":{"type":"Point","coordinates":[4.8052393,45.7740081]},"properties":{"id":"node/6376819507","source":"osm","name":"Sanitaire Public de la Place Ferber","fee":"no","charge":null,"access":"yes","wheelchair":"yes","opening_hours":"Mo-Su 06:00-02:00","operator":"Ville de Lyon","description":null,"password":null}},{"type":"Feature","geometry":{"type":"Point","coordinates":[4.83238,45.7754668]},"properties":{"id":"node/6376852358","source":"osm","name":"Sanitaire Public de la Place de la Croix-Rousse","fee":"no","charge":null,"access":"yes","wheelchair":"yes","opening_hours":"Mo-Su 06:00-02:00","operator":"Ville de Lyon","description":null,"password":null}},{"type":"Feature","geometry":{"type":"Point","coordinates":[4.7972982,45.7563011]},"properties":{"id":"node/6376862965","source":"osm","name":null,"fee":"no","charge":null,"access":"yes","wheelchair":"yes","opening_hours":"Mo-Su 06:00-02:00","operator":"Ville de Lyon","description":null,"password":null}},{"type":"Feature","geometry":{"type":"Point","coordinates":[4.8012951,45.7575011]},"properties":{"id":"node/6376869874","source":"osm","name":null,"fee":"no","charge":null,"access":"yes","wheelchair":"yes","opening_hours":"Oct 1-Apr 30 08:00-19:00; May 1-Sep 30 08:00-22:00","operator":"Ville de Lyon","description":null,"password":null}},{"type":"Feature","geometry":{"type":"Point","coordinates":[4.7839515,45.7496339]},"properties":{"id":"node/6376880495","source":"osm","name":null,"fee":"no","charge":null,"access":"yes","wheelchair":"yes","opening_hours":"Mo-Su 00:00-24:00; We 06:00-14:00","operator":"Ville de Lyon","description":null,"password":null}},{"type":"Feature","geometry":{"type":"Point","coordinates":[4.8402444,45.739523]},"properties":{"id":"node/6376964389","source":"osm","name":"Sanitaire Public de la Place Jean Jaurès","fee":"no","charge":null,"access":"yes","wheelchair":"yes","opening_hours":"Mo-Su 05:00-22:00","operator":"Ville de Lyon","description":null,"password":null}},{"type":"Feature","geometry":{"type":"Point","coordinates":[4.821485,45.7248304]},"properties":{"id":"node/6376964558","source":"osm","name":"Sanitaire Public du Parc de Gerland Lycée International","fee":"no","charge":null,"access":"yes","wheelchair":"yes","opening_hours":"Oct 15-Apr 14 06:30-20:30; Apr 15-Oct 14 06:30-22:30","operator":"Ville de Lyon","description":null,"password":null}},{"type":"Feature","geometry":{"type":"Point","coordinates":[4.8403915,45.7618764]},"properties":{"id":"node/6933028266","source":"osm","name":null,"fee":null,"charge":null,"access":"customers","wheelchair":null,"opening_hours":null,"operator":null,"description":null,"password":null}},{"type":"Feature","geometry":{"type":"Point","coordinates":[4.8297654,45.7689189]},"properties":{"id":"node/7212447404","source":"osm","name":null,"fee":null,"charge":null,"access":"private","wheelchair":null,"opening_hours":null,"operator":null,"description":null,"password":null}},{"type":"Feature","geometry":{"type":"Point","coordinates":[4.8139402,45.7779348]},"properties":{"id":"node/7323206365","source":"osm","name":null,"fee":"no","charge":null,"access":null,"wheelchair":null,"opening_hours":null,"operator":null,"description":null,"password":null}},{"type":"Feature","geometry":{"type":"Point","coordinates":[4.8405162,45.7574115]},"properties":{"id":"node/7549176101","source":"osm","name":null,"fee":"no","charge":null,"access":"yes","wheelchair":"yes","opening_hours":null,"operator":"JCDecaux","description":null,"password":null}},{"type":"Feature","geometry":{"type":"Point","coordinates":[4.8290266,45.7660623]},"properties":{"id":"node/8112732134","source":"osm","name":null,"fee":"no","charge":null,"access":null,"wheelchair":"yes","opening_hours":null,"operator":"JCDecaux","description":null,"password":null}},{"type":"Feature","geometry":{"type":"Point","coordinates":[4.8292745,45.7647603]},"properties":{"id":"node/8112736332","source":"osm","name":null,"fee":"no","charge":null,"access":"yes","wheelchair":"yes","opening_hours":null,"operator":"JCDecaux","description":null,"password":null}},{"type":"Feature","geometry":{"type":"Point","coordinates":[4.8358218,45.7610713]},"properties":{"id":"node/8137624857","source":"osm","name":null,"fee":"no","charge":null,"access":"yes","wheelchair":"limited","opening_hours":null,"operator":null,"description":null,"password":null}},{"type":"Feature","geometry":{"type":"Point","coordinates":[4.8566183,45.7418116]},"properties":{"id":"node/9043521161","source":"osm","name":null,"fee":"no","charge":null,"access":null,"wheelchair":"yes","opening_hours":null,"operator":null,"description":null,"password":null}},{"type":"Feature","geometry":{"type":"Point","coordinates":[4.8336651,45.7482781]},"properties":{"id":"node/9087977795","source":"osm","name":null,"fee":"no","charge":null,"access":null,"wheelchair":"no","opening_hours":null,"operator":null,"description":null,"password":null}},{"type":"Feature","geometry":{"type":"Point","coordinates":[4.83745,45.7521019]},"properties":{"id":"node/9217176339","source":"osm","name":null,"fee":"no","charge":null,"access":null,"wheelchair":null,"opening_hours":null,"operator":null,"description":null,"password":null}},{"type":"Feature","geometry":{"type":"Point","coordinates":[4.8412277,45.7566124]},"properties":{"id":"node/9348889189","source":"osm","name":null,"fee":null,"charge":null,"access":"permissive","wheelchair":"yes","opening_hours":null,"operator":"Parking LPA","description":null,"password":null}},{"type":"Feature","geometry":{"type":"Point","coordinates":[4.8452579,45.7570837]},"properties":{"id":"node/9572066122","source":"osm","name":null,"fee":"no","charge":null,"access":null,"wheelchair":"yes","opening_hours":null,"operator":null,"description":null,"password":null}},{"type":"Feature","geometry":{"type":"Point","coordinates":[4.8452931,45.7571106]},"properties":{"id":"node/9572066123","source":"osm","name":null,"fee":"no","charge":null,"access":null,"wheelchair":"yes","opening_hours":null,"operator":null,"description":null,"password":null}},{"type":"Feature","geometry":{"type":"Point","coordinates":[4.8453032,45.75712]},"properties":{"id":"node/9572066124","source":"osm","name":null,"fee":"no","charge":null,"access":null,"wheelchair":"yes","opening_hours":null,"operator":null,"description":null,"password":null}},{"type":"Feature","geometry":{"type":"Point","coordinates":[4.8407061,45.7598295]},"properties":{"id":"node/9631596510","source":"osm","name":null,"fee":null,"charge":null,"access":"yes","wheelchair":null,"opening_hours":null,"operator":null,"description":null,"password":null}},{"type":"Feature","geometry":{"type":"Point","coordinates":[4.8205831,45.7834929]},"properties":{"id":"node/9661152395","source":"osm","name":null,"fee":null,"charge":null,"access":"no","wheelchair":null,"opening_hours":null,"operator":null,"description":null,"password":null}},{"type":"Feature","geometry":{"type":"Point","coordinates":[4.8373842,45.768378]},"properties":{"id":"node/9673206040","source":"osm","name":null,"fee":null,"charge":null,"access":"yes","wheelchair":null,"opening_hours":null,"operator":null,"description":null,"password":null}},{"type":"Feature","geometry":{"type":"Point","coordinates":[4.8373884,45.7683584]},"properties":{"id":"node/9673206041","source":"osm","name":null,"fee":null,"charge":null,"access":"yes","wheelchair":null,"opening_hours":null,"operator":null,"description":null,"password":null}},{"type":"Feature","geometry":{"type":"Point","coordinates":[4.831671,45.7644648]},"properties":{"id":"node/9820563668","source":"osm","name":"Parking LPA Saint Antoine","fee":"yes","charge":null,"access":"permissive","wheelchair":null,"opening_hours":null,"operator":"Lyon Parc Auto","description":null,"password":null}},{"type":"Feature","geometry":{"type":"Point","coordinates":[4.8408898,45.7656746]},"properties":{"id":"node/9831759112","source":"osm","name":null,"fee":"no","charge":null,"access":"yes","wheelchair":"yes","opening_hours":null,"operator":null,"description":null,"password":null}},{"type":"Feature","geometry":{"type":"Point","coordinates":[4.8408047,45.7608848]},"properties":{"id":"node/9834816882","source":"osm","name":null,"fee":"no","charge":null,"access":"yes","wheelchair":null,"opening_hours":null,"operator":null,"description":null,"password":null}},{"type":"Feature","geometry":{"type":"Point","coordinates":[4.8408077,45.7609078]},"properties":{"id":"node/9834816883","source":"osm","name":null,"fee":"no","charge":null,"access":"yes","wheelchair":null,"opening_hours":null,"operator":null,"description":null,"password":null}},{"type":"Feature","geometry":{"type":"Point","coordinates":[4.8409047,45.7656596]},"properties":{"id":"node/9863340925","source":"osm","name":null,"fee":"no","charge":null,"access":"yes","wheelchair":"yes","opening_hours":null,"operator":null,"description":null,"password":null}},{"type":"Feature","geometry":{"type":"Point","coordinates":[4.837359,45.750176]},"properties":{"id":"node/10185484071","source":"osm","name":null,"fee":null,"charge":null,"access":null,"wheelchair":null,"opening_hours":null,"operator":null,"description":null,"password":null}},{"type":"Feature","geometry":{"type":"Point","coordinates":[4.826209,45.7584639]},"properties":{"id":"node/10218858234","source":"osm","name":null,"fee":"yes","charge":null,"access":"yes","wheelchair":"yes","opening_hours":null,"operator":null,"description":null,"password":null}},{"type":"Feature","geometry":{"type":"Point","coordinates":[4.8291608,45.763333]},"properties":{"id":"node/10243446499","source":"osm","name":null,"fee":"no","charge":null,"access":"yes","wheelchair":"yes","opening_hours":null,"operator":null,"description":null,"password":null}},{"type":"Feature","geometry":{"type":"Point","coordinates":[4.8575948,45.7848246]},"properties":{"id":"node/10591726923","source":"osm","name":"27","fee":"no","charge":null,"access":"no","wheelchair":"yes","opening_hours":null,"operator":"TCL","description":null,"password":null}},{"type":"Feature","geometry":{"type":"Point","coordinates":[4.8777162,45.7302491]},"properties":{"id":"node/10784284496","source":"osm","name":null,"fee":"no","charge":null,"access":"yes","wheelchair":"designated","opening_hours":"24/7","operator":null,"description":null,"password":null}},{"type":"Feature","geometry":{"type":"Point","coordinates":[4.840178,45.7557668]},"properties":{"id":"node/10858728875","source":"osm","name":null,"fee":"no","charge":null,"access":null,"wheelchair":"no","opening_hours":null,"operator":null,"description":null,"password":null}},{"type":"Feature","geometry":{"type":"Point","coordinates":[4.8169054,45.780888]},"properties":{"id":"node/11032339823","source":"osm","name":null,"fee":null,"charge":null,"access":null,"wheelchair":null,"opening_hours":null,"operator":null,"description":null,"password":null}},{"type":"Feature","geometry":{"type":"Point","coordinates":[4.816653,45.7414998]},"properties":{"id":"node/11062111825","source":"osm","name":null,"fee":"no","charge":null,"access":"yes","wheelchair":"yes","opening_hours":null,"operator":null,"description":null,"password":null}},{"type":"Feature","geometry":{"type":"Point","coordinates":[4.8552089,45.7446754]},"properties":{"id":"node/11093750417","source":"osm","name":null,"fee":"no","charge":null,"access":null,"wheelchair":"yes","opening_hours":null,"operator":null,"description":null,"password":null}},{"type":"Feature","geometry":{"type":"Point","coordinates":[4.8165748,45.7412396]},"properties":{"id":"node/11288698970","source":"osm","name":null,"fee":"no","charge":null,"access":"yes","wheelchair":"yes","opening_hours":null,"operator":null,"description":null,"password":null}},{"type":"Feature","geometry":{"type":"Point","coordinates":[4.8886697,45.7452531]},"properties":{"id":"node/11338246953","source":"osm","name":null,"fee":null,"charge":null,"access":null,"wheelchair":null,"opening_hours":null,"operator":null,"description":null,"password":null}},{"type":"Feature","geometry":{"type":"Point","coordinates":[4.8850212,45.7492517]},"properties":{"id":"node/11359767871","source":"osm","name":null,"fee":null,"charge":null,"access":"customers","wheelchair":"limited","opening_hours":null,"operator":null,"description":null,"password":null}},{"type":"Feature","geometry":{"type":"Point","coordinates":[4.8425178,45.7687338]},"properties":{"id":"node/11700925638","source":"osm","name":null,"fee":"no","charge":null,"access":"yes","wheelchair":"yes","opening_hours":null,"operator":null,"description":null,"password":null}},{"type":"Feature","geometry":{"type":"Point","coordinates":[4.8607488,45.7472532]},"properties":{"id":"node/11861849776","source":"osm","name":null,"fee":"no","charge":null,"access":null,"wheelchair":null,"opening_hours":null,"operator":null,"description":null,"password":null}},{"type":"Feature","geometry":{"type":"Point","coordinates":[4.8609714,45.7480749]},"properties":{"id":"node/11861849777","source":"osm","name":null,"fee":null,"charge":null,"access":null,"wheelchair":null,"opening_hours":null,"operator":null,"description":null,"password":null}},{"type":"Feature","geometry":{"type":"Point","coordinates":[4.8609044,45.7478587]},"properties":{"id":"node/11862402785","source":"osm","name":null,"fee":null,"charge":null,"access":null,"wheelchair":null,"opening_hours":null,"operator":null,"description":null,"password":null}},{"type":"Feature","geometry":{"type":"Point","coordinates":[4.8176763,45.7375573]},"properties":{"id":"node/12039750577","source":"osm","name":null,"fee":"no","charge":null,"access":null,"wheelchair":"no","opening_hours":"Mo-Su 10:00-20:00","operator":null,"description":null,"password":null}},{"type":"Feature","geometry":{"type":"Point","coordinates":[4.8267272,45.7659625]},"properties":{"id":"node/12124575766","source":"osm","name":null,"fee":"no","charge":null,"access":"customers","wheelchair":"yes","opening_hours":"06:00-22:00","operator":"SNCF","description":null,"password":null}},{"type":"Feature","geometry":{"type":"Point","coordinates":[4.826548,45.7496462]},"properties":{"id":"node/12131006404","source":"osm","name":null,"fee":"no","charge":null,"access":"yes","wheelchair":null,"opening_hours":null,"operator":null,"description":null,"password":null}},{"type":"Feature","geometry":{"type":"Point","coordinates":[4.8629404,45.7546562]},"properties":{"id":"node/12260817347","source":"osm","name":null,"fee":"no","charge":null,"access":null,"wheelchair":"limited","opening_hours":null,"operator":null,"description":null,"password":null}},{"type":"Feature","geometry":{"type":"Point","coordinates":[4.8807534,45.7526734]},"properties":{"id":"node/12351363519","source":"osm","name":null,"fee":"no","charge":null,"access":null,"wheelchair":"yes","opening_hours":null,"operator":null,"description":null,"password":null}},{"type":"Feature","geometry":{"type":"Point","coordinates":[4.8823971,45.7526367]},"properties":{"id":"node/12351363520","source":"osm","name":null,"fee":"no","charge":null,"access":null,"wheelchair":"yes","opening_hours":null,"operator":null,"description":null,"password":null}},{"type":"Feature","geometry":{"type":"Point","coordinates":[4.8297818,45.7684201]},"properties":{"id":"node/12466731023","source":"osm","name":null,"fee":null,"charge":null,"access":"customers","wheelchair":"yes","opening_hours":null,"operator":null,"description":null,"password":null}},{"type":"Feature","geometry":{"type":"Point","coordinates":[4.8406105,45.7581919]},"properties":{"id":"node/12750423664","source":"osm","name":null,"fee":"no","charge":null,"access":"yes","wheelchair":"yes","opening_hours":null,"operator":null,"description":null,"password":null}},{"type":"Feature","geometry":{"type":"Point","coordinates":[4.8087036,45.7820051]},"properties":{"id":"node/12751868504","source":"osm","name":null,"fee":"no","charge":null,"access":null,"wheelchair":"no","opening_hours":null,"operator":null,"description":null,"password":null}},{"type":"Feature","geometry":{"type":"Point","coordinates":[4.7891552,45.7658705]},"properties":{"id":"node/12840098140","source":"osm","name":null,"fee":null,"charge":null,"access":"yes","wheelchair":null,"opening_hours":null,"operator":null,"description":null,"password":null}},{"type":"Feature","geometry":{"type":"Point","coordinates":[4.8366996,45.7491916]},"properties":{"id":"node/12849243912","source":"osm","name":null,"fee":"no","charge":null,"access":"customers","wheelchair":null,"opening_hours":null,"operator":null,"description":null,"password":null}},{"type":"Feature","geometry":{"type":"Point","coordinates":[4.8366078,45.7490891]},"properties":{"id":"node/12849243913","source":"osm","name":null,"fee":"no","charge":null,"access":"customers","wheelchair":"no","opening_hours":null,"operator":null,"description":null,"password":null}},{"type":"Feature","geometry":{"type":"Point","coordinates":[4.8366882,45.7495024]},"properties":{"id":"node/12849243917","source":"osm","name":null,"fee":"no","charge":null,"access":"customers","wheelchair":"yes","opening_hours":null,"operator":null,"description":null,"password":null}},{"type":"Feature","geometry":{"type":"Point","coordinates":[4.8362891,45.7578632]},"properties":{"id":"node/13125257929","source":"osm","name":null,"fee":"no","charge":null,"access":null,"wheelchair":"yes","opening_hours":null,"operator":null,"description":null,"password":null}},{"type":"Feature","geometry":{"type":"Point","coordinates":[4.8810284,45.7435135]},"properties":{"id":"node/13523712926","source":"osm","name":null,"fee":"no","charge":null,"access":"yes","wheelchair":null,"opening_hours":null,"operator":null,"description":null,"password":null}},{"type":"Feature","geometry":{"type":"Point","coordinates":[4.8833937,45.7410933]},"properties":{"id":"node/13590786887","source":"osm","name":null,"fee":"no","charge":null,"access":"yes","wheelchair":null,"opening_hours":null,"operator":null,"description":null,"password":null}},{"type":"Feature","geometry":{"type":"Point","coordinates":[4.8463366,45.7522484]},"properties":{"id":"node/13620801882","source":"osm","name":null,"fee":"no","charge":null,"access":null,"wheelchair":"no","opening_hours":null,"operator":null,"description":null,"password":null}},{"type":"Feature","geometry":{"type":"Point","coordinates":[4.8055235,45.7763816]},"properties":{"id":"node/13622832536","source":"osm","name":null,"fee":"no","charge":null,"access":null,"wheelchair":"yes","opening_hours":null,"operator":null,"description":null,"password":null}},{"type":"Feature","geometry":{"type":"Point","coordinates":[4.8533798,45.7445692]},"properties":{"id":"node/13917693055","source":"osm","name":null,"fee":null,"charge":null,"access":null,"wheelchair":null,"opening_hours":null,"operator":null,"description":null,"password":null}},{"type":"Feature","geometry":{"type":"Point","coordinates":[4.8007708,45.7734301]},"properties":{"id":"node/13931626869","source":"osm","name":null,"fee":"no","charge":null,"access":null,"wheelchair":"yes","opening_hours":null,"operator":null,"description":null,"password":null}},{"type":"Feature","geometry":{"type":"Point","coordinates":[4.8067784,45.7665046]},"properties":{"id":"node/13958808289","source":"osm","name":null,"fee":null,"charge":null,"access":"private","wheelchair":"no","opening_hours":null,"operator":null,"description":null,"password":null}},{"type":"Feature","geometry":{"type":"Point","coordinates":[4.8337248,45.7670026]},"properties":{"id":"node/14107274924","source":"osm","name":null,"fee":"no","charge":null,"access":"yes","wheelchair":null,"opening_hours":null,"operator":null,"description":null,"password":null}},{"type":"Feature","geometry":{"type":"Point","coordinates":[4.8585937,45.7819856]},"properties":{"id":"way/62277092","source":"osm","name":"Ébats","fee":"no","charge":null,"access":null,"wheelchair":"yes","opening_hours":null,"operator":null,"description":null,"password":null}},{"type":"Feature","geometry":{"type":"Point","coordinates":[4.8503589,45.7752877]},"properties":{"id":"way/62277102","source":"osm","name":"Coupole","fee":"no","charge":null,"access":"yes","wheelchair":"yes","opening_hours":null,"operator":null,"description":null,"password":null}},{"type":"Feature","geometry":{"type":"Point","coordinates":[4.8564682,45.7827658]},"properties":{"id":"way/62277172","source":"osm","name":null,"fee":"no","charge":null,"access":"customers","wheelchair":null,"opening_hours":null,"operator":null,"description":null,"password":null}},{"type":"Feature","geometry":{"type":"Point","coordinates":[4.8514532,45.7775958]},"properties":{"id":"way/62277250","source":"osm","name":null,"fee":"no","charge":null,"access":"yes","wheelchair":"yes","opening_hours":null,"operator":null,"description":"No toilet paper disposal","password":null}},{"type":"Feature","geometry":{"type":"Point","coordinates":[4.8539426,45.7736865]},"properties":{"id":"way/62277254","source":"osm","name":"Daims","fee":"no","charge":null,"access":"yes","wheelchair":"yes","opening_hours":null,"operator":null,"description":null,"password":null}},{"type":"Feature","geometry":{"type":"Point","coordinates":[4.8567069,45.7794006]},"properties":{"id":"way/62277286","source":"osm","name":"Voûte","fee":"no","charge":null,"access":null,"wheelchair":"yes","opening_hours":null,"operator":null,"description":null,"password":null}},{"type":"Feature","geometry":{"type":"Point","coordinates":[4.8517024,45.7831704]},"properties":{"id":"way/62277306","source":"osm","name":null,"fee":"no","charge":null,"access":"yes","wheelchair":"yes","opening_hours":null,"operator":null,"description":null,"password":null}},{"type":"Feature","geometry":{"type":"Point","coordinates":[4.8811437,45.751977]},"properties":{"id":"way/62341122","source":"osm","name":null,"fee":"no","charge":null,"access":null,"wheelchair":"no","opening_hours":null,"operator":null,"description":null,"password":null}},{"type":"Feature","geometry":{"type":"Point","coordinates":[4.8684641,45.7519964]},"properties":{"id":"way/62342045","source":"osm","name":null,"fee":"no","charge":null,"access":null,"wheelchair":"yes","opening_hours":null,"operator":null,"description":null,"password":null}},{"type":"Feature","geometry":{"type":"Point","coordinates":[4.823449,45.7775585]},"properties":{"id":"way/95094185","source":"osm","name":null,"fee":"no","charge":null,"access":"yes","wheelchair":"no","opening_hours":null,"operator":null,"description":null,"password":null}},{"type":"Feature","geometry":{"type":"Point","coordinates":[4.7895345,45.755399]},"properties":{"id":"way/125551889","source":"osm","name":null,"fee":null,"charge":null,"access":"yes","wheelchair":null,"opening_hours":null,"operator":null,"description":null,"password":null}},{"type":"Feature","geometry":{"type":"Point","coordinates":[4.8177484,45.7750232]},"properties":{"id":"way/300695168","source":"osm","name":null,"fee":"no","charge":null,"access":"yes","wheelchair":"yes","opening_hours":null,"operator":null,"description":null,"password":null}},{"type":"Feature","geometry":{"type":"Point","coordinates":[4.7920872,45.7861538]},"properties":{"id":"way/422677576","source":"osm","name":null,"fee":"no","charge":null,"access":"yes","wheelchair":"yes","opening_hours":null,"operator":null,"description":null,"password":null}},{"type":"Feature","geometry":{"type":"Point","coordinates":[4.85726,45.7437698]},"properties":{"id":"way/482052436","source":"osm","name":null,"fee":"no","charge":null,"access":null,"wheelchair":"yes","opening_hours":null,"operator":null,"description":null,"password":null}},{"type":"Feature","geometry":{"type":"Point","coordinates":[4.8567792,45.7808142]},"properties":{"id":"way/614254151","source":"osm","name":"Les Bus","fee":"no","charge":null,"access":"yes","wheelchair":"yes","opening_hours":null,"operator":null,"description":null,"password":null}},{"type":"Feature","geometry":{"type":"Point","coordinates":[4.8772545,45.7489176]},"properties":{"id":"way/753671777","source":"osm","name":null,"fee":"no","charge":null,"access":null,"wheelchair":"yes","opening_hours":null,"operator":null,"description":null,"password":null}},{"type":"Feature","geometry":{"type":"Point","coordinates":[4.8149884,45.7434588]},"properties":{"id":"way/806804020","source":"osm","name":"Sanitaire Public de la Confluence","fee":"no","charge":null,"access":"yes","wheelchair":"yes","opening_hours":"Mo-Su 05:00-22:00","operator":"Ville de Lyon","description":null,"password":null}},{"type":"Feature","geometry":{"type":"Point","coordinates":[4.8818629,45.7414613]},"properties":{"id":"way/1046838388","source":"osm","name":"Toilettes Mixtes Aile B","fee":"no","charge":null,"access":null,"wheelchair":"yes","opening_hours":null,"operator":null,"description":null,"password":null}},{"type":"Feature","geometry":{"type":"Point","coordinates":[4.8808693,45.7414316]},"properties":{"id":"way/1046902671","source":"osm","name":"Toilettes RDC Hommes","fee":"no","charge":null,"access":null,"wheelchair":"yes","opening_hours":null,"operator":null,"description":null,"password":null}},{"type":"Feature","geometry":{"type":"Point","coordinates":[4.8808967,45.7415206]},"properties":{"id":"way/1046902672","source":"osm","name":"Toilettes RDC Femmes","fee":"no","charge":null,"access":null,"wheelchair":"yes","opening_hours":null,"operator":null,"description":null,"password":null}},{"type":"Feature","geometry":{"type":"Point","coordinates":[4.8810327,45.7411643]},"properties":{"id":"way/1046915260","source":"osm","name":"Toilettes Mixtes Aile D","fee":"no","charge":null,"access":null,"wheelchair":"yes","opening_hours":null,"operator":null,"description":null,"password":null}},{"type":"Feature","geometry":{"type":"Point","coordinates":[4.8817668,45.7411766]},"properties":{"id":"way/1046915261","source":"osm","name":"Toilettes Mixtes Aile C","fee":"no","charge":null,"access":null,"wheelchair":"yes","opening_hours":null,"operator":null,"description":null,"password":null}},{"type":"Feature","geometry":{"type":"Point","coordinates":[4.8814813,45.7406814]},"properties":{"id":"way/1047207859","source":"osm","name":"Toilettes Mixtes","fee":"no","charge":null,"access":null,"wheelchair":"yes","opening_hours":null,"operator":null,"description":null,"password":null}},{"type":"Feature","geometry":{"type":"Point","coordinates":[4.8812165,45.7417076]},"properties":{"id":"way/1047508029","source":"osm","name":"Toilettes Mixtes Aile A","fee":"no","charge":null,"access":null,"wheelchair":"yes","opening_hours":null,"operator":null,"description":null,"password":null}},{"type":"Feature","geometry":{"type":"Point","coordinates":[4.8810022,45.7416112]},"properties":{"id":"way/1047737364","source":"osm","name":"Toilettes personnels","fee":null,"charge":null,"access":"private","wheelchair":"yes","opening_hours":null,"operator":null,"description":null,"password":null}},{"type":"Feature","geometry":{"type":"Point","coordinates":[4.8812185,45.7417074]},"properties":{"id":"way/1049153111","source":"osm","name":"Toilettes Mixtes Aile A","fee":"no","charge":null,"access":null,"wheelchair":"yes","opening_hours":null,"operator":null,"description":null,"password":null}},{"type":"Feature","geometry":{"type":"Point","coordinates":[4.8810342,45.7411645]},"properties":{"id":"way/1049153180","source":"osm","name":"Toilettes Mixtes Aile D","fee":"no","charge":null,"access":null,"wheelchair":"yes","opening_hours":null,"operator":null,"description":null,"password":null}},{"type":"Feature","geometry":{"type":"Point","coordinates":[4.8810354,45.7411661]},"properties":{"id":"way/1049960203","source":"osm","name":"Toilettes Mixtes Aile D","fee":"no","charge":null,"access":"permissive","wheelchair":"yes","opening_hours":null,"operator":null,"description":null,"password":null}},{"type":"Feature","geometry":{"type":"Point","coordinates":[4.8806363,45.7414738]},"properties":{"id":"way/1049960204","source":"osm","name":"Toilettes BU Hommes","fee":"no","charge":null,"access":"permissive","wheelchair":"yes","opening_hours":null,"operator":null,"description":null,"password":null}},{"type":"Feature","geometry":{"type":"Point","coordinates":[4.8806695,45.7415678]},"properties":{"id":"way/1049960205","source":"osm","name":"Toilettes BU Femmes","fee":"no","charge":null,"access":"permissive","wheelchair":"yes","opening_hours":null,"operator":null,"description":null,"password":null}},{"type":"Feature","geometry":{"type":"Point","coordinates":[4.8810051,45.7416123]},"properties":{"id":"way/1049960241","source":"osm","name":"Toilettes Mixtes RAH","fee":"no","charge":null,"access":"permissive","wheelchair":"yes","opening_hours":null,"operator":null,"description":null,"password":null}},{"type":"Feature","geometry":{"type":"Point","coordinates":[4.8815532,45.7405486]},"properties":{"id":"way/1052707530","source":"osm","name":"Toilettes Mixtes Aile C","fee":"no","charge":null,"access":"permissive","wheelchair":"yes","opening_hours":null,"operator":null,"description":null,"password":null}},{"type":"Feature","geometry":{"type":"Point","coordinates":[4.8564897,45.7611884]},"properties":{"id":"way/1069638353","source":"osm","name":null,"fee":null,"charge":null,"access":null,"wheelchair":null,"opening_hours":null,"operator":null,"description":"payant","password":null}},{"type":"Feature","geometry":{"type":"Point","coordinates":[4.7936448,45.7839437]},"properties":{"id":"way/1070886926","source":"osm","name":null,"fee":null,"charge":null,"access":"yes","wheelchair":"yes","opening_hours":null,"operator":null,"description":null,"password":null}},{"type":"Feature","geometry":{"type":"Point","coordinates":[4.820987,45.7744118]},"properties":{"id":"way/1103868814","source":"osm","name":null,"fee":null,"charge":null,"access":null,"wheelchair":"no","opening_hours":null,"operator":null,"description":null,"password":null}},{"type":"Feature","geometry":{"type":"Point","coordinates":[4.8203623,45.7745468]},"properties":{"id":"way/1103868816","source":"osm","name":null,"fee":null,"charge":null,"access":null,"wheelchair":"no","opening_hours":null,"operator":null,"description":null,"password":null}},{"type":"Feature","geometry":{"type":"Point","coordinates":[4.8209809,45.7737422]},"properties":{"id":"way/1103868824","source":"osm","name":null,"fee":null,"charge":null,"access":null,"wheelchair":"no","opening_hours":null,"operator":null,"description":null,"password":null}},{"type":"Feature","geometry":{"type":"Point","coordinates":[4.8203214,45.7735052]},"properties":{"id":"way/1103868841","source":"osm","name":null,"fee":null,"charge":null,"access":"private","wheelchair":null,"opening_hours":null,"operator":null,"description":null,"password":null}},{"type":"Feature","geometry":{"type":"Point","coordinates":[4.8608667,45.7595636]},"properties":{"id":"way/1165439501","source":"osm","name":null,"fee":"yes","charge":"1 EUR","access":null,"wheelchair":"yes","opening_hours":"06:00-24:00","operator":null,"description":null,"password":null}},{"type":"Feature","geometry":{"type":"Point","coordinates":[4.8258042,45.748476]},"properties":{"id":"way/1166154831","source":"osm","name":null,"fee":"yes","charge":null,"access":null,"wheelchair":"yes","opening_hours":null,"operator":null,"description":null,"password":null}},{"type":"Feature","geometry":{"type":"Point","coordinates":[4.8208016,45.7739462]},"properties":{"id":"way/1185233517","source":"osm","name":null,"fee":null,"charge":null,"access":null,"wheelchair":"no","opening_hours":null,"operator":null,"description":null,"password":null}},{"type":"Feature","geometry":{"type":"Point","coordinates":[4.8209758,45.7740246]},"properties":{"id":"way/1185233525","source":"osm","name":null,"fee":null,"charge":null,"access":"private","wheelchair":"no","opening_hours":null,"operator":null,"description":null,"password":null}},{"type":"Feature","geometry":{"type":"Point","coordinates":[4.8204997,45.7745293]},"properties":{"id":"way/1185233527","source":"osm","name":null,"fee":null,"charge":null,"access":null,"wheelchair":"no","opening_hours":null,"operator":null,"description":null,"password":null}},{"type":"Feature","geometry":{"type":"Point","coordinates":[4.8200774,45.7737483]},"properties":{"id":"way/1185233529","source":"osm","name":null,"fee":null,"charge":null,"access":null,"wheelchair":"no","opening_hours":null,"operator":null,"description":null,"password":null}},{"type":"Feature","geometry":{"type":"Point","coordinates":[4.8197177,45.7740503]},"properties":{"id":"way/1185233530","source":"osm","name":null,"fee":null,"charge":null,"access":null,"wheelchair":"no","opening_hours":null,"operator":null,"description":null,"password":null}},{"type":"Feature","geometry":{"type":"Point","coordinates":[4.8198651,45.7743987]},"properties":{"id":"way/1185233533","source":"osm","name":null,"fee":null,"charge":null,"access":null,"wheelchair":"no","opening_hours":null,"operator":null,"description":null,"password":null}},{"type":"Feature","geometry":{"type":"Point","coordinates":[4.8205408,45.7745417]},"properties":{"id":"way/1185233538","source":"osm","name":null,"fee":null,"charge":null,"access":null,"wheelchair":"no","opening_hours":null,"operator":null,"description":null,"password":null}},{"type":"Feature","geometry":{"type":"Point","coordinates":[4.8201496,45.7738241]},"properties":{"id":"way/1185233553","source":"osm","name":null,"fee":null,"charge":null,"access":null,"wheelchair":"yes","opening_hours":null,"operator":null,"description":null,"password":null}},{"type":"Feature","geometry":{"type":"Point","coordinates":[4.8207458,45.7739573]},"properties":{"id":"way/1185233654","source":"osm","name":null,"fee":null,"charge":null,"access":null,"wheelchair":"no","opening_hours":null,"operator":null,"description":null,"password":null}},{"type":"Feature","geometry":{"type":"Point","coordinates":[4.8871323,45.7495843]},"properties":{"id":"way/1193077431","source":"osm","name":"Sanitaire Public de la Place du Château","fee":"no","charge":null,"access":"yes","wheelchair":"yes","opening_hours":"Mo-Su 06:00-02:00","operator":"Ville de Lyon","description":null,"password":null}},{"type":"Feature","geometry":{"type":"Point","coordinates":[4.8954163,45.7488703]},"properties":{"id":"way/1224381157","source":"osm","name":null,"fee":"no","charge":null,"access":null,"wheelchair":"yes","opening_hours":null,"operator":null,"description":null,"password":null}},{"type":"Feature","geometry":{"type":"Point","coordinates":[4.8175339,45.7375693]},"properties":{"id":"way/1299769375","source":"osm","name":null,"fee":"no","charge":null,"access":null,"wheelchair":"yes","opening_hours":"Mo-Su 10:00-20:00","operator":null,"description":null,"password":null}},{"type":"Feature","geometry":{"type":"Point","coordinates":[4.8822138,45.7405749]},"properties":{"id":"way/1301940760","source":"osm","name":"Toilettes mixtes","fee":"no","charge":null,"access":null,"wheelchair":"yes","opening_hours":null,"operator":null,"description":null,"password":null}},{"type":"Feature","geometry":{"type":"Point","coordinates":[4.882099,45.7405926]},"properties":{"id":"way/1301942066","source":"osm","name":"Toilettes femmes","fee":"no","charge":null,"access":null,"wheelchair":"yes","opening_hours":null,"operator":null,"description":null,"password":null}},{"type":"Feature","geometry":{"type":"Point","coordinates":[4.8820896,45.7405555]},"properties":{"id":"way/1301942067","source":"osm","name":"Toilettes hommes","fee":"no","charge":null,"access":null,"wheelchair":"yes","opening_hours":null,"operator":null,"description":null,"password":null}},{"type":"Feature","geometry":{"type":"Point","coordinates":[4.8827627,45.7408303]},"properties":{"id":"way/1302277865","source":"osm","name":null,"fee":null,"charge":null,"access":null,"wheelchair":"yes","opening_hours":null,"operator":null,"description":null,"password":null}},{"type":"Feature","geometry":{"type":"Point","coordinates":[4.882725,45.7408213]},"properties":{"id":"way/1302277866","source":"osm","name":null,"fee":null,"charge":null,"access":null,"wheelchair":"yes","opening_hours":null,"operator":null,"description":null,"password":null}},{"type":"Feature","geometry":{"type":"Point","coordinates":[4.882773,45.7408636]},"properties":{"id":"way/1302283595","source":"osm","name":null,"fee":null,"charge":null,"access":null,"wheelchair":null,"opening_hours":null,"operator":null,"description":null,"password":null}},{"type":"Feature","geometry":{"type":"Point","coordinates":[4.8827849,45.7408341]},"properties":{"id":"way/1302283596","source":"osm","name":null,"fee":null,"charge":null,"access":null,"wheelchair":null,"opening_hours":null,"operator":null,"description":null,"password":null}},{"type":"Feature","geometry":{"type":"Point","coordinates":[4.8822364,45.7406095]},"properties":{"id":"way/1304835807","source":"osm","name":null,"fee":"no","charge":null,"access":null,"wheelchair":"yes","opening_hours":null,"operator":null,"description":null,"password":null}},{"type":"Feature","geometry":{"type":"Point","coordinates":[4.8591255,45.7592487]},"properties":{"id":"way/1324402623","source":"osm","name":null,"fee":"yes","charge":"1 EUR","access":null,"wheelchair":"yes","opening_hours":"Mo-Su 07:00-22:00","operator":null,"description":null,"password":null}},{"type":"Feature","geometry":{"type":"Point","coordinates":[4.8235813,45.7203257]},"properties":{"id":"way/1349945766","source":"osm","name":"Sanitaire Public du Parc de Gerland Plaine des Jeux","fee":"no","charge":null,"access":"yes","wheelchair":"yes","opening_hours":"Oct 15-Apr 14 06:30-20:30; Apr 15-Oct 14 06:30-22:30","operator":"Ville de Lyon","description":null,"password":null}},{"type":"Feature","geometry":{"type":"Point","coordinates":[4.8811823,45.7406304]},"properties":{"id":"way/1355119714","source":"osm","name":null,"fee":"no","charge":null,"access":null,"wheelchair":"no","opening_hours":null,"operator":null,"description":null,"password":null}},{"type":"Feature","geometry":{"type":"Point","coordinates":[4.8792681,45.7417236]},"properties":{"id":"way/1355127945","source":"osm","name":null,"fee":null,"charge":null,"access":null,"wheelchair":null,"opening_hours":null,"operator":null,"description":null,"password":null}},{"type":"Feature","geometry":{"type":"Point","coordinates":[4.8792681,45.7417236]},"properties":{"id":"way/1355130647","source":"osm","name":null,"fee":null,"charge":null,"access":null,"wheelchair":"no","opening_hours":null,"operator":null,"description":null,"password":null}},{"type":"Feature","geometry":{"type":"Point","coordinates":[4.8792681,45.7417237]},"properties":{"id":"way/1355132801","source":"osm","name":null,"fee":null,"charge":null,"access":null,"wheelchair":"no","opening_hours":null,"operator":null,"description":null,"password":null}},{"type":"Feature","geometry":{"type":"Point","coordinates":[4.8828495,45.741633]},"properties":{"id":"way/1355134885","source":"osm","name":null,"fee":null,"charge":null,"access":null,"wheelchair":"no","opening_hours":null,"operator":null,"description":null,"password":null}},{"type":"Feature","geometry":{"type":"Point","coordinates":[4.882848,45.7416279]},"properties":{"id":"way/1355134891","source":"osm","name":null,"fee":null,"charge":null,"access":null,"wheelchair":null,"opening_hours":null,"operator":null,"description":null,"password":null}},{"type":"Feature","geometry":{"type":"Point","coordinates":[4.8203144,45.7748873]},"properties":{"id":"way/1355634280","source":"osm","name":null,"fee":null,"charge":null,"access":null,"wheelchair":"yes","opening_hours":null,"operator":null,"description":null,"password":null}},{"type":"Feature","geometry":{"type":"Point","coordinates":[4.8202345,45.7748855]},"properties":{"id":"way/1355634281","source":"osm","name":null,"fee":null,"charge":null,"access":null,"wheelchair":"no","opening_hours":null,"operator":null,"description":null,"password":null}},{"type":"Feature","geometry":{"type":"Point","coordinates":[4.8202188,45.7749101]},"properties":{"id":"way/1355634282","source":"osm","name":null,"fee":null,"charge":null,"access":null,"wheelchair":"no","opening_hours":null,"operator":null,"description":null,"password":null}},{"type":"Feature","geometry":{"type":"Point","coordinates":[4.8202062,45.7749292]},"properties":{"id":"way/1355634283","source":"osm","name":null,"fee":null,"charge":null,"access":null,"wheelchair":"yes","opening_hours":null,"operator":null,"description":null,"password":null}},{"type":"Feature","geometry":{"type":"Point","coordinates":[4.8201753,45.7749638]},"properties":{"id":"way/1355638958","source":"osm","name":null,"fee":null,"charge":null,"access":"private","wheelchair":"yes","opening_hours":null,"operator":null,"description":null,"password":null}},{"type":"Feature","geometry":{"type":"Point","coordinates":[4.8203194,45.7749632]},"properties":{"id":"way/1355638966","source":"osm","name":null,"fee":null,"charge":null,"access":null,"wheelchair":"yes","opening_hours":null,"operator":null,"description":null,"password":null}},{"type":"Feature","geometry":{"type":"Point","coordinates":[4.8202881,45.7749537]},"properties":{"id":"way/1355638967","source":"osm","name":null,"fee":null,"charge":null,"access":null,"wheelchair":"yes","opening_hours":null,"operator":null,"description":null,"password":null}},{"type":"Feature","geometry":{"type":"Point","coordinates":[4.895054,45.7481114]},"properties":{"id":"way/1390626079","source":"osm","name":null,"fee":"no","charge":null,"access":"yes","wheelchair":null,"opening_hours":null,"operator":null,"description":null,"password":null}},{"type":"Feature","geometry":{"type":"Point","coordinates":[4.857258,45.7325373]},"properties":{"id":"way/1535980473","source":"osm","name":null,"fee":null,"charge":null,"access":null,"wheelchair":"yes","opening_hours":null,"operator":null,"description":null,"password":null}},{"type":"Feature","geometry":{"type":"Point","coordinates":[4.8608,45.7602]},"properties":{"id":"xhs/mcdonald-s-part-dieu","source":"xhs","name":"McDonald's (Part-Dieu)","fee":"yes","charge":null,"access":null,"wheelchair":null,"opening_hours":null,"operator":null,"description":"","password":"2109 / 2166 / 4972","code_confirmed_at":null,"cleanliness":null,"city":"france/lyon"}},{"type":"Feature","geometry":{"type":"Point","coordinates":[4.8615,45.7606]},"properties":{"id":"xhs/burger-king-part-dieu","source":"xhs","name":"Burger King (Part-Dieu)","fee":"yes","charge":null,"access":null,"wheelchair":null,"opening_hours":null,"operator":null,"description":"","password":"C0458A","code_confirmed_at":null,"cleanliness":null,"city":"france/lyon"}},{"type":"Feature","geometry":{"type":"Point","coordinates":[4.8613,45.76]},"properties":{"id":"xhs/popeyes-part-dieu","source":"xhs","name":"Popeyes (Part-Dieu)","fee":"yes","charge":null,"access":null,"wheelchair":null,"opening_hours":null,"operator":null,"description":"","password":"C0589 / C3859 / CB7280","code_confirmed_at":null,"cleanliness":null,"city":"france/lyon"}},{"type":"Feature","geometry":{"type":"Point","coordinates":[4.861,45.7604]},"properties":{"id":"xhs/woko-part-dieu","source":"xhs","name":"WOKO (Part-Dieu)","fee":"yes","charge":null,"access":null,"wheelchair":null,"opening_hours":null,"operator":null,"description":"","password":"C1234","code_confirmed_at":null,"cleanliness":null,"city":"france/lyon"}},{"type":"Feature","geometry":{"type":"Point","coordinates":[4.834229,45.758198]},"properties":{"id":"xhs/mcdonald-s-bellecour","source":"xhs","name":"McDonald's (Bellecour)","fee":"yes","charge":null,"access":null,"wheelchair":null,"opening_hours":null,"operator":null,"description":"","password":"4972","code_confirmed_at":null,"cleanliness":null,"city":"france/lyon"}},{"type":"Feature","geometry":{"type":"Point","coordinates":[4.86015,45.760365]},"properties":{"id":"xhs/pr-t-manger-lyon","source":"xhs","name":"Prêt à Manger (Lyon)","fee":"yes","charge":null,"access":null,"wheelchair":null,"opening_hours":null,"operator":null,"description":"","password":"CB123","code_confirmed_at":null,"cleanliness":null,"city":"france/lyon"}},{"type":"Feature","geometry":{"type":"Point","coordinates":[4.854037,45.74953]},"properties":{"id":"xhs/monoprix-lyon","source":"xhs","name":"Monoprix (Lyon)","fee":"yes","charge":null,"access":null,"wheelchair":null,"opening_hours":null,"operator":null,"description":"","password":"1610","code_confirmed_at":null,"cleanliness":null,"city":"france/lyon"}},{"type":"Feature","geometry":{"type":"Point","coordinates":[4.863302,45.770065]},"properties":{"id":"xhs/mcdonald-s-charpennes","source":"xhs","name":"McDonald's (Charpennes)","fee":"yes","charge":null,"access":null,"wheelchair":null,"opening_hours":null,"operator":null,"description":"","password":"4909","code_confirmed_at":null,"cleanliness":null,"city":"france/lyon"}},{"type":"Feature","geometry":{"type":"Point","coordinates":[4.835474,45.761427]},"properties":{"id":"xhs/printemps-lyon-top-floor-parking","source":"xhs","name":"Printemps Lyon (top floor parking)","fee":"no","charge":null,"access":null,"wheelchair":null,"opening_hours":null,"operator":null,"description":"里昂春天百货顶楼停车场厕所","password":null,"code_confirmed_at":null,"cleanliness":null,"city":"france/lyon"}}]}